HIERARCHY
ROOT Spine1
{
	OFFSET 0.000000 0.000000 0.000000
	CHANNELS 6 Xposition Yposition Zposition Yrotation Zrotation Xrotation
	JOINT ShoulderCenter
	{
		OFFSET -0.205514 18.876436 0.135159
		CHANNELS 3 Yrotation Zrotation Xrotation
		JOINT Head
		{
			OFFSET 0.770116 17.627657 -2.090287
			CHANNELS 3 Yrotation Zrotation Xrotation
			End Site
			{
				OFFSET 0.000000 0.000000 0.000000
			}
		}
	}
	JOINT ShoulderCenterRight
	{
		OFFSET -0.205514 18.876436 0.135159
		CHANNELS 3 Yrotation Zrotation Xrotation
		JOINT RightShoulder
		{
			OFFSET 17.845980 -12.702277 -2.126908
			CHANNELS 3 Yrotation Zrotation Xrotation
			JOINT RightElbow
			{
				OFFSET 8.847807 -25.499380 2.134490
				CHANNELS 3 Yrotation Zrotation Xrotation
				JOINT RightWrist
				{
					OFFSET 5.272747 -21.557648 -6.138015
					CHANNELS 3 Yrotation Zrotation Xrotation
					JOINT RightHand
					{
						OFFSET -0.533871 -8.203170 -1.887393
						CHANNELS 3 Yrotation Zrotation Xrotation
						End Site
						{
							OFFSET 0.000000 0.000000 0.000000
						}
					}
				}
			}
		}
	}
	JOINT ShoulderCenterLeft
	{
		OFFSET -0.205514 18.876436 0.135159
		CHANNELS 3 Yrotation Zrotation Xrotation
		JOINT LeftShoulder
		{
			OFFSET -16.847723 -13.857049 -4.385018
			CHANNELS 3 Yrotation Zrotation Xrotation
			JOINT LeftElbow
			{
				OFFSET -8.563190 -24.046736 4.514146
				CHANNELS 3 Yrotation Zrotation Xrotation
				JOINT LeftWrist
				{
					OFFSET -4.485908 -21.382311 -11.171365
					CHANNELS 3 Yrotation Zrotation Xrotation
					JOINT LeftHand
					{
						OFFSET 0.129318 -7.897506 -1.070809
						CHANNELS 3 Yrotation Zrotation Xrotation
						End Site
						{
							OFFSET 0.000000 0.000000 0.000000
						}
					}
				}
			}
		}
	}
	JOINT Spine
	{
		OFFSET 0.205514 -18.876436 -0.135183
		CHANNELS 3 Yrotation Zrotation Xrotation
		JOINT HipCenterRight
		{
			OFFSET 0.417976 -6.538494 -5.735588
			CHANNELS 3 Yrotation Zrotation Xrotation
			JOINT RightHip
			{
				OFFSET 7.923275 -7.724222 -0.286913
				CHANNELS 3 Yrotation Zrotation Xrotation
				JOINT RightKnee
				{
					OFFSET 3.370692 -49.466190 8.306599
					CHANNELS 3 Yrotation Zrotation Xrotation
					JOINT RightAnkle
					{
						OFFSET 0.972806 -34.745415 2.176142
						CHANNELS 3 Yrotation Zrotation Xrotation
						JOINT RightFoot
						{
							OFFSET 2.233496 -5.360538 -4.802442
							CHANNELS 3 Yrotation Zrotation Xrotation
							End Site
							{
								OFFSET 0.000000 0.000000 0.000000
							}
						}
					}
				}
			}
		}
		JOINT HipCenterLeft
		{
			OFFSET 0.417976 -6.538494 -5.735588
			CHANNELS 3 Yrotation Zrotation Xrotation
			JOINT LeftHip
			{
				OFFSET -7.696061 -7.801840 -2.236056
				CHANNELS 3 Yrotation Zrotation Xrotation
				JOINT LeftKnee
				{
					OFFSET -5.945611 -47.569527 7.938027
					CHANNELS 3 Yrotation Zrotation Xrotation
					JOINT LeftAnkle
					{
						OFFSET -0.066772 -36.578144 2.390933
						CHANNELS 3 Yrotation Zrotation Xrotation
						JOINT LeftFoot
						{
							OFFSET -2.356356 -6.590277 -5.911922
							CHANNELS 3 Yrotation Zrotation Xrotation
							End Site
							{
								OFFSET 0.000000 0.000000 0.000000
							}
						}
					}
				}
			}
		}
	}
}
MOTION
Frames: 100
Frame Time: 0.033333
0.000000 0.000000 0.000000 0.000000 0.000000 0.000000 0.000000 0.000000 0.000000 0.0 0.0 0.0 0.000000 0.000000 0.000000 0.000000 0.000000 0.000000 0.000000 0.000000 0.000000 0.000000 0.000000 0.000000 0.0 0.0 0.0 0.000000 0.000000 0.000000 0.000000 0.000000 0.000000 0.000000 0.000000 0.000000 0.000000 0.000000 0.000000 0.0 0.0 0.0 0.000000 0.000000 0.000000 0.000000 0.000000 0.000000 0.000000 0.000000 0.000000 0.000000 0.000000 0.000000 0.000000 0.000000 0.000000 0.0 0.0 0.0 0.000000 0.000000 0.000000 0.000000 0.000000 0.000000 0.000000 0.000000 0.000000 0.000000 0.000000 0.000000 0.0 0.0 0.0 
0.005658 -0.030872 0.008488 -0.000643 0.028729 -0.041014 -0.016331 -0.098049 0.109855 0.0 0.0 0.0 0.000011 -0.000024 0.000005 0.006714 -0.047639 0.030809 -0.018369 -0.195711 -0.300916 -0.275082 0.814952 1.205548 0.0 0.0 0.0 0.119793 -0.096026 -0.073506 0.061155 -0.063859 -0.205624 -0.114909 0.105461 0.283242 0.227060 -1.084616 3.064511 0.0 0.0 0.0 0.012991 -0.018091 -0.044852 0.007393 0.062305 0.009464 -0.008190 -0.075106 0.064261 -0.010114 -0.162854 0.002899 -0.573115 0.600873 -0.082443 0.0 0.0 0.0 -0.075750 0.158236 0.030872 -0.044747 -0.233445 0.047034 0.008106 0.122319 -0.038116 -0.524636 0.581137 0.011634 0.0 0.0 0.0 
0.054161 -0.087062 0.020361 -0.001397 0.024003 -0.114748 0.011958 0.102299 0.003850 0.0 0.0 0.0 -0.009374 0.024540 -0.003746 0.065084 -0.115712 0.214958 -0.132830 -0.165826 -0.732950 -0.157379 0.222185 1.578223 0.0 0.0 0.0 0.173336 -0.241459 -0.079525 0.052671 0.040657 -0.126337 -0.158863 0.162808 0.348443 0.220111 -1.004282 3.305097 0.0 0.0 0.0 0.006322 -0.012560 -0.073282 -0.481290 0.023607 -0.468410 0.048008 -0.064796 0.857997 -0.013405 -0.122547 -0.197084 -0.154853 0.549720 0.822950 0.0 0.0 0.0 -0.349348 0.170524 0.304397 -0.037284 -0.276914 -0.072939 0.012508 0.170648 -0.407507 -0.850684 2.050559 -2.573570 0.0 0.0 0.0 
0.059105 -0.095123 0.037527 -0.001374 0.022905 -0.113245 0.008626 0.056368 -0.043968 0.0 0.0 0.0 -0.000017 -0.000016 -0.000014 0.073725 -0.082951 0.232091 -0.166986 -0.284095 -1.005343 -0.259438 0.568689 1.823373 0.0 0.0 0.0 0.142989 -0.197371 -0.066105 0.082869 0.022892 -0.220449 -0.117451 -0.110238 0.835935 -0.027188 0.288594 0.863935 0.0 0.0 0.0 -0.003336 0.000163 -0.049967 -0.422222 0.017140 -0.411046 0.043946 -0.047414 0.757896 -0.004696 -0.066645 -0.018280 1.557094 -0.603298 2.349652 0.0 0.0 0.0 -0.220509 0.235442 0.155175 -0.085012 -0.411964 0.133823 0.018386 0.254037 -0.439405 0.863147 -0.711959 -0.645893 0.0 0.0 0.0 
0.073865 -0.065604 0.063753 -0.001381 0.045930 -0.100333 0.013707 0.039754 -0.204170 0.0 0.0 0.0 0.023834 -0.146230 -0.000433 0.067798 0.017291 0.191322 -0.187485 -0.293468 -1.099194 -0.005433 -0.323201 1.281348 0.0 0.0 0.0 0.376184 -0.107190 -0.281614 -0.112835 -0.108311 0.260481 0.070907 -0.377104 0.611901 -0.108739 0.833252 0.474129 0.0 0.0 0.0 0.087469 -0.104525 -0.064349 -0.397283 0.068156 -0.384869 0.045272 -0.026423 0.727753 0.021728 -0.006520 0.789341 0.322203 -0.525980 -0.350204 0.0 0.0 0.0 -0.150851 0.338269 0.054902 -0.117403 -0.475926 0.314284 0.022510 0.288920 -0.831386 1.292741 -1.815168 1.034360 0.0 0.0 0.0 
0.098658 -0.069341 0.107431 -0.001071 0.020079 -0.086556 0.030501 0.134769 -0.323462 0.0 0.0 0.0 0.044015 -0.292805 -0.003449 0.147696 0.150108 0.390849 -0.264264 -0.212031 -1.321251 -0.003493 -0.244982 0.950864 0.0 0.0 0.0 0.345126 -0.028791 -0.276557 -0.214646 -0.410347 0.389978 0.180623 -0.593227 0.635499 -0.231070 1.683306 -1.957663 0.0 0.0 0.0 0.069163 -0.084643 -0.077970 -0.299540 0.084095 -0.288984 0.038598 -0.025854 0.628598 0.024189 0.038908 0.786815 0.398868 -0.246966 0.421807 0.0 0.0 0.0 -0.139346 0.411790 0.022030 -0.130331 -0.584516 0.273252 0.031452 0.430457 -0.592022 1.355560 -2.130137 1.719043 0.0 0.0 0.0 
0.134400 -0.083631 0.123215 -0.000713 -0.009714 -0.071342 0.041800 0.397841 0.113760 0.0 0.0 0.0 0.054023 -0.362908 -0.004618 0.117011 0.275565 0.272421 -0.220103 0.083232 -0.807030 0.299403 -1.285192 -0.065238 0.0 0.0 0.0 0.437575 0.042643 -0.371418 -0.542051 -1.511114 0.747939 0.078772 -0.127851 -0.057396 0.267132 -1.850033 0.497554 0.0 0.0 0.0 0.111037 -0.132474 -0.078291 -0.305070 0.155906 -0.291760 0.039026 -0.019360 0.619416 0.016529 -0.075892 0.742795 0.005291 0.094350 0.215971 0.0 0.0 0.0 -0.178269 0.464637 0.046232 -0.129892 -0.591918 0.259395 0.034745 0.463099 -0.760255 1.480799 -2.156141 1.416802 0.0 0.0 0.0 
0.215417 -0.234279 0.101876 -0.000915 -0.019255 -0.095270 0.049682 0.618491 0.481274 0.0 0.0 0.0 -0.043586 -0.547430 -0.096153 0.169155 0.647129 0.336018 -0.417056 2.533213 1.384428 0.938589 -3.625965 -3.236991 0.0 0.0 0.0 -0.139751 1.342898 -0.230659 -0.761509 -4.804233 -0.486572 0.206670 -1.120025 1.903289 -0.176163 1.280893 -0.491209 0.0 0.0 0.0 -0.078158 0.051917 -0.518715 -0.016221 0.411369 -0.000862 -0.016411 -0.416812 0.746168 0.006010 -0.311445 0.830786 -0.899292 0.850554 -0.334442 0.0 0.0 0.0 -0.227568 -0.346931 0.331632 -0.068313 -0.117620 0.392992 0.045650 0.616510 -0.739982 1.582795 -2.357603 1.675812 0.0 0.0 0.0 
0.238539 -0.268367 0.113487 -0.000621 -0.031370 -0.075793 0.061550 0.736396 0.513268 0.0 0.0 0.0 -0.047751 -0.543429 -0.098653 0.279082 2.252158 0.270945 -0.616357 4.772684 3.721006 -1.407921 5.718772 0.811958 0.0 0.0 0.0 -0.400040 1.881079 -0.151855 -1.473752 -9.323898 -1.187398 0.176143 -1.219022 2.324626 0.227573 -1.175352 2.536367 0.0 0.0 0.0 -0.128532 0.111730 -0.492427 0.090724 0.437460 0.104324 -0.043929 -0.501220 0.554226 -0.010840 -0.591938 0.790835 -1.805191 2.194267 0.456770 0.0 0.0 0.0 -0.084399 -0.456436 0.218676 -0.084819 -0.127322 0.513608 0.051541 0.694246 -0.778523 1.666529 -2.491667 1.802629 0.0 0.0 0.0 
0.241128 -0.320449 0.085831 -0.000639 -0.089331 -0.109596 0.070944 0.981167 0.867276 0.0 0.0 0.0 -0.167448 -0.959298 -0.233569 0.659480 5.973406 0.499701 -0.164948 4.237803 5.034438 0.331593 -0.451705 -3.761955 0.0 0.0 0.0 -0.508740 2.305140 -0.168396 -2.484730 -13.037560 -0.311565 1.023299 -2.806322 2.482035 1.306951 -11.745580 -2.392032 0.0 0.0 0.0 -0.193728 0.181056 -0.573194 0.190131 0.495826 0.203331 -0.051635 -0.537162 0.528799 -0.005463 -0.648028 1.043552 -2.122756 2.122500 -0.536969 0.0 0.0 0.0 -0.039399 -0.738522 0.255909 -0.039267 0.201412 0.575313 0.024083 0.334547 -0.465525 -0.527106 -0.388329 2.441325 0.0 0.0 0.0 
0.264108 -0.324830 0.111270 0.000360 -0.135041 -0.050314 0.108486 1.214114 0.651499 0.0 0.0 0.0 -0.116823 -1.187577 -0.224277 1.668364 13.185762 2.141187 0.014357 3.813145 5.203024 0.119023 1.191003 -5.221822 0.0 0.0 0.0 -0.447484 2.275177 -0.211637 -3.672398 -17.701735 0.618500 2.645369 -5.906765 3.226005 0.120171 -0.210776 4.986791 0.0 0.0 0.0 -0.186551 0.171604 -0.590185 0.123587 0.527816 0.139648 -0.051625 -0.548602 0.554524 0.010564 -0.425945 1.174443 -1.681508 1.537535 -0.755419 0.0 0.0 0.0 -0.093584 -0.726531 0.307271 -0.002217 0.303358 0.414002 0.011402 0.164320 -0.202479 -0.797757 -0.026654 2.259601 0.0 0.0 0.0 
0.246692 -0.361356 0.131965 0.001545 -0.208404 0.004145 0.144921 1.476481 0.530439 0.0 0.0 0.0 -0.457412 -0.743707 -0.415458 2.465089 17.458714 4.492067 -1.317079 6.848217 3.604268 -0.680867 2.870063 0.234981 0.0 0.0 0.0 -0.720100 2.074020 0.064381 -5.587335 -27.265921 -1.038937 -0.028676 -0.401063 1.153859 2.813880 -11.610529 10.185102 0.0 0.0 0.0 -0.387990 0.404408 -0.577330 0.201813 0.420300 0.211967 -0.067648 -0.578812 0.402859 -0.004931 -0.568062 0.929865 -1.462282 0.549424 -2.415095 0.0 0.0 0.0 0.057292 -0.965286 0.224821 0.008333 0.380232 0.429512 0.015792 0.229429 -0.207381 0.322077 -1.187495 2.159568 0.0 0.0 0.0 
0.287616 -0.348631 0.154543 0.000583 -0.071749 0.006030 0.139491 1.542956 0.757461 0.0 0.0 0.0 -0.574679 -0.665832 -0.490003 2.960757 24.341412 5.192379 -0.745321 6.584709 6.160327 -0.505545 2.531291 -0.864277 0.0 0.0 0.0 0.530459 1.262339 -0.764690 -6.821736 -30.606089 3.900552 2.380280 -4.449600 -0.220620 1.782429 -10.045935 3.942245 0.0 0.0 0.0 -0.040826 0.013912 -0.450798 -0.156253 0.772007 -0.124141 -0.067661 -0.689394 0.647457 0.004313 -0.441340 1.003356 -1.213026 0.039020 -2.894791 0.0 0.0 0.0 -0.250025 -0.583857 0.423744 0.025975 0.214159 0.076886 0.015848 0.231160 -0.191704 0.219937 -1.045834 2.073575 0.0 0.0 0.0 
0.350043 -0.294676 0.232267 0.001323 -0.037946 0.093752 0.176025 1.671367 0.377498 0.0 0.0 0.0 -1.092847 -0.184061 -0.801556 3.531748 32.672108 7.049348 0.631288 3.257062 7.130600 -0.912671 9.126245 -8.075221 0.0 0.0 0.0 2.012098 -0.331955 -1.573712 -8.253297 -37.059170 9.553002 2.712694 -4.012278 -3.669736 0.545170 -3.048946 3.022547 0.0 0.0 0.0 0.226893 -0.275757 -0.219893 -0.296551 0.834693 -0.258575 -0.066619 -0.590197 0.442398 0.011910 -0.314774 1.028822 -1.172369 0.091925 -2.678876 0.0 0.0 0.0 -0.348138 -0.021564 0.358874 0.008871 -0.061372 -0.153552 0.012636 0.185902 -0.140376 -0.446229 -0.113504 1.521613 0.0 0.0 0.0 
0.426444 -0.192541 0.356197 0.001791 0.018454 0.179334 0.226654 1.794605 -0.234758 0.0 0.0 0.0 -1.323948 0.315518 -0.904141 3.661162 35.642056 7.446668 -2.339801 11.751522 7.911057 -1.340204 6.176201 -0.636140 0.0 0.0 0.0 2.081239 0.239260 -1.783828 -10.323509 -46.434750 5.088585 3.484831 -6.572213 -0.047172 3.029231 -11.113382 12.935893 0.0 0.0 0.0 0.241382 -0.288149 -0.166127 -0.210392 0.643699 -0.181622 -0.072541 -0.547390 0.265074 0.015175 -0.226340 0.979508 -1.049605 0.273227 -1.979316 0.0 0.0 0.0 -0.362867 0.189867 0.312479 -0.052639 -0.422614 -0.147729 0.027397 0.380950 -0.483223 -0.620050 -0.334464 2.557248 0.0 0.0 0.0 
0.414318 -0.045481 0.424767 0.002097 0.074591 0.257034 0.220757 1.655928 -0.420137 0.0 0.0 0.0 -1.938690 1.615769 -1.174228 3.917901 45.015835 8.791359 -0.276017 6.444566 8.325538 -2.007087 14.662334 -6.908620 0.0 0.0 0.0 3.577847 -2.558126 -2.257379 -9.685884 -51.734303 16.459341 5.385573 -7.560170 -11.370006 2.542222 -6.360706 22.157009 0.0 0.0 0.0 0.515049 -0.524542 0.760147 -0.447422 0.378793 -0.422407 -0.066406 -0.173609 -0.534157 0.041280 0.172383 1.151442 -0.522364 -1.201266 -3.782743 0.0 0.0 0.0 -0.076770 1.088207 -0.235317 -0.115541 -1.031523 -0.489784 0.018254 0.242381 -0.610190 -1.247154 0.203528 2.885995 0.0 0.0 0.0 
0.465187 0.363287 0.506496 -0.001191 0.329217 0.145469 0.160351 1.215928 -0.298078 0.0 0.0 0.0 -2.199022 2.853474 -1.194330 3.083339 52.083321 14.691709 -1.868545 7.169064 1.149445 -1.416965 7.426220 -2.168082 0.0 0.0 0.0 4.861169 -5.716233 -2.393173 -9.688653 -57.580597 18.980442 4.784055 -5.223526 -14.049222 4.189620 -12.278935 19.420816 0.0 0.0 0.0 0.658893 -0.612715 1.636726 -0.942872 -0.004958 -0.919641 -0.096502 -0.306942 -0.633810 0.065114 0.615923 1.174399 -0.074248 -1.056297 -2.400074 0.0 0.0 0.0 -0.099621 1.794418 -0.412203 -0.187652 -1.786924 -1.016521 0.004541 0.048002 -0.624382 -1.488578 0.437364 2.943817 0.0 0.0 0.0 
0.428399 0.499812 0.548077 -0.001318 0.426597 0.242315 0.064454 0.422821 -0.301958 0.0 0.0 0.0 -2.171156 3.543603 -1.082157 2.032820 59.868843 16.796143 -2.854260 7.683126 -3.621393 -4.298603 12.055986 8.605760 0.0 0.0 0.0 5.456495 -7.317411 -2.390019 -9.641775 -61.007175 20.030346 7.450992 -12.436434 -11.452412 3.429117 -14.199588 10.331005 0.0 0.0 0.0 0.826572 -0.759390 2.091175 -1.194991 -0.019791 -1.166138 -0.119436 -0.322652 -0.917678 0.047492 0.527803 0.617450 0.089447 -0.123579 -0.050726 0.0 0.0 0.0 -0.056306 1.539073 -0.384076 -0.053976 -1.339861 -1.498801 -0.008222 -0.134671 -0.899841 -1.257249 0.037187 3.327940 0.0 0.0 0.0 
0.425419 0.649759 0.614166 -0.001071 0.471948 0.340938 0.008905 -0.164871 -0.673345 0.0 0.0 0.0 -1.976774 4.012704 -0.883285 3.029727 66.153999 12.676714 -1.306879 3.967122 -0.802435 -4.535160 41.393780 -11.711089 0.0 0.0 0.0 5.323443 -8.047606 -2.052208 -11.544772 -65.878098 16.066559 9.717076 -17.680668 -11.244740 -0.642361 3.378773 13.184349 0.0 0.0 0.0 0.837544 -0.771241 2.093700 -0.934993 0.166089 -0.905682 -0.213252 -0.676975 -1.340097 0.073006 0.879977 0.881452 0.210754 -1.575285 -2.775532 0.0 0.0 0.0 0.133261 1.437908 -0.547778 -0.054818 -1.240906 -1.335307 -0.012065 -0.187321 -0.975757 -1.257228 0.078288 3.224991 0.0 0.0 0.0 
0.447604 0.760087 0.607681 -0.001243 0.496573 0.352833 0.005275 -0.251233 -0.844932 0.0 0.0 0.0 -1.969174 4.392151 -0.826747 2.643374 69.237587 13.294935 -4.908800 16.482805 -0.138043 -0.756726 4.197827 -2.011706 0.0 0.0 0.0 5.265492 -8.809944 -1.763107 -13.991474 -72.824028 13.529806 9.280191 -16.562735 -13.781033 -2.327335 9.900316 13.346828 0.0 0.0 0.0 0.823584 -0.748323 2.181876 -0.951309 0.149737 -0.922198 -0.236967 -0.776376 -1.417629 0.072778 0.891736 0.838143 -0.321771 -0.963819 -2.807134 0.0 0.0 0.0 0.240215 1.346447 -0.630429 -0.053078 -1.208059 -1.299179 -0.011141 -0.174937 -1.005910 -1.002813 0.012022 2.713787 0.0 0.0 0.0 
0.505692 0.927326 0.619125 -0.000297 0.435261 0.397648 0.024783 -0.057561 -0.731471 0.0 0.0 0.0 -2.027412 4.986597 -0.786246 4.642851 77.511711 9.449369 -1.548645 4.827096 -0.793389 -3.841540 25.705881 -7.020750 0.0 0.0 0.0 4.889540 -9.027569 -1.388833 -18.444302 -80.794846 10.136080 8.424434 -13.887041 -18.666986 0.932323 -2.970009 12.164454 0.0 0.0 0.0 0.711109 -0.632325 2.092052 -0.979350 0.202147 -0.947623 -0.259177 -0.960598 -1.274444 0.075022 0.979586 0.703345 -1.336285 -0.363143 -4.061665 0.0 0.0 0.0 0.154059 1.123510 -0.479546 0.000420 -1.009414 -1.453423 -0.027869 -0.406812 -0.734088 -1.090268 0.127974 2.657283 0.0 0.0 0.0 
0.498286 1.014775 0.567818 -0.000361 0.352979 0.277452 0.025732 0.084090 -0.354596 0.0 0.0 0.0 -2.031228 6.181244 -0.624133 4.165412 78.453171 10.225946 -3.310822 10.234274 -2.162224 -3.040197 21.584383 -7.426763 0.0 0.0 0.0 5.097131 -10.331352 -1.135235 -17.104288 -79.283081 11.297002 12.470716 -24.500429 -16.181246 1.054509 -2.445538 18.401329 0.0 0.0 0.0 0.815533 -0.725050 2.350800 -1.165777 0.085551 -1.133766 -0.180117 -0.569686 -1.151729 0.036042 0.542221 0.089330 -1.312444 0.970211 -1.102299 0.0 0.0 0.0 0.234087 1.163911 -0.572306 0.044359 -0.742212 -1.418259 -0.039673 -0.569265 -0.777959 -1.396683 -0.267346 4.464237 0.0 0.0 0.0 
0.523594 1.281020 0.544739 0.000068 0.375161 0.361755 0.042850 0.185828 -0.459010 0.0 0.0 0.0 -1.783901 7.733809 -0.238011 2.753955 80.863579 12.244960 -3.503902 8.701458 -5.986291 -1.468338 16.002073 -10.631722 0.0 0.0 0.0 5.219847 -11.464058 -0.859245 -22.783434 -81.695251 4.792649 11.536245 -22.245554 -16.870121 5.117601 -14.194279 21.501047 0.0 0.0 0.0 0.962962 -0.877597 2.451746 -1.218478 0.210848 -1.180565 -0.209596 -0.662246 -1.326529 0.046283 0.676555 0.176771 -1.180485 0.558582 -1.683384 0.0 0.0 0.0 0.281421 1.343419 -0.671423 0.064707 -0.726021 -1.564670 -0.050909 -0.742831 -0.502000 -1.142938 0.063744 2.958089 0.0 0.0 0.0 
0.582652 1.432487 0.529718 0.001682 0.264836 0.417239 0.100070 0.619561 -0.541188 0.0 0.0 0.0 -1.883399 8.249382 -0.232347 3.043272 81.231438 11.829064 -5.239697 14.814384 -8.207414 -3.024565 14.755774 -1.809807 0.0 0.0 0.0 5.506603 -12.108283 -0.871826 -23.263966 -81.922424 4.315536 13.203655 -26.212671 -15.761822 1.585104 -4.388634 17.382046 0.0 0.0 0.0 1.022874 -0.939894 2.487671 -1.251232 0.182315 -1.213571 -0.180068 -0.461628 -1.416371 0.049689 0.698517 0.271136 -0.907359 0.403772 -1.340477 0.0 0.0 0.0 0.248619 1.234406 -0.607126 0.113701 -0.524078 -1.667586 -0.035460 -0.507259 -0.878220 -1.860601 1.417826 1.552733 0.0 0.0 0.0 
0.592375 1.524025 0.516510 0.001499 0.273290 0.406454 0.096324 0.610264 -0.488284 0.0 0.0 0.0 -2.095437 8.966511 -0.272285 3.573839 81.536545 11.097960 -5.668088 16.560194 -8.489037 0.831919 -3.525486 -0.578036 0.0 0.0 0.0 5.628701 -12.728786 -0.757450 -28.178526 -82.462662 -1.642258 13.743011 -27.057945 -13.723603 1.751124 -4.638228 18.882086 0.0 0.0 0.0 0.980905 -0.887122 2.566152 -1.304801 0.261596 -1.262904 -0.203205 -0.606121 -1.376540 0.056092 0.704297 0.548618 -1.297888 0.343390 -2.449824 0.0 0.0 0.0 0.276318 1.200870 -0.625717 0.109314 -0.566664 -1.695420 -0.034058 -0.490529 -0.805648 -1.508557 0.750793 2.230709 0.0 0.0 0.0 
0.630531 1.631019 0.520134 0.001197 0.300731 0.405420 0.064791 0.479228 -0.166382 0.0 0.0 0.0 -2.253610 10.056486 -0.218519 3.653332 80.573387 10.994726 -5.410884 15.079673 -9.304651 -0.041556 -3.377917 22.652573 0.0 0.0 0.0 6.203181 -13.624236 -0.904012 -28.549994 -81.881798 -2.661398 14.008486 -26.940340 -10.291261 2.289974 -8.076424 13.276815 0.0 0.0 0.0 1.164954 -1.069589 2.766841 -1.362745 0.447675 -1.312544 -0.216195 -0.625511 -1.504785 0.062071 0.783832 0.613801 -1.677995 0.181877 -3.765456 0.0 0.0 0.0 0.347820 1.154026 -0.685015 0.138194 -0.394227 -1.674805 -0.038173 -0.541389 -0.953579 -1.913707 1.165557 2.286642 0.0 0.0 0.0 
0.685531 1.689848 0.541353 0.002096 0.237511 0.430669 0.083341 0.747771 0.105511 0.0 0.0 0.0 -2.247135 10.272353 -0.182163 3.333024 80.262344 11.452122 -5.348256 14.539675 -9.838366 -4.568293 15.800967 4.472597 0.0 0.0 0.0 6.360051 -14.000894 -0.895774 -24.758337 -81.003937 1.618852 14.849641 -28.961136 -11.436871 0.249346 -0.060150 13.957886 0.0 0.0 0.0 1.200002 -1.105760 2.787932 -1.290900 0.569254 -1.237949 -0.224073 -0.622538 -1.618465 0.062857 0.780740 0.659339 -0.937015 0.256386 -1.735270 0.0 0.0 0.0 0.438552 1.055235 -0.749054 0.148873 -0.239952 -1.534101 -0.030873 -0.434173 -1.258499 -2.220411 1.632929 1.970739 0.0 0.0 0.0 
0.656959 1.726460 0.555754 0.001367 0.321983 0.454654 0.058752 0.589572 0.227980 0.0 0.0 0.0 -2.204728 10.181006 -0.167448 3.620813 80.317520 11.042187 -5.288259 14.127613 -10.098276 -3.198346 14.430656 -0.567098 0.0 0.0 0.0 6.403689 -14.124211 -0.886645 -25.474167 -81.009857 0.652897 13.725820 -26.007671 -8.346004 3.099097 -13.478234 9.168633 0.0 0.0 0.0 1.220850 -1.129934 2.771575 -1.274262 0.586037 -1.221096 -0.243544 -0.720194 -1.640755 0.070362 0.917321 0.646055 -0.368672 -0.419141 -1.783961 0.0 0.0 0.0 0.439482 1.032448 -0.743491 0.142632 -0.276921 -1.537625 -0.032550 -0.435693 -2.039918 -3.378963 -0.971925 11.258649 0.0 0.0 0.0 
0.693542 1.763710 0.567102 0.002840 0.218605 0.490570 0.076694 0.972008 0.737610 0.0 0.0 0.0 -2.224819 10.092546 -0.193958 3.894721 80.402115 10.653832 -4.976714 12.415298 -10.489558 -4.207502 15.855708 2.706327 0.0 0.0 0.0 6.304503 -13.820958 -0.915314 -26.634590 -80.973541 -0.949814 13.492980 -25.823235 -10.077445 3.289034 -13.174477 11.030198 0.0 0.0 0.0 1.166237 -1.075860 2.713446 -1.246632 0.606664 -1.193380 -0.236106 -0.676702 -1.647427 0.071380 0.915364 0.702594 -0.348979 -0.254959 -1.388171 0.0 0.0 0.0 0.417283 1.047675 -0.725277 0.155161 -0.224644 -1.562622 -0.031112 -0.420587 -1.943284 -3.282714 -0.828173 10.654727 0.0 0.0 0.0 
0.697500 1.782271 0.572300 0.002974 0.219975 0.507224 0.044663 0.732900 0.842466 0.0 0.0 0.0 -2.191429 9.998172 -0.185628 4.248024 79.948982 10.141639 -4.538592 10.464350 -10.213894 0.614879 -2.996713 2.011147 0.0 0.0 0.0 6.404265 -13.880885 -0.973544 -24.589342 -80.763580 1.655160 12.614045 -24.491833 -13.869748 7.207039 -21.547819 19.703352 0.0 0.0 0.0 1.198269 -1.113363 2.684784 -1.229653 0.634982 -1.175766 -0.236594 -0.673080 -1.662843 0.075037 0.978480 0.707347 -0.012788 -0.572053 -1.246109 0.0 0.0 0.0 0.416434 1.034759 -0.720726 0.153831 -0.185393 -1.494623 -0.026395 -0.371055 -1.499400 -2.231348 -1.061066 8.667024 0.0 0.0 0.0 
0.693333 1.773575 0.566983 0.003282 0.203303 0.519820 0.042585 0.825847 1.086205 0.0 0.0 0.0 -2.238783 8.917924 -0.375836 5.374705 78.024025 8.344002 -3.638412 8.894782 -6.538788 -4.429204 21.208054 -1.725205 0.0 0.0 0.0 6.471857 -13.831987 -1.044726 -21.430836 -80.076630 5.535646 12.586565 -24.507866 -14.406506 4.088420 -13.013150 17.066511 0.0 0.0 0.0 1.137271 -1.051027 2.639821 -1.254158 0.537520 -1.203287 -0.216717 -0.591438 -1.595594 0.105428 1.324325 1.369990 -0.044264 -0.165561 -0.461069 0.0 0.0 0.0 0.334199 0.972734 -0.619448 0.181690 -0.112487 -1.612810 -0.030114 -0.417334 -1.546081 -0.980601 -1.785920 7.361370 0.0 0.0 0.0 
0.721999 1.759109 0.605297 0.004816 0.146997 0.610959 0.046561 0.885573 1.135430 0.0 0.0 0.0 -2.153166 8.450663 -0.385810 5.617015 76.057724 7.742864 -3.747090 8.530876 -7.745878 -4.460196 19.509037 -0.081950 0.0 0.0 0.0 6.036506 -12.203665 -1.263693 -17.943928 -78.644165 9.732107 11.781844 -22.616623 -14.543932 0.587127 -0.646969 21.724043 0.0 0.0 0.0 1.084777 -1.005104 2.514552 -1.193774 0.538666 -1.144345 -0.213327 -0.570751 -1.600715 0.099579 1.234771 1.293666 0.243199 -0.133567 0.294617 0.0 0.0 0.0 0.319765 0.877372 -0.577512 0.195232 -0.042732 -1.620029 -0.029056 -0.405685 -1.465740 -0.855664 -0.992142 4.898915 0.0 0.0 0.0 
0.712328 1.751253 0.606704 0.005446 0.099347 0.614489 0.012092 0.713623 1.452553 0.0 0.0 0.0 -2.467251 8.148846 -0.641977 4.357965 68.829994 9.494641 -4.938726 15.064233 -4.672521 -5.184640 23.071882 -0.444254 0.0 0.0 0.0 5.580985 -10.958556 -1.317840 -20.127340 -77.391083 5.631736 11.197978 -21.164284 -13.792557 1.457962 -2.782632 25.099493 0.0 0.0 0.0 0.867060 -0.775055 2.425189 -1.076206 0.337945 -1.037094 -0.213019 -0.561723 -1.618889 0.091148 1.102350 1.204683 0.004291 0.089542 0.203191 0.0 0.0 0.0 0.379003 0.685558 -0.582689 0.222766 0.116037 -1.610278 -0.047892 -0.634213 -1.722135 -1.445938 -0.341997 4.783596 0.0 0.0 0.0 
0.705922 1.751196 0.646925 0.004998 0.100909 0.571648 -0.102275 -0.054940 2.221348 0.0 0.0 0.0 -2.529513 7.535892 -0.772934 4.067852 67.843513 10.113371 -3.424084 7.347129 -7.416745 -8.385928 31.168171 3.324453 0.0 0.0 0.0 5.840426 -10.437716 -1.699881 -15.029861 -72.917709 11.627216 9.917872 -18.133081 -11.457432 3.666511 -13.014234 14.044605 0.0 0.0 0.0 0.965031 -0.906312 2.151989 -1.112111 0.120486 -1.080129 -0.106962 -0.150300 -1.174113 0.084050 0.969600 1.195472 -0.792397 -0.287849 -2.544838 0.0 0.0 0.0 0.129088 0.868096 -0.381261 0.200612 0.092238 -1.469090 -0.048345 -0.642606 -1.664055 -1.164729 -0.333400 4.019253 0.0 0.0 0.0 
0.791259 1.739258 0.707388 0.007037 -0.124378 0.513390 -0.044780 0.592731 2.357119 0.0 0.0 0.0 -2.516110 6.733608 -0.878775 3.801457 64.777550 10.718300 -3.814165 8.908955 -7.629300 -12.903484 40.189945 7.911978 0.0 0.0 0.0 5.811238 -9.762087 -1.898366 -13.328721 -69.113464 13.226426 9.080217 -16.189159 -11.951394 2.644941 -9.410566 13.396094 0.0 0.0 0.0 0.932950 -0.896695 1.861067 -1.077808 -0.145206 -1.056410 0.022464 0.409606 -0.717820 0.052547 0.555414 0.767823 -1.699232 1.164016 -1.651163 0.0 0.0 0.0 -0.037134 1.042156 -0.262374 0.172248 0.134548 -1.185134 -0.042883 -0.579644 -1.533075 -0.541889 -0.622180 3.083140 0.0 0.0 0.0 
0.966032 1.660061 0.847626 0.011463 -0.318890 0.671531 0.077435 1.458964 1.690734 0.0 0.0 0.0 -2.219012 5.804316 -0.805682 3.984653 62.527695 10.150508 -3.603236 7.382802 -8.415152 -4.063507 16.513924 1.270975 0.0 0.0 0.0 5.859078 -8.963849 -2.196344 -11.006663 -59.950020 15.133281 12.676392 -23.707739 -6.842774 3.389775 -11.845090 14.303761 0.0 0.0 0.0 1.011594 -1.005720 1.615186 -0.928040 0.312376 -0.893522 -0.016936 0.209798 -0.786351 0.031332 0.321181 0.445342 -2.191581 1.838358 -1.382270 0.0 0.0 0.0 -0.176427 1.138349 -0.148585 0.194411 0.247163 -1.202350 -0.035690 -0.489565 -1.494930 -1.043372 -0.121243 3.157674 0.0 0.0 0.0 
1.028121 1.528648 0.928974 0.011932 -0.406842 0.624672 0.089179 1.553581 1.656748 0.0 0.0 0.0 -2.099530 5.651381 -0.744605 4.083116 59.062992 9.649181 -3.455786 7.730613 -7.087251 -7.427285 27.229416 3.627858 0.0 0.0 0.0 5.772779 -8.569036 -2.252861 -10.427476 -58.946865 16.705673 8.846149 -15.359161 -15.540600 7.297915 -20.824715 21.187931 0.0 0.0 0.0 1.073189 -1.071995 1.637713 -0.911221 0.298709 -0.877621 0.020165 0.409901 -0.754205 0.022241 0.187096 0.399253 -2.682419 2.101357 -2.065860 0.0 0.0 0.0 -0.178943 1.349211 -0.205965 0.151412 0.134762 -1.020247 -0.031245 -0.430668 -1.586032 -1.117352 -0.064859 3.212834 0.0 0.0 0.0 
1.065193 1.422882 0.990343 0.008691 -0.281340 0.500374 0.049672 1.301411 1.898867 0.0 0.0 0.0 -1.960349 5.253695 -0.703321 3.857261 54.439445 10.335102 -3.842684 9.807550 -6.453615 -0.914648 9.760082 -8.724608 0.0 0.0 0.0 5.719482 -6.214959 -2.947495 -10.294019 -56.569355 16.138775 8.834335 -15.762762 -9.879172 3.952847 -11.114377 20.472172 0.0 0.0 0.0 1.213242 -1.272991 1.155429 -0.422758 0.917438 -0.378535 -0.086040 -0.227731 -0.680514 0.029140 0.296331 0.416536 -2.544898 1.580671 -2.909573 0.0 0.0 0.0 -0.246066 1.665961 -0.227548 -0.008220 -0.280619 -0.315114 -0.038125 -0.519288 -1.532624 -1.349452 0.011706 3.635393 0.0 0.0 0.0 
1.102450 1.386437 1.038027 0.007123 -0.217779 0.435112 0.009229 0.975200 2.037977 0.0 0.0 0.0 -1.894956 4.801219 -0.719787 3.779052 51.026440 10.669412 -4.057566 10.607058 -6.615932 -5.015595 30.585264 -6.021569 0.0 0.0 0.0 5.850407 -5.681715 -3.218878 -10.106081 -54.037655 15.610984 6.784831 -11.036875 -10.563224 3.682312 -11.604100 17.125185 0.0 0.0 0.0 1.297924 -1.382252 1.005563 -0.198191 1.137782 -0.151518 -0.127308 -0.454444 -0.705872 0.032720 0.344652 0.445710 -2.558579 1.562662 -2.987247 0.0 0.0 0.0 -0.150537 1.868771 -0.381494 -0.113872 -0.583738 0.136886 -0.024970 -0.353073 -1.489335 -1.497517 0.074922 3.866152 0.0 0.0 0.0 
1.079491 1.360637 1.085758 0.005792 -0.169067 0.370604 -0.021236 0.673899 2.041344 0.0 0.0 0.0 -1.984625 4.651415 -0.802302 3.775173 47.991993 10.637753 -3.662350 10.151031 -4.675767 3.136215 -12.739335 3.234641 0.0 0.0 0.0 5.980396 -5.698778 -3.321110 -9.191991 -50.725250 18.924675 8.264567 -13.755032 -16.380247 2.527660 -4.442859 32.254555 0.0 0.0 0.0 1.306783 -1.386023 1.069026 -0.401157 0.971167 -0.355494 -0.086878 -0.334096 -0.432562 0.054269 0.579830 0.783362 -1.962537 0.475243 -3.859847 0.0 0.0 0.0 -0.190387 1.857161 -0.337833 -0.105748 -0.602925 0.042366 -0.029192 -0.411193 -1.300019 -1.681374 0.178864 4.086592 0.0 0.0 0.0 
1.051861 1.316479 1.106215 0.005001 -0.045421 0.414350 -0.045863 0.410589 2.002143 0.0 0.0 0.0 -2.034153 4.660691 -0.835396 3.723924 45.357582 11.147677 -4.113633 11.372008 -5.682491 -0.709167 3.695824 -1.417069 0.0 0.0 0.0 6.194645 -5.851365 -3.451517 -9.051998 -46.961506 17.856911 6.951487 -10.895898 -13.373394 4.195395 -11.297874 21.908985 0.0 0.0 0.0 1.402272 -1.488526 1.114540 -0.486755 1.007250 -0.437591 -0.104870 -0.420983 -0.475234 0.073654 0.783434 1.163326 -1.526023 0.279789 -3.165878 0.0 0.0 0.0 -0.199604 1.879918 -0.334887 -0.095698 -0.634618 -0.086069 -0.030924 -0.437751 -1.147637 -2.376707 0.824059 4.286269 0.0 0.0 0.0 
0.995395 1.145059 1.151943 0.003599 0.085815 0.415525 -0.099022 -0.195584 1.810378 0.0 0.0 0.0 -2.377473 4.492100 -1.096854 3.635583 44.379791 12.387104 -3.981611 9.657880 -7.608352 -1.503138 10.112679 -5.239163 0.0 0.0 0.0 6.174001 -6.072857 -3.366259 -8.879679 -44.346336 17.446894 6.239532 -9.572800 -11.468678 5.782477 -16.690554 20.507046 0.0 0.0 0.0 1.284060 -1.340096 1.281204 -0.570987 0.892245 -0.523959 -0.144322 -0.623676 -0.537213 0.083574 1.041364 0.971553 -0.490637 -1.081438 -3.459982 0.0 0.0 0.0 -0.055279 1.742212 -0.442467 -0.119564 -0.830030 -0.162076 -0.038179 -0.546226 -0.834994 -2.632565 1.072049 4.333486 0.0 0.0 0.0 
0.931230 1.126468 1.208544 0.002429 0.187342 0.407508 -0.154282 -0.735828 1.804970 0.0 0.0 0.0 -2.252687 4.277972 -1.039407 3.649836 44.061333 12.267938 -3.684205 7.457922 -8.794477 -3.144085 14.413883 -0.824890 0.0 0.0 0.0 6.107862 -5.913435 -3.360677 -8.843206 -43.999893 17.563915 6.098520 -9.165604 -11.772304 5.968182 -17.424898 20.205917 0.0 0.0 0.0 1.307764 -1.370652 1.238882 -0.550622 0.793496 -0.507759 -0.122970 -0.531475 -0.462736 0.085246 1.014788 1.134552 -0.429960 -2.359320 -5.866547 0.0 0.0 0.0 -0.111551 1.723883 -0.380232 -0.136467 -0.911031 -0.134349 -0.032323 -0.472881 -0.609345 -2.238781 1.200115 3.036045 0.0 0.0 0.0 
0.955075 1.076278 1.260376 0.001601 0.273948 0.419316 -0.159926 -0.819623 1.723394 0.0 0.0 0.0 -2.174335 4.149215 -1.002406 3.643657 43.752197 12.439811 -3.853821 8.198451 -8.855719 -3.053802 14.255325 -1.108285 0.0 0.0 0.0 5.902627 -5.688079 -3.260091 -8.900222 -44.254280 17.072832 6.183392 -9.551177 -10.975291 5.337289 -16.750462 17.899988 0.0 0.0 0.0 1.248183 -1.304827 1.231189 -0.386914 0.852784 -0.345986 -0.199741 -0.868984 -0.709275 0.095785 1.153725 1.314311 -0.331710 -2.397395 -5.702856 0.0 0.0 0.0 0.074606 1.765140 -0.580711 -0.215838 -1.264320 0.040064 -0.016700 -0.252041 -0.588248 -1.928806 1.117285 2.440522 0.0 0.0 0.0 
0.938214 1.027843 1.270199 0.000786 0.341595 0.408736 -0.148965 -0.752353 1.614981 0.0 0.0 0.0 -2.172360 4.241482 -0.988485 3.644786 43.587620 12.470707 -3.938004 8.909439 -8.414896 -2.948364 14.525585 -1.947972 0.0 0.0 0.0 5.774821 -5.642834 -3.168288 -8.927522 -44.262791 16.718729 6.808433 -11.106941 -10.478723 3.853199 -12.034039 17.463688 0.0 0.0 0.0 1.216260 -1.266277 1.261554 -0.322078 0.830576 -0.283609 -0.235820 -1.017640 -0.841047 0.107147 1.380028 1.300508 0.411220 -2.566107 -4.258510 0.0 0.0 0.0 0.190395 1.723796 -0.686608 -0.238811 -1.381990 0.069504 -0.005717 -0.091849 -0.280725 -3.565291 2.063135 4.306610 0.0 0.0 0.0 
0.939515 0.977615 1.276016 0.000093 0.405566 0.407759 -0.164519 -0.849893 1.763939 0.0 0.0 0.0 -2.159644 4.331222 -0.967424 3.644033 43.642750 12.465921 -4.582512 13.744214 -4.591210 -5.767100 17.898687 7.162015 0.0 0.0 0.0 5.815080 -5.770348 -3.162626 -8.842886 -45.675014 19.027252 8.037704 -13.534231 -13.647801 2.352755 -6.241923 20.252522 0.0 0.0 0.0 1.236311 -1.285439 1.295424 -0.545367 0.900995 -0.498660 -0.238477 -1.137257 -0.607754 0.100541 1.218626 1.397147 -0.019571 -2.361953 -4.883798 0.0 0.0 0.0 0.046126 1.773681 -0.554214 -0.221194 -1.469068 -0.217446 -0.006153 -0.096490 -0.157227 -3.447269 2.114543 3.904098 0.0 0.0 0.0 
0.951061 0.943020 1.287293 -0.000153 0.413312 0.385447 -0.138340 -0.647323 1.623948 0.0 0.0 0.0 -2.135171 4.367004 -0.945534 3.564805 45.602825 12.924897 -4.522170 13.456991 -4.718692 -3.000035 17.073790 -4.191544 0.0 0.0 0.0 5.814402 -5.843190 -3.139794 -8.912133 -46.909454 19.116850 9.709863 -17.679520 -10.555805 1.770169 -5.091585 17.047243 0.0 0.0 0.0 1.246356 -1.292453 1.339373 -0.567299 0.882220 -0.520735 -0.229183 -1.088700 -0.596395 0.094819 1.105936 1.395165 -0.118814 -2.203571 -4.811795 0.0 0.0 0.0 0.051020 1.754664 -0.553823 -0.220125 -1.465319 -0.221311 -0.005080 -0.080025 -0.133652 -3.531661 2.470817 3.301159 0.0 0.0 0.0 
0.995341 0.950226 1.326132 0.000005 0.371474 0.348556 -0.107450 -0.359329 1.602866 0.0 0.0 0.0 -2.052797 4.331834 -0.893044 3.184376 50.348179 14.619740 -4.352236 11.087989 -7.917091 -2.935233 20.012598 -6.791595 0.0 0.0 0.0 5.758237 -5.802954 -3.105730 -9.019975 -53.320061 20.778641 7.564011 -12.393053 -13.467755 2.549704 -8.502270 14.835784 0.0 0.0 0.0 1.250583 -1.297436 1.336550 -0.707248 0.846614 -0.658489 -0.188642 -0.968710 -0.339223 0.094626 1.104636 1.388179 -0.003424 -2.347635 -4.817290 0.0 0.0 0.0 -0.062844 1.749938 -0.436972 -0.200077 -1.405837 -0.309855 -0.002628 -0.044848 -0.212015 -2.887647 1.874718 3.084215 0.0 0.0 0.0 
1.015061 0.955373 1.348591 -0.000252 0.377696 0.323018 -0.118447 -0.463068 1.606877 0.0 0.0 0.0 -1.970040 4.389785 -0.827670 2.631201 55.487019 15.892773 -3.844678 8.191650 -8.808755 -1.578042 14.390994 -8.915171 0.0 0.0 0.0 5.807205 -5.878209 -3.123137 -8.984353 -55.536762 21.412121 9.223344 -16.512913 -12.125987 2.437644 -7.183788 17.718784 0.0 0.0 0.0 1.297173 -1.346809 1.363371 -0.853023 0.833668 -0.801098 -0.146794 -0.839934 -0.076883 0.080487 0.926507 1.129367 0.177301 -1.970362 -3.644652 0.0 0.0 0.0 -0.179440 1.806237 -0.334602 -0.190311 -1.414114 -0.409104 -0.002051 -0.036817 -0.236210 -2.310098 1.475655 2.566303 0.0 0.0 0.0 
1.063409 0.966743 1.358533 -0.000447 0.374506 0.293246 -0.102628 -0.298791 1.639581 0.0 0.0 0.0 -1.895370 4.731505 -0.729537 2.564776 57.665073 15.510325 -4.352479 9.860006 -9.794740 -1.326718 11.356340 -7.681693 0.0 0.0 0.0 5.935568 -6.583258 -3.011743 -10.039823 -60.077110 18.470110 8.758691 -15.564881 -10.293735 3.350209 -10.880216 16.130781 0.0 0.0 0.0 1.309852 -1.346369 1.514439 -0.932270 0.711952 -0.882886 -0.129635 -0.737214 -0.078837 0.078527 0.895937 1.112102 0.014123 -1.838375 -3.771428 0.0 0.0 0.0 -0.175382 1.813210 -0.340679 -0.177488 -1.408326 -0.514113 -0.010167 -0.156942 -0.203542 -3.146107 2.468643 2.368214 0.0 0.0 0.0 
1.100482 0.986591 1.351690 0.000577 0.288122 0.315237 -0.105088 -0.220835 1.893898 0.0 0.0 0.0 -1.980233 5.028542 -0.747865 1.881873 62.928116 16.361317 -4.496902 10.071714 -10.481798 -1.798961 21.068691 -12.058031 0.0 0.0 0.0 5.308181 -7.263462 -2.285463 -10.637937 -60.231113 16.506527 11.341093 -21.133471 -8.205707 3.679617 -13.565290 13.117564 0.0 0.0 0.0 0.985224 -0.973012 1.653648 -0.918410 0.359865 -0.882381 -0.142171 -0.719044 -0.287918 0.080360 0.914543 1.154642 -0.213879 -2.026460 -4.691784 0.0 0.0 0.0 -0.054825 1.389519 -0.343228 -0.138657 -1.293310 -0.681628 -0.010622 -0.164773 -0.390342 -2.806561 1.908406 2.805511 0.0 0.0 0.0 
1.113190 1.027384 1.354837 0.001040 0.232036 0.304839 -0.087304 0.012247 2.030631 0.0 0.0 0.0 -1.950057 4.927775 -0.740730 1.036678 66.722961 17.529903 -4.820120 12.510698 -9.065549 1.102478 2.247918 -19.464554 0.0 0.0 0.0 5.272241 -7.498030 -2.182933 -12.074654 -67.299004 15.307353 9.535273 -17.231184 -12.361046 1.226455 -3.962658 13.099614 0.0 0.0 0.0 0.947083 -0.932175 1.637413 -0.974541 0.288595 -0.939752 -0.117141 -0.609333 -0.201827 0.076820 0.859193 1.123730 0.013943 -2.301090 -4.684917 0.0 0.0 0.0 -0.128402 1.326773 -0.250825 -0.110569 -1.190330 -0.770828 -0.005823 -0.093174 -0.264480 -2.198868 1.510284 2.202601 0.0 0.0 0.0 
1.113117 1.175207 1.348257 0.000990 0.184746 0.249326 -0.110176 -0.083080 2.340948 0.0 0.0 0.0 -1.987616 5.003066 -0.756454 -0.695159 74.612274 18.700075 -3.715733 5.588659 -11.116090 -2.218223 19.564789 -9.494057 0.0 0.0 0.0 5.332517 -8.067280 -2.053398 -10.669600 -72.585594 19.750118 9.823164 -17.798649 -17.805138 0.557808 -1.101539 15.240685 0.0 0.0 0.0 0.949368 -0.919629 1.806987 -1.033692 -0.186982 -1.014899 -0.032261 -0.095531 -0.235009 0.079499 0.909361 1.125154 0.298402 -2.211130 -3.832519 0.0 0.0 0.0 -0.106179 1.314209 -0.269788 -0.045752 -0.814914 -0.766281 -0.019544 -0.290305 -0.789669 -1.005663 -0.049528 2.876078 0.0 0.0 0.0 
1.165789 1.243377 1.302147 0.002010 0.036152 0.214624 -0.077923 0.310345 2.476814 0.0 0.0 0.0 -2.089090 5.178706 -0.802575 -1.238685 76.287750 19.101585 -5.419855 13.399226 -12.580447 -1.883896 6.601355 2.928261 0.0 0.0 0.0 5.101122 -8.446053 -1.745303 -12.093112 -73.549530 17.305496 12.113443 -23.293320 -13.599641 -3.098693 14.451256 9.821361 0.0 0.0 0.0 0.805826 -0.751656 1.915102 -1.075829 -0.357911 -1.062249 -0.003505 0.084160 -0.261626 0.076808 0.850231 1.146185 -0.121358 -1.797508 -4.014752 0.0 0.0 0.0 -0.049355 1.212914 -0.298622 -0.017079 -0.728640 -0.881273 -0.031951 -0.460486 -0.836928 -0.338822 -0.418965 2.002961 0.0 0.0 0.0 
1.168811 1.344231 1.286602 0.001660 0.105177 0.242085 -0.078954 0.263135 2.399614 0.0 0.0 0.0 -2.014114 7.601509 -0.413025 -0.054919 75.665962 17.301579 -5.469197 14.490063 -11.089219 -0.819847 8.402245 -7.926191 0.0 0.0 0.0 4.596871 -9.636670 -0.957463 -14.018786 -78.698029 15.639358 10.521207 -19.683199 -18.429409 2.605012 -8.885143 14.351911 0.0 0.0 0.0 0.641070 -0.544623 2.221924 -1.225799 -0.464112 -1.212457 -0.046849 -0.116780 -0.393501 0.062065 0.675209 0.895440 -0.107428 -1.167239 -2.707550 0.0 0.0 0.0 0.082704 1.015334 -0.376279 -0.005747 -0.859615 -1.172157 -0.029840 -0.431871 -0.821208 -0.437414 -0.180825 1.667629 0.0 0.0 0.0 
1.150984 1.428020 1.309538 0.001904 0.015173 0.187097 -0.098751 0.124045 2.539750 0.0 0.0 0.0 -2.360876 9.012453 -0.444226 -5.367945 79.457466 24.197653 -4.828056 9.330544 -13.658354 -1.700558 12.613056 -6.700752 0.0 0.0 0.0 4.469457 -11.030837 -0.402239 -18.212954 -78.020630 8.982268 10.513197 -19.582754 -15.652807 2.961159 -10.222470 14.344265 0.0 0.0 0.0 0.519828 -0.387375 2.526563 -1.400113 -0.680371 -1.390455 0.005923 0.159149 -0.311683 0.052800 0.586577 0.702596 0.225713 -1.470823 -2.529051 0.0 0.0 0.0 0.129528 0.930462 -0.399550 0.024129 -0.793720 -1.325636 -0.032886 -0.473289 -0.838628 0.019660 -0.692460 1.712032 0.0 0.0 0.0 
1.184374 1.519415 1.299167 0.001439 0.116376 0.230199 -0.104119 0.042591 2.483483 0.0 0.0 0.0 -2.194769 10.388645 -0.129994 -2.544393 77.798431 20.670858 -6.310382 17.842234 -13.187492 -1.233092 4.894614 0.994805 0.0 0.0 0.0 4.717898 -11.960219 -0.292132 -16.504915 -79.116074 12.100400 11.732709 -22.815573 -17.487331 3.368437 -9.560307 19.754292 0.0 0.0 0.0 0.698316 -0.560476 2.789111 -1.609488 -0.419418 -1.585284 -0.037915 -0.064220 -0.394603 0.072497 0.857161 0.917846 0.715718 -2.400872 -3.223953 0.0 0.0 0.0 0.067224 0.986065 -0.352216 0.059839 -0.814563 -1.658964 -0.027358 -0.395524 -0.916144 -0.184658 -0.684551 2.261207 0.0 0.0 0.0 
1.180525 1.613307 1.328421 0.002566 0.122294 0.350450 -0.075317 0.058435 1.864013 0.0 0.0 0.0 -2.109017 10.829147 -0.007413 -1.353514 78.056824 18.740885 -6.066812 16.960018 -12.222729 -0.843997 5.288345 -3.284062 0.0 0.0 0.0 4.639302 -12.450821 -0.064545 -16.805965 -78.981682 11.594425 11.673534 -22.666004 -17.517550 3.452032 -10.576910 17.730450 0.0 0.0 0.0 0.693019 -0.557214 2.758813 -1.367236 -0.179050 -1.340048 -0.116147 -0.344775 -0.817062 0.070152 0.836805 0.858159 0.841748 -2.083129 -2.306612 0.0 0.0 0.0 0.171766 0.767281 -0.395697 0.090666 -0.631960 -1.639130 -0.031727 -0.455596 -0.897759 0.167785 -0.101202 -0.216538 0.0 0.0 0.0 
1.182522 1.674891 1.307964 0.003142 0.131035 0.418776 -0.066758 0.089917 1.743472 0.0 0.0 0.0 -2.071780 11.030684 0.047359 -0.164479 79.788773 16.526136 -6.282112 17.974813 -12.448232 -2.486233 12.697261 -2.364272 0.0 0.0 0.0 4.714880 -12.968010 0.051077 -16.194212 -78.881744 12.457246 13.711673 -27.120815 -14.357361 1.619505 -5.178524 14.380720 0.0 0.0 0.0 0.712821 -0.565324 2.921319 -1.561883 -0.124411 -1.527986 -0.120465 -0.364252 -0.829720 0.064363 0.786949 0.713983 1.509936 -2.921595 -2.404963 0.0 0.0 0.0 0.101593 0.823113 -0.340482 0.122930 -0.677808 -1.978367 -0.039828 -0.565690 -0.909831 -0.523036 0.280400 0.746937 0.0 0.0 0.0 
1.157203 1.718563 1.275253 0.003437 0.149946 0.470885 -0.072594 0.028675 1.732419 0.0 0.0 0.0 -1.861571 11.083503 0.194385 1.279128 81.160912 14.259530 -5.891106 16.058043 -12.223544 -3.548962 14.027946 1.714368 0.0 0.0 0.0 4.785685 -13.349535 0.125727 -15.805163 -78.561836 12.902963 14.035559 -27.507784 -12.762428 3.259218 -12.133778 12.707985 0.0 0.0 0.0 0.777807 -0.637145 2.904781 -1.398310 0.009474 -1.363437 -0.172493 -0.537630 -1.125573 0.038851 0.582460 0.103311 0.231365 -1.969129 -3.513811 0.0 0.0 0.0 0.176841 0.890035 -0.436007 0.094890 -0.713356 -1.798470 -0.040208 -0.563454 -1.084220 -1.938282 1.364039 1.879627 0.0 0.0 0.0 
1.148005 1.772720 1.267147 0.003888 0.186338 0.563832 -0.076201 -0.076114 1.564068 0.0 0.0 0.0 -1.767750 11.194284 0.272863 1.547952 81.264992 13.878017 -6.126189 17.262064 -12.226192 -3.609914 12.554851 4.038805 0.0 0.0 0.0 4.961629 -13.724213 0.116060 -16.675074 -78.908531 11.754659 13.148393 -25.564379 -12.943084 3.559172 -12.511793 14.237716 0.0 0.0 0.0 0.852745 -0.713527 2.962096 -0.962227 0.295658 -0.927481 -0.291737 -0.861958 -1.933567 0.060528 0.814162 0.456545 0.886030 -2.150707 -2.337267 0.0 0.0 0.0 0.389983 0.957808 -0.671861 0.056949 -0.795916 -1.605973 -0.041654 -0.575855 -1.244503 -2.016817 1.566113 1.606801 0.0 0.0 0.0 
1.146537 1.793411 1.262641 0.004229 0.195753 0.613318 -0.075863 -0.040591 1.642424 0.0 0.0 0.0 -1.923656 11.494089 0.214580 1.376147 80.808517 14.168820 -6.036689 16.885780 -12.033034 -3.831752 12.147977 5.878010 0.0 0.0 0.0 4.952532 -13.739220 0.128459 -16.510826 -78.972099 12.027183 13.146664 -25.619265 -13.282804 3.638385 -12.415134 15.024425 0.0 0.0 0.0 0.806201 -0.660408 2.994212 -0.961959 0.281119 -0.927754 -0.311820 -0.932298 -2.025404 0.073199 0.878607 0.894688 0.029827 -1.760278 -3.578049 0.0 0.0 0.0 0.452380 0.937597 -0.729499 0.055952 -0.820667 -1.635506 -0.047649 -0.650965 -1.312696 -2.424711 2.062973 1.494971 0.0 0.0 0.0 
1.161072 1.820961 1.242399 0.004296 0.208285 0.638038 -0.086000 -0.071054 1.804741 0.0 0.0 0.0 -1.987215 11.583153 0.186023 1.206488 80.365540 14.463972 -5.931401 15.276760 -14.200072 -4.503312 14.950271 5.278674 0.0 0.0 0.0 4.983449 -13.735768 0.102827 -16.262581 -78.944595 12.383060 13.037251 -25.439739 -13.689050 3.208577 -10.563985 15.687219 0.0 0.0 0.0 0.810843 -0.666842 2.977478 -1.034396 0.229292 -1.000317 -0.297805 -0.883572 -1.960605 0.060816 0.709983 0.750486 0.207213 -1.751955 -3.138639 0.0 0.0 0.0 0.396552 0.925925 -0.669420 0.062856 -0.840699 -1.724736 -0.044887 -0.622707 -1.150973 -1.621934 1.138979 1.593932 0.0 0.0 0.0 
1.172128 1.825818 1.227021 0.004288 0.224558 0.660384 -0.083769 -0.048694 1.806248 0.0 0.0 0.0 -1.974126 11.545483 0.188996 1.541148 79.702805 14.067891 -5.697507 14.269316 -13.651682 -3.379855 12.591797 2.723239 0.0 0.0 0.0 5.161884 -13.850254 0.001610 -15.443234 -78.902855 13.583064 10.874787 -20.451195 -14.923356 4.658743 -18.192965 11.966364 0.0 0.0 0.0 0.873593 -0.735120 2.973686 -1.077608 0.257225 -1.041438 -0.296327 -0.878563 -1.953397 0.059466 0.699100 0.716708 0.054189 -1.173302 -2.332282 0.0 0.0 0.0 0.376784 0.987169 -0.666841 0.061167 -0.829658 -1.693413 -0.053240 -0.738056 -1.075396 -3.363615 2.590840 2.624938 0.0 0.0 0.0 
1.162343 1.823571 1.227093 0.004424 0.245761 0.707176 -0.099007 -0.192761 1.816951 0.0 0.0 0.0 -1.794509 10.662950 0.176663 0.808835 78.913200 15.259530 -4.373838 9.222559 -10.800674 -4.928441 23.144741 -1.435403 0.0 0.0 0.0 5.186849 -13.708109 -0.067662 -10.858279 -77.273514 20.184973 12.207188 -23.709150 -15.147880 2.710944 -10.097951 12.391188 0.0 0.0 0.0 0.917283 -0.784982 2.944233 -1.052526 0.203230 -1.018961 -0.292204 -0.851052 -1.966181 0.071136 0.911941 0.700149 0.486235 -1.600038 -2.173858 0.0 0.0 0.0 0.301437 1.002648 -0.594714 0.078693 -0.808701 -1.809120 -0.050091 -0.685923 -1.254392 -2.981499 2.058383 2.894181 0.0 0.0 0.0 
1.139536 1.813346 1.236248 0.005703 0.201107 0.782060 -0.091161 -0.140806 1.757438 0.0 0.0 0.0 -1.730599 9.142137 -0.001727 1.671384 78.029030 14.074794 -4.465339 9.717255 -10.752695 -4.205149 18.855532 -0.523337 0.0 0.0 0.0 4.966048 -13.467628 0.023710 -10.920007 -75.668602 19.829969 11.512160 -22.076483 -15.728989 -0.012171 1.081628 19.249523 0.0 0.0 0.0 0.796397 -0.658419 2.891486 -1.078015 -0.010088 -1.051662 -0.261303 -0.676490 -1.985724 0.080104 0.916695 1.136148 -0.182111 -2.094507 -4.749520 0.0 0.0 0.0 0.143780 0.902847 -0.406115 0.136627 -0.723225 -2.163414 -0.056489 -0.786980 -0.994531 -2.530129 2.055475 1.777433 0.0 0.0 0.0 
1.128365 1.771018 1.209593 0.006623 0.169129 0.832295 -0.076051 -0.092677 1.519962 0.0 0.0 0.0 -1.776647 8.859217 -0.073241 2.915211 71.619110 12.521150 -5.269945 15.488444 -6.916072 -3.768023 20.631420 -3.865711 0.0 0.0 0.0 4.191738 -11.602081 0.007644 -14.254329 -74.333015 13.679567 11.066748 -20.764952 -12.208739 2.970796 -8.580809 18.891638 0.0 0.0 0.0 0.607635 -0.470462 2.683887 -1.039642 -0.156019 -1.019571 -0.256011 -0.696464 -1.865423 0.072151 0.821415 0.995110 -0.396168 -1.425593 -3.931470 0.0 0.0 0.0 0.142808 0.722188 -0.353372 0.140327 -0.711859 -2.176654 -0.051698 -0.734954 -0.791910 -1.997454 1.843650 0.912252 0.0 0.0 0.0 
1.153997 1.762828 1.226282 0.008198 0.112950 0.909519 -0.052135 0.007955 1.214469 0.0 0.0 0.0 -1.629737 8.416736 -0.037240 3.107936 68.350067 12.327317 -5.300564 15.496938 -7.210232 -1.090537 4.353440 0.865693 0.0 0.0 0.0 4.265690 -10.990190 -0.252726 -12.485774 -71.445465 15.917277 9.457511 -17.033297 -12.777503 4.459789 -15.158480 15.446570 0.0 0.0 0.0 0.724104 -0.604631 2.594629 -0.986701 -0.045798 -0.963892 -0.247490 -0.609287 -1.967612 0.055272 0.580166 0.826325 -1.122533 -0.189937 -3.157668 0.0 0.0 0.0 0.133005 0.852050 -0.380643 0.139186 -0.648433 -2.068636 -0.022319 -0.322356 -1.247695 -1.575497 1.162325 1.417168 0.0 0.0 0.0 
1.146537 1.732275 1.213503 0.009337 0.022546 0.888455 -0.042181 0.144254 1.320313 0.0 0.0 0.0 -1.666068 7.629632 -0.172683 3.122596 65.720818 12.474114 -4.669013 13.067636 -6.778457 -6.448956 23.685368 3.527750 0.0 0.0 0.0 4.320786 -10.807909 -0.356394 -11.009810 -67.262413 17.831125 10.542883 -19.541491 -11.175385 1.465461 -4.572233 14.504613 0.0 0.0 0.0 0.738024 -0.633531 2.430340 -0.924745 -0.146823 -0.907147 -0.187162 -0.322115 -1.868616 0.070981 0.861631 0.831716 0.192395 -1.696031 -3.061864 0.0 0.0 0.0 0.159212 1.002058 -0.450133 0.128353 -0.565343 -1.851236 -0.035250 -0.496159 -1.116015 -1.577965 0.882485 2.093874 0.0 0.0 0.0 
1.021719 1.605266 1.196074 0.010016 -0.068800 0.828985 -0.069738 -0.045919 1.487630 0.0 0.0 0.0 -1.992528 6.680815 -0.527951 2.469014 64.593422 14.337822 -3.754323 8.269865 -8.150788 -7.023041 24.564564 4.683804 0.0 0.0 0.0 4.197899 -9.731013 -0.606148 -10.327052 -62.207932 18.197157 11.161904 -20.884972 -10.518246 0.897692 -1.917624 18.505095 0.0 0.0 0.0 0.577673 -0.491735 2.016370 -0.877057 -0.458353 -0.871970 -0.074388 0.118145 -1.401639 0.059008 0.666036 0.780140 0.246061 -1.889149 -3.320095 0.0 0.0 0.0 -0.033171 1.007123 -0.256398 0.116291 -0.531090 -1.699544 -0.035572 -0.507118 -0.924786 -0.990453 0.361374 1.811226 0.0 0.0 0.0 
1.031747 1.448819 1.210737 0.009131 -0.051251 0.773145 -0.068072 -0.046199 1.448336 0.0 0.0 0.0 -1.681590 5.907462 -0.421764 3.154331 57.577602 13.207976 -4.448339 12.544013 -6.020811 -7.956728 27.407665 5.126862 0.0 0.0 0.0 4.136255 -9.033566 -0.778405 -10.202151 -60.016052 17.898876 10.136802 -18.628830 -10.440228 -0.906363 4.094440 17.016220 0.0 0.0 0.0 0.661615 -0.616633 1.625964 -0.699935 -0.139829 -0.687603 -0.096152 -0.104456 -1.136148 0.061142 0.700435 0.789914 0.222755 -1.951523 -3.499320 0.0 0.0 0.0 -0.218785 0.790547 -0.006345 0.135474 -0.268116 -1.466604 -0.023863 -0.347106 -0.964682 -1.057582 0.375330 1.956306 0.0 0.0 0.0 
1.013334 1.399806 1.225138 0.008378 -0.035936 0.724936 -0.107510 -0.335967 1.664467 0.0 0.0 0.0 -1.609326 5.705252 -0.399674 3.227339 54.677776 13.340683 -2.543761 5.740746 -4.659546 -10.854699 37.014740 5.447839 0.0 0.0 0.0 4.217313 -8.719041 -0.943024 -10.014687 -52.407845 15.036867 10.342594 -19.032930 -5.913465 4.696161 -13.855292 19.472755 0.0 0.0 0.0 0.707873 -0.669972 1.601647 -0.707655 -0.127906 -0.694698 -0.082046 -0.055978 -1.056678 0.060898 0.701217 0.776742 0.752209 -1.930114 -2.211543 0.0 0.0 0.0 -0.169649 0.938111 -0.098342 0.087996 -0.393030 -1.261755 -0.024978 -0.361399 -1.009536 -1.189434 0.462035 2.093932 0.0 0.0 0.0 
1.007111 1.374915 1.207447 0.007115 0.009621 0.664927 -0.124854 -0.345586 2.068135 0.0 0.0 0.0 -1.668385 5.357285 -0.487662 3.534459 47.927654 12.670188 -3.665192 11.528352 -2.098730 -5.609474 22.315619 1.775190 0.0 0.0 0.0 4.226088 -8.196914 -1.113743 -9.547330 -51.315426 17.030254 7.711965 -13.130841 -10.837502 4.505906 -10.055821 28.118992 0.0 0.0 0.0 0.694799 -0.661079 1.535063 -0.750735 -0.042887 -0.733615 -0.098131 -0.222460 -0.865562 0.061427 0.674881 0.867351 0.321484 -1.111605 -1.569428 0.0 0.0 0.0 -0.217039 0.975866 -0.061108 0.073459 -0.468396 -1.252637 -0.028882 -0.423081 -0.651706 -1.627188 0.918310 2.136014 0.0 0.0 0.0 
0.966153 1.243851 1.138878 0.006881 0.011225 0.645188 -0.153929 -0.531894 2.335309 0.0 0.0 0.0 -1.908625 4.477982 -0.773076 3.593586 44.533276 12.902699 -2.998514 8.685219 -2.889271 -3.197494 15.527828 -1.770332 0.0 0.0 0.0 3.915682 -5.883557 -1.568005 -9.438145 -49.690834 16.713432 7.506757 -12.700143 -10.546968 3.293560 -7.470598 26.223270 0.0 0.0 0.0 0.579387 -0.572724 1.052034 -0.629265 0.473861 -0.596218 -0.165060 -0.742726 -0.539750 0.050543 0.477819 0.865939 -0.269039 -0.624450 -1.973828 0.0 0.0 0.0 -0.312847 0.554088 0.156779 0.100512 -0.201890 -1.087565 -0.033374 -0.494853 -0.409221 -1.350835 0.534158 2.344097 0.0 0.0 0.0 
0.912862 1.096240 1.131797 0.007645 -0.104886 0.584118 -0.157629 -0.532103 2.430087 0.0 0.0 0.0 -2.017156 3.809926 -0.938740 3.746099 38.200520 11.940748 -3.493098 12.368793 1.049623 -2.060653 8.473274 0.821437 0.0 0.0 0.0 3.031672 -4.058146 -1.379631 -9.324515 -43.422195 9.481171 10.002391 -18.372297 -2.455485 1.554805 -2.637886 28.445684 0.0 0.0 0.0 0.283683 -0.262777 0.778104 -0.521596 0.267084 -0.498821 -0.122952 -0.607531 -0.284912 0.044967 0.453917 0.688483 0.281883 -0.806568 -1.032838 0.0 0.0 0.0 -0.364180 0.103315 0.338874 0.122663 0.024144 -0.946219 -0.029810 -0.441180 -0.476338 -0.220637 -0.079323 0.813577 0.0 0.0 0.0 
0.895730 0.940153 1.149368 0.008478 -0.152577 0.604433 -0.150473 -0.458439 2.430226 0.0 0.0 0.0 -1.698660 3.200176 -0.797445 3.473295 30.187712 7.510926 -5.452551 19.613981 7.104310 -0.211419 3.508973 -6.190980 0.0 0.0 0.0 2.649392 -3.066255 -1.348030 -8.789530 -40.871418 12.147022 8.047997 -14.677579 -3.000542 2.311349 -5.216536 24.451788 0.0 0.0 0.0 0.305798 -0.301896 0.595442 -0.480016 0.423007 -0.452564 -0.105957 -0.546524 -0.194566 0.038059 0.331486 0.689415 0.194949 -0.545148 -0.692906 0.0 0.0 0.0 -0.519256 -0.198188 0.583330 0.183493 0.280659 -1.070531 -0.009336 -0.147265 -0.542338 -0.512746 -0.113258 1.703172 0.0 0.0 0.0 
0.887063 0.805804 1.164961 0.008025 -0.181062 0.539667 -0.143965 -0.361559 2.502369 0.0 0.0 0.0 -1.593364 2.708456 -0.788215 3.560889 29.118292 8.838560 -2.763176 10.372535 1.762716 -2.339155 13.031715 -3.555882 0.0 0.0 0.0 2.601074 -2.863824 -1.365229 -8.295403 -37.284813 10.576040 7.991704 -14.667500 -1.866943 -2.525536 9.204173 18.783409 0.0 0.0 0.0 0.310247 -0.330356 0.296535 -0.502892 0.348053 -0.477618 -0.042821 -0.343153 0.207792 0.039733 0.331776 0.755530 0.395615 -0.767152 -0.681378 0.0 0.0 0.0 -0.716612 -0.046513 0.738645 0.140805 0.141097 -0.927661 -0.004615 -0.077809 -0.411416 -0.130980 -0.273237 1.055528 0.0 0.0 0.0 
0.880226 0.727069 1.153803 0.008644 -0.208683 0.562575 -0.136605 -0.441445 2.121845 0.0 0.0 0.0 -1.543184 2.346466 -0.800097 3.451188 25.839331 8.475920 -2.388336 9.077554 1.555305 -1.126338 8.150908 -5.385486 0.0 0.0 0.0 2.287877 -2.398847 -1.237337 -8.023759 -35.540226 10.015401 3.143678 -4.731273 -4.175433 1.529288 -4.213841 17.306433 0.0 0.0 0.0 0.226090 -0.243576 0.183755 -0.434837 0.621194 -0.401237 -0.094165 -0.650331 0.202922 0.038265 0.304563 0.757757 0.074962 -1.457566 -2.861352 0.0 0.0 0.0 -0.604620 -0.300956 0.699571 0.172174 0.346641 -0.891846 -0.006824 -0.106055 -0.120676 -0.712871 0.003924 1.953103 0.0 0.0 0.0 
0.888473 0.698605 1.124454 0.008209 -0.243847 0.496535 -0.126216 -0.309238 2.190983 0.0 0.0 0.0 -1.079937 0.952748 -0.650735 3.328173 23.921085 7.917536 -2.191485 6.691741 -1.399828 -4.030772 16.369349 1.281367 0.0 0.0 0.0 2.370482 -2.368153 -1.313868 -7.077432 -29.482643 9.347778 3.520987 -6.166256 -1.841282 0.038558 0.230781 4.845592 0.0 0.0 0.0 0.353214 -0.394718 0.100524 -0.453429 0.514652 -0.423279 -0.025575 -0.331427 0.423164 0.035428 0.279643 0.701332 -0.256211 -1.083795 -2.895350 0.0 0.0 0.0 -0.710438 -0.241566 0.789154 0.176339 0.444228 -0.792224 0.000120 -0.004270 -0.222937 -1.207790 0.407005 2.278038 0.0 0.0 0.0 
0.884643 0.688565 1.103544 0.007754 -0.263965 0.444530 -0.124911 -0.201852 2.415267 0.0 0.0 0.0 -0.982652 0.724575 -0.610236 2.916947 18.880825 6.457195 -1.728190 6.702279 1.138527 -1.584993 7.869804 -1.615039 0.0 0.0 0.0 2.360920 -2.284296 -1.329275 -5.741601 -20.359556 9.053535 4.882163 -8.632422 -2.580036 1.812365 -7.238257 10.144280 0.0 0.0 0.0 0.379128 -0.425046 0.090248 -0.392485 0.414330 -0.367543 -0.005697 -0.186607 0.367421 0.038989 0.299931 0.796558 -0.979044 -0.454456 -3.359669 0.0 0.0 0.0 -0.664141 -0.217708 0.735437 0.151996 0.407633 -0.652658 0.009823 0.136710 -0.293469 -1.013468 0.368265 1.855828 0.0 0.0 0.0 
0.858834 0.641811 1.111889 0.008245 -0.340540 0.418987 -0.092222 -0.375638 1.182309 0.0 0.0 0.0 -0.596176 -0.146333 -0.442417 2.707955 18.192156 5.524423 -0.988175 3.780284 0.461484 -0.213917 0.904907 0.079299 0.0 0.0 0.0 2.128958 -1.822778 -1.265539 -5.161612 -18.788822 7.135434 3.247860 -5.421251 -2.586749 0.274228 -0.945916 5.846029 0.0 0.0 0.0 0.422681 -0.482699 -0.008837 -0.362765 0.291021 -0.343080 0.051632 0.121024 0.467173 0.044291 0.353428 0.889982 -0.033162 -0.772026 -1.713076 0.0 0.0 0.0 -0.713001 -0.181414 0.774221 0.144690 0.486569 -0.491107 0.019758 0.274874 -0.422968 -1.094705 0.638043 1.411176 0.0 0.0 0.0 
0.818720 0.609335 1.094580 0.009180 -0.484749 0.377688 -0.077056 -0.184308 1.314113 0.0 0.0 0.0 -0.478965 -0.335465 -0.381693 2.330242 13.841892 4.767644 -1.872743 3.933954 -3.581868 -5.412449 12.278275 14.195591 0.0 0.0 0.0 1.037928 -0.437429 -0.739950 -4.294322 -17.731876 3.635383 1.382727 -2.581749 -0.150164 1.188043 -5.969371 5.416302 0.0 0.0 0.0 0.145673 -0.172708 -0.087365 -0.228807 -0.045677 -0.224733 0.081617 0.306683 0.460662 0.037368 0.308182 0.714278 -0.003808 -0.329372 -0.712493 0.0 0.0 0.0 -0.519856 -0.354142 0.629429 0.127984 0.560754 -0.265146 0.021357 0.305648 -0.306019 -0.022293 -0.471942 1.260182 0.0 0.0 0.0 
0.743365 0.538373 1.015377 0.008064 -0.598961 0.234319 -0.044470 0.302245 1.735313 0.0 0.0 0.0 -0.481752 -0.361952 -0.386882 2.122081 11.355620 4.450583 -2.048216 3.466770 -4.995457 -0.205268 0.256746 2.158576 0.0 0.0 0.0 0.103866 0.777685 -0.287012 -3.360270 -15.535290 1.230696 1.763706 -3.208145 -0.442717 -1.196254 7.521198 3.421394 0.0 0.0 0.0 -0.136258 0.151724 -0.051231 -0.149879 -0.304463 -0.157138 0.102784 0.407988 0.531541 0.039689 0.353156 0.705624 0.164008 -0.820722 -1.342659 0.0 0.0 0.0 -0.402833 -0.546344 0.567348 0.120647 0.589674 -0.171314 0.019014 0.277939 -0.198634 0.915400 -1.015606 -0.004176 0.0 0.0 0.0 
0.649574 0.499061 0.978637 0.008367 -0.719099 0.187544 -0.045831 0.324735 1.814694 0.0 0.0 0.0 -0.506953 -0.198141 -0.385057 1.609609 6.287555 3.616060 -3.014818 7.352495 -5.040597 -0.612711 0.928380 5.363840 0.0 0.0 0.0 -1.078633 2.341280 0.294110 -2.604460 -15.537778 -2.118827 0.413854 -0.018911 -1.944333 -0.007848 0.830948 11.463105 0.0 0.0 0.0 -0.481788 0.540713 -0.131959 0.101632 -0.586633 0.077965 0.108554 0.495618 0.397355 0.046083 0.420971 0.811249 0.796831 -1.442885 -1.129085 0.0 0.0 0.0 -0.191823 -0.857881 0.445443 0.098190 0.620927 0.041057 0.024560 0.364707 -0.143588 1.078970 -1.113830 -0.224051 0.0 0.0 0.0 
0.617406 0.459805 0.985384 0.008636 -0.783794 0.170595 -0.020079 0.352726 1.324312 0.0 0.0 0.0 -0.324313 -0.197153 -0.254667 1.281143 2.986655 3.185498 -3.273997 8.236749 -5.274252 0.977973 -4.318151 0.723842 0.0 0.0 0.0 -1.277872 2.461785 0.428873 -1.901993 -13.859180 -3.432146 0.178635 -0.401488 0.152121 -1.513179 8.999867 4.497699 0.0 0.0 0.0 -0.494256 0.553110 -0.161131 0.049355 -0.547099 0.028406 0.134576 0.605707 0.523672 0.040479 0.294018 0.868169 0.951283 -1.825730 -1.541104 0.0 0.0 0.0 -0.271475 -0.793626 0.507123 0.106104 0.645316 0.011526 0.033911 0.476972 -0.455099 1.146930 -1.304505 0.082976 0.0 0.0 0.0 
0.606075 0.403503 0.976181 0.007177 -0.770109 0.094476 -0.014782 0.290964 1.066494 0.0 0.0 0.0 -0.236222 -0.205456 -0.192848 0.966054 1.719421 2.466214 -2.358798 4.745325 -4.981021 -0.394970 1.488321 0.670175 0.0 0.0 0.0 -1.358162 2.575830 0.467048 -1.256113 -11.735311 -3.980193 -0.214221 0.471662 -0.149003 -1.606836 10.423038 2.441611 0.0 0.0 0.0 -0.496749 0.550629 -0.245516 0.134586 -0.581212 0.110291 0.133867 0.574441 0.593602 0.050343 0.491104 0.826637 1.213020 -1.696710 -0.679493 0.0 0.0 0.0 -0.257259 -0.651948 0.451059 0.028231 0.392084 0.289490 0.051434 0.720038 -0.536688 1.677710 -2.068277 0.577829 0.0 0.0 0.0 
0.611156 0.371546 0.945616 0.005579 -0.817745 -0.015305 0.006423 0.492020 1.081875 0.0 0.0 0.0 -0.315411 -0.123212 -0.239420 0.867240 0.361315 2.435751 -2.431000 4.493539 -5.654590 1.736780 -7.640442 -6.010083 0.0 0.0 0.0 -1.324406 2.517211 0.453623 -0.905079 -10.020445 -3.778461 -1.010919 2.264143 -0.717166 -1.701612 11.065374 2.351347 0.0 0.0 0.0 -0.519633 0.579676 -0.199859 0.200928 -0.703574 0.170604 0.166715 0.784542 0.571512 0.028423 0.213280 0.576653 0.389204 -0.513960 -0.166251 0.0 0.0 0.0 -0.149141 -0.546629 0.310685 -0.027296 0.232242 0.520240 0.071223 0.996031 -0.579278 1.300372 -1.560713 0.317771 0.0 0.0 0.0 
0.617552 0.231326 0.881243 0.004451 -0.861677 -0.093380 0.000678 0.619125 1.481611 0.0 0.0 0.0 0.008385 -0.233762 -0.021843 0.503622 -0.485421 1.553275 -1.736865 1.082143 -6.166861 -0.802060 3.169811 0.784415 0.0 0.0 0.0 -1.179313 2.189355 0.415003 -0.445879 -8.003978 -3.748352 -1.472490 2.877549 -0.096780 -1.088060 9.078474 -2.283211 0.0 0.0 0.0 -0.404319 0.454953 -0.090224 0.108293 -0.420286 0.090424 0.154113 0.698902 0.593449 0.025541 0.231948 0.424208 -0.303859 -0.093242 -0.933498 0.0 0.0 0.0 -0.158067 -0.422570 0.283379 -0.004732 0.337507 0.477260 0.049159 0.711256 -0.330990 0.169192 -1.652353 3.843008 0.0 0.0 0.0 
0.637643 0.176847 0.855970 0.003384 -0.868477 -0.153497 -0.000959 0.632829 1.544346 0.0 0.0 0.0 0.019877 -0.304422 -0.022039 0.292314 -1.429336 1.150254 -1.560303 1.730615 -4.703971 0.492179 -2.209034 0.373906 0.0 0.0 0.0 -0.864397 2.104463 0.176043 -0.207685 -6.060276 -3.086622 -1.027624 2.732363 -1.657346 -0.709586 4.591721 3.509643 0.0 0.0 0.0 -0.299422 0.337668 -0.053880 0.021449 -0.245885 0.012027 0.155535 0.667884 0.697710 0.023714 0.239991 0.335330 -0.059014 -1.246731 -2.753691 0.0 0.0 0.0 -0.230476 -0.269591 0.311991 -0.002772 0.329558 0.451797 0.045407 0.656813 -0.326305 0.465146 -1.643081 2.977483 0.0 0.0 0.0 
0.631025 0.103179 0.844669 0.001656 -0.805930 -0.229629 -0.037145 0.425946 1.850507 0.0 0.0 0.0 0.080451 -0.334398 0.017605 0.220781 -1.693116 1.005655 -0.757342 -1.696675 -4.824919 0.012827 0.361221 -1.406514 0.0 0.0 0.0 -0.744639 1.981094 0.107944 -0.166824 -5.323863 -2.702264 -0.821664 2.290636 -1.591936 -1.184552 7.871592 2.122847 0.0 0.0 0.0 -0.252498 0.279373 -0.124122 0.013301 -0.166103 0.006961 0.153778 0.578785 0.899233 0.017651 0.101686 0.416284 -0.678499 -1.195612 -4.153450 0.0 0.0 0.0 -0.305163 -0.081192 0.332713 -0.049722 0.099507 0.527347 0.045978 0.677221 -0.220521 0.950352 -2.085196 2.791083 0.0 0.0 0.0 
0.624591 0.065047 0.855041 0.000661 -0.779052 -0.278044 -0.044946 0.358153 1.869153 0.0 0.0 0.0 0.382645 -0.468975 0.217310 0.001585 -1.742981 0.407256 -0.000041 -2.978144 -3.133876 -0.453290 4.711029 -5.875987 0.0 0.0 0.0 -0.647096 1.944683 0.036455 -0.118649 -4.926047 -2.583394 -1.159875 2.864084 -1.377283 -0.912852 6.800045 -0.251773 0.0 0.0 0.0 -0.129501 0.135466 -0.172619 0.005596 -0.041422 0.003956 0.155498 0.564357 0.963250 0.026777 0.137398 0.678409 -1.103338 -1.228925 -5.272226 0.0 0.0 0.0 -0.344900 0.151060 0.305530 -0.077306 0.009057 0.630771 0.041745 0.628956 -0.086266 1.980008 -1.805382 -1.070686 0.0 0.0 0.0 
0.618786 0.001255 0.861812 -0.000070 -0.751467 -0.312477 -0.053122 0.313548 1.947422 0.0 0.0 0.0 0.511685 -0.587565 0.295565 -0.056335 -1.557352 0.204566 0.395846 -3.679629 -2.337095 -0.341265 6.206908 -9.040839 0.0 0.0 0.0 -0.635204 1.955760 0.023843 0.012920 -4.514630 -2.717063 -1.201105 2.729555 -0.916747 -0.817360 6.100350 -0.297191 0.0 0.0 0.0 -0.112535 0.104938 -0.329491 -0.097979 0.013710 -0.095023 0.171994 0.527872 1.316191 0.021601 0.073033 0.622548 -0.463692 -1.697990 -4.643670 0.0 0.0 0.0 -0.605753 0.406152 0.495680 -0.110006 -0.258920 0.544737 0.042312 0.647839 0.004563 2.214489 -2.041081 -1.145989 0.0 0.0 0.0 
0.611818 -0.020304 0.897956 -0.000728 -0.696163 -0.336823 -0.032184 0.351424 1.580782 0.0 0.0 0.0 0.618991 -0.659721 0.363795 -0.076512 -1.379111 0.107543 0.797202 -4.578949 -1.742770 -0.384123 7.783800 -10.486025 0.0 0.0 0.0 -0.389821 1.812347 -0.142969 -0.029004 -3.923313 -2.200224 -1.020891 2.285923 -0.722115 -0.695633 5.289398 -0.736755 0.0 0.0 0.0 0.003641 -0.025537 -0.292316 -0.122796 0.092509 -0.116358 0.171102 0.509645 1.347109 0.034537 0.134530 0.974044 -0.406837 -1.886512 -4.881194 0.0 0.0 0.0 -0.614263 0.515502 0.472801 -0.128250 -0.306228 0.631344 0.027381 0.440475 0.248104 2.433606 -1.795114 -2.508252 0.0 0.0 0.0 
0.590469 -0.054029 0.908184 -0.000957 -0.676458 -0.345482 -0.012505 0.521476 1.541500 0.0 0.0 0.0 0.642020 -0.599761 0.387154 0.042941 -1.140352 0.388196 0.771306 -4.861064 -2.095541 -0.415198 5.731795 -7.776937 0.0 0.0 0.0 -0.390176 1.757044 -0.128711 -0.131156 -3.934212 -1.894693 -0.923176 2.143094 -0.829298 -0.721510 5.485287 -0.721192 0.0 0.0 0.0 0.015323 -0.039177 -0.295764 -0.378851 -0.061946 -0.371630 0.226637 0.716199 1.726212 0.011020 -0.022006 0.439916 0.108961 -0.925984 -1.692284 0.0 0.0 0.0 -0.785291 0.493182 0.652034 -0.091718 -0.273730 0.375713 0.026151 0.432284 0.375174 1.603891 -0.928730 -2.274027 0.0 0.0 0.0 
0.611970 -0.062114 0.880671 -0.002427 -0.670266 -0.431789 -0.019591 0.573873 1.800455 0.0 0.0 0.0 0.652111 -0.699892 0.382803 0.014755 -0.916923 0.257910 1.226486 -3.759871 0.589972 0.377541 3.402148 -12.303686 0.0 0.0 0.0 0.071903 1.320516 -0.399952 -0.291599 -3.243478 -0.978788 -0.773557 2.070739 -1.320155 -0.730289 5.397556 -0.083848 0.0 0.0 0.0 0.148649 -0.187431 -0.236144 -0.437983 0.027503 -0.426038 0.234752 0.759676 1.750403 0.019931 0.033212 0.644489 -0.530163 -0.664968 -2.694118 0.0 0.0 0.0 -0.856136 0.635430 0.682715 -0.088955 -0.250534 0.384144 0.023253 0.379940 0.306941 1.561137 -0.937384 -2.122717 0.0 0.0 0.0 
0.617006 -0.070396 0.901937 -0.002274 -0.660093 -0.420559 -0.015729 0.531116 1.629324 0.0 0.0 0.0 0.693424 -0.704777 0.411732 0.019381 -0.901601 0.267463 1.212745 -3.613220 0.691497 0.249270 2.274887 -9.136352 0.0 0.0 0.0 0.379268 0.865870 -0.537297 -0.302032 -2.476091 -0.494562 -0.773382 1.993698 -1.150755 -0.603194 4.084382 2.440903 0.0 0.0 0.0 0.248318 -0.300336 -0.220554 -0.453906 0.118468 -0.438248 0.229642 0.741674 1.711760 0.027418 0.131987 0.713713 -0.154964 -1.037840 -2.556376 0.0 0.0 0.0 -0.841309 0.713107 0.645474 -0.090073 -0.210843 0.446024 0.021622 0.351919 0.281394 1.482563 -0.801114 -2.242728 0.0 0.0 0.0 
0.608933 -0.072542 0.892115 -0.002874 -0.634601 -0.451661 -0.017920 0.542388 1.698964 0.0 0.0 0.0 0.657334 -0.700020 0.386516 0.090785 -0.689776 0.421367 1.212200 -3.836625 0.460278 -0.023373 2.595338 -6.530056 0.0 0.0 0.0 0.375659 0.907406 -0.545041 -0.363591 -2.593148 -0.379169 -0.752176 2.034188 -1.332973 -0.574935 3.899469 2.489915 0.0 0.0 0.0 0.248543 -0.298911 -0.199038 -0.462808 0.103394 -0.447479 0.230685 0.731263 1.754727 0.032391 0.186282 0.786284 0.181691 -1.495672 -2.683978 0.0 0.0 0.0 -0.858561 0.716771 0.661846 -0.098609 -0.256119 0.455449 0.020916 0.338237 0.249068 1.367007 -0.770532 -1.977186 0.0 0.0 0.0 
0.574538 -0.078127 0.859189 -0.003571 -0.662752 -0.498952 -0.016221 0.538590 1.655637 0.0 0.0 0.0 0.576449 -0.592550 0.341203 0.138885 -0.738378 0.568892 1.241683 -3.824990 0.577780 0.043297 2.562864 -7.237414 0.0 0.0 0.0 0.054475 1.232712 -0.363077 -0.317508 -3.125345 -0.829769 -0.762673 1.890964 -0.969248 -0.372587 2.634624 2.146664 0.0 0.0 0.0 0.144766 -0.177079 -0.158507 -0.462817 -0.025350 -0.452179 0.254774 0.880178 1.777855 0.010023 -0.133853 0.631221 -0.794827 -0.362152 -2.708227 0.0 0.0 0.0 -0.860766 0.516523 0.721538 -0.065312 -0.109274 0.379776 0.027868 0.429768 0.040015 0.917332 -0.812346 -0.542657 0.0 0.0 0.0 
0.548543 -0.093421 0.863647 -0.003990 -0.608648 -0.515401 -0.027204 0.432648 1.655015 0.0 0.0 0.0 0.561338 -0.513556 0.339574 0.130053 -1.013401 0.605181 1.042880 -3.035764 0.676354 0.302483 0.749315 -6.681594 0.0 0.0 0.0 0.087422 1.189866 -0.379348 -0.306873 -3.056883 -0.820938 -0.688443 1.738485 -0.954414 -0.212284 1.599374 2.140051 0.0 0.0 0.0 0.171277 -0.205520 -0.134060 -0.537532 -0.089474 -0.527376 0.269199 0.935406 1.879026 0.002252 -0.223834 0.543262 -1.477354 0.163660 -3.293653 0.0 0.0 0.0 -0.894061 0.528414 0.751733 -0.063548 -0.132949 0.334208 0.021863 0.336063 0.021761 0.768709 -0.812670 -0.109569 0.0 0.0 0.0 
0.522301 -0.128767 0.883770 -0.004132 -0.547807 -0.514145 0.031434 0.898527 1.456509 0.0 0.0 0.0 0.621726 -0.500075 0.384202 0.156375 -1.079466 0.693951 0.848163 -2.972926 0.025321 0.238546 0.671493 -5.575006 0.0 0.0 0.0 0.250921 1.010664 -0.468514 -0.384268 -2.725418 -0.394067 -0.499545 1.500605 -1.257354 -0.184232 1.415903 2.050941 0.0 0.0 0.0 0.246665 -0.289895 -0.111094 -0.778534 -0.169209 -0.765339 0.308491 1.082437 2.172015 -0.000397 -0.232216 0.471188 -1.402756 0.125881 -3.186134 0.0 0.0 0.0 -1.047168 0.606748 0.883738 -0.020547 -0.096473 0.035822 0.013850 0.235228 0.392736 -0.221495 0.022345 0.560434 0.0 0.0 0.0 
