HIERARCHY
ROOT Spine1
{
	OFFSET 0.000000 0.000000 0.000000
	CHANNELS 6 Xposition Yposition Zposition Yrotation Zrotation Xrotation
	JOINT ShoulderCenter
	{
		OFFSET -0.279778 18.634689 -0.311875
		CHANNELS 3 Yrotation Zrotation Xrotation
		JOINT Head
		{
			OFFSET 0.595465 18.120295 -1.545906
			CHANNELS 3 Yrotation Zrotation Xrotation
			End Site
			{
				OFFSET 0.000000 0.000000 0.000000
			}
		}
	}
	JOINT ShoulderCenterRight
	{
		OFFSET -0.279778 18.634689 -0.311875
		CHANNELS 3 Yrotation Zrotation Xrotation
		JOINT RightShoulder
		{
			OFFSET 17.562130 -12.035134 -1.532722
			CHANNELS 3 Yrotation Zrotation Xrotation
			JOINT RightElbow
			{
				OFFSET 9.033963 -25.845810 1.698232
				CHANNELS 3 Yrotation Zrotation Xrotation
				JOINT RightWrist
				{
					OFFSET 5.035375 -21.783009 -5.845833
					CHANNELS 3 Yrotation Zrotation Xrotation
					JOINT RightHand
					{
						OFFSET -1.053756 -8.369682 -2.558780
						CHANNELS 3 Yrotation Zrotation Xrotation
						End Site
						{
							OFFSET 0.000000 0.000000 0.000000
						}
					}
				}
			}
		}
	}
	JOINT ShoulderCenterLeft
	{
		OFFSET -0.279778 18.634689 -0.311875
		CHANNELS 3 Yrotation Zrotation Xrotation
		JOINT LeftShoulder
		{
			OFFSET -16.681293 -13.220477 -3.409553
			CHANNELS 3 Yrotation Zrotation Xrotation
			JOINT LeftElbow
			{
				OFFSET -9.236145 -22.532917 5.516505
				CHANNELS 3 Yrotation Zrotation Xrotation
				JOINT LeftWrist
				{
					OFFSET -5.256438 -22.612366 -10.389209
					CHANNELS 3 Yrotation Zrotation Xrotation
					JOINT LeftHand
					{
						OFFSET 0.617352 -7.744606 -1.188421
						CHANNELS 3 Yrotation Zrotation Xrotation
						End Site
						{
							OFFSET 0.000000 0.000000 0.000000
						}
					}
				}
			}
		}
	}
	JOINT Spine
	{
		OFFSET 0.279778 -18.634686 0.311899
		CHANNELS 3 Yrotation Zrotation Xrotation
		JOINT HipCenterRight
		{
			OFFSET 0.414468 -6.592295 -5.606747
			CHANNELS 3 Yrotation Zrotation Xrotation
			JOINT RightHip
			{
				OFFSET 7.841097 -7.644472 0.161052
				CHANNELS 3 Yrotation Zrotation Xrotation
				JOINT RightKnee
				{
					OFFSET 3.400716 -49.365768 7.996106
					CHANNELS 3 Yrotation Zrotation Xrotation
					JOINT RightAnkle
					{
						OFFSET 0.881244 -34.600197 1.931334
						CHANNELS 3 Yrotation Zrotation Xrotation
						JOINT RightFoot
						{
							OFFSET 2.352630 -5.482430 -4.730678
							CHANNELS 3 Yrotation Zrotation Xrotation
							End Site
							{
								OFFSET 0.000000 0.000000 0.000000
							}
						}
					}
				}
			}
		}
		JOINT HipCenterLeft
		{
			OFFSET 0.414468 -6.592295 -5.606747
			CHANNELS 3 Yrotation Zrotation Xrotation
			JOINT LeftHip
			{
				OFFSET -7.487789 -7.809803 -2.387071
				CHANNELS 3 Yrotation Zrotation Xrotation
				JOINT LeftKnee
				{
					OFFSET -6.239526 -47.269646 8.046913
					CHANNELS 3 Yrotation Zrotation Xrotation
					JOINT LeftAnkle
					{
						OFFSET -0.152031 -37.003647 2.846551
						CHANNELS 3 Yrotation Zrotation Xrotation
						JOINT LeftFoot
						{
							OFFSET -2.340865 -6.240869 -6.141472
							CHANNELS 3 Yrotation Zrotation Xrotation
							End Site
							{
								OFFSET 0.000000 0.000000 0.000000
							}
						}
					}
				}
			}
		}
	}
}
MOTION
Frames: 55
Frame Time: 0.033333
0.000000 0.000000 0.000000 0.000000 0.000000 0.000000 0.000000 0.000000 0.000000 0.0 0.0 0.0 0.000000 0.000000 0.000000 0.000000 0.000000 0.000000 0.000000 0.000000 0.000000 0.000000 0.000000 0.000000 0.0 0.0 0.0 0.000000 0.000000 0.000000 0.000000 0.000000 0.000000 0.000000 0.000000 0.000000 0.000000 0.000000 0.000000 0.0 0.0 0.0 0.000000 0.000000 0.000000 0.000000 0.000000 0.000000 0.000000 0.000000 0.000000 0.000000 0.000000 0.000000 0.000000 0.000000 0.000000 0.0 0.0 0.0 0.000000 0.000000 0.000000 0.000000 0.000000 0.000000 0.000000 0.000000 0.000000 0.000000 0.000000 0.000000 0.0 0.0 0.0 
0.010556 -0.003198 -0.010633 0.000120 0.010716 -0.003986 -0.015210 -0.216633 -0.105693 0.0 0.0 0.0 -0.080169 0.060564 -0.049632 0.028588 0.168440 0.050298 0.054876 -0.416283 -0.241757 -0.115511 0.081349 0.714237 0.0 0.0 0.0 0.000368 -0.011250 0.002008 -0.010228 -0.021157 0.012322 0.043962 -0.223864 0.255772 -0.065995 0.467722 0.076769 0.0 0.0 0.0 -0.063068 0.073721 -0.005924 -0.000013 -0.000021 -0.000012 -0.018145 -0.120697 0.020064 -0.038364 -0.380818 -0.593882 -0.194404 0.570331 0.705356 0.0 0.0 0.0 0.000306 -0.025370 0.007770 -0.007514 -0.052144 -0.010364 -0.001735 -0.026819 -0.084700 -0.461519 1.103905 -1.603173 0.0 0.0 0.0 
0.079337 0.036731 -0.040674 -0.000932 -0.024935 -0.033766 -0.000964 0.006345 0.045731 0.0 0.0 0.0 -0.203266 -0.085010 -0.146814 0.108115 0.650427 0.189540 0.264343 -0.898082 0.099336 -0.062927 0.723192 -1.194393 0.0 0.0 0.0 -0.115066 0.102055 0.070372 -0.040941 -0.490736 -0.195481 0.189260 -1.349453 1.960908 -0.454329 1.118380 -4.070010 0.0 0.0 0.0 -0.142455 0.164288 -0.044963 0.081930 -0.062950 0.081171 -0.020981 -0.126447 -0.007153 -0.039168 -0.381159 -0.621051 -0.832737 0.972362 0.022523 0.0 0.0 0.0 0.063399 -0.088886 -0.037777 -0.036223 -0.116647 0.124959 0.005541 0.065653 -0.104690 -0.370158 0.996799 -1.575193 0.0 0.0 0.0 
0.101194 0.069928 -0.029945 -0.000835 -0.040798 -0.009879 0.002366 0.000015 -0.071965 0.0 0.0 0.0 -0.173880 -0.183634 -0.135333 0.104066 0.745940 0.159828 0.244885 -0.842953 0.079791 -0.146247 1.551406 -2.344134 0.0 0.0 0.0 -0.323591 0.265876 0.202375 -0.104118 -1.735673 -0.814859 -0.165959 -1.780205 4.516934 0.458316 -7.354688 -4.627396 0.0 0.0 0.0 -0.205189 0.236086 -0.073736 0.219581 -0.104008 0.216227 -0.036317 -0.154716 -0.160193 -0.028952 -0.267739 -0.503547 -0.639128 0.591443 -0.303879 0.0 0.0 0.0 0.189281 -0.143189 -0.151814 -0.073810 -0.193801 0.313385 0.000345 0.006198 0.031712 0.699275 0.490463 -3.167867 0.0 0.0 0.0 
0.131011 0.120556 -0.006962 0.000206 -0.020838 0.036448 0.011726 0.045394 -0.236083 0.0 0.0 0.0 -0.316824 0.066769 -0.211240 0.161623 0.190385 0.428488 0.327227 -0.580304 0.725230 0.371492 2.431825 -7.625860 0.0 0.0 0.0 -0.469902 0.214186 0.328752 -0.633125 -3.955832 -0.921571 1.000331 -5.184826 7.599008 0.041175 -5.832810 -6.529980 0.0 0.0 0.0 -0.297447 0.345159 -0.066469 0.270408 -0.091393 0.265527 -0.075695 -0.347959 -0.268625 -0.026491 -0.085215 -0.828765 0.026325 0.359028 0.788585 0.0 0.0 0.0 0.252908 -0.285104 -0.172837 -0.076390 -0.216412 0.304085 0.003543 0.045763 -0.005070 0.933636 0.091788 -2.783763 0.0 0.0 0.0 
0.180683 0.167620 -0.021172 0.001891 0.054471 0.067349 -0.011282 -0.191452 -0.162023 0.0 0.0 0.0 -0.423774 0.343262 -0.259799 0.195310 -0.322352 0.615162 0.310485 -0.416678 0.844583 0.413143 2.702378 -8.346452 0.0 0.0 0.0 0.474137 -0.891869 -0.191125 -2.325380 -6.444829 1.986288 2.153823 -7.214205 7.430833 1.291688 -7.427029 1.073709 0.0 0.0 0.0 -0.020794 0.024015 -0.005915 0.199317 0.160786 0.191005 -0.095561 -0.418899 -0.381586 -0.023532 -0.125741 -0.621333 -0.568181 0.718794 0.128017 0.0 0.0 0.0 0.209243 -0.124064 -0.178770 -0.058423 -0.150217 0.251460 0.000348 0.001462 -0.057108 0.665632 0.388213 -2.812298 0.0 0.0 0.0 
0.295022 0.255451 0.016665 0.001852 -0.036220 0.160353 -0.009656 -0.299363 -0.525246 0.0 0.0 0.0 -0.146022 0.000436 -0.100040 0.008424 0.042439 0.016136 0.512921 -0.555681 1.535970 0.411754 3.413619 -9.404500 0.0 0.0 0.0 0.634569 -0.959082 -0.303935 -4.792512 -11.485431 5.933892 2.653146 -6.192583 1.357459 0.938923 -5.145098 1.209266 0.0 0.0 0.0 0.076037 -0.097587 -0.108210 0.193679 0.301015 0.182605 -0.087675 -0.374834 -0.373258 -0.022999 -0.194232 -0.447401 -1.082777 0.999709 -0.524212 0.0 0.0 0.0 0.141234 0.074772 -0.171187 -0.053202 -0.127381 0.240885 -0.003538 -0.044932 0.021827 -1.035797 1.048037 0.020363 0.0 0.0 0.0 
0.390047 0.328726 0.091720 0.002997 -0.200277 0.378769 -0.003855 -0.508843 -1.391894 0.0 0.0 0.0 0.221746 -0.512161 0.107904 -0.139993 1.022390 -0.606808 0.699397 -1.026530 1.759313 -0.596086 5.354095 -5.954179 0.0 0.0 0.0 0.582358 -0.774933 -0.301136 -6.645339 -19.252995 6.327455 1.523052 -4.185047 2.177986 3.400444 -14.509830 5.655079 0.0 0.0 0.0 0.099221 -0.137259 -0.270196 0.414271 0.516255 0.393169 -0.127501 -0.455231 -0.736556 -0.020478 -0.191458 -0.360656 -1.436533 1.366827 -0.614674 0.0 0.0 0.0 0.210233 0.228062 -0.291962 -0.064717 -0.093555 0.372149 -0.005292 -0.072338 -0.078354 -0.705995 0.601137 0.299757 0.0 0.0 0.0 
0.453244 0.366539 0.074029 0.002850 -0.235084 0.397556 -0.096025 -1.296783 -0.682199 0.0 0.0 0.0 0.271004 -0.520985 0.141011 -0.184030 1.293475 -0.792941 0.862791 -1.380306 2.017366 -0.681238 5.922529 -6.271657 0.0 0.0 0.0 1.110908 -1.244205 -0.620643 -8.250854 -24.208237 8.546160 2.447117 -5.307539 0.108710 0.804260 -10.491931 -4.657479 0.0 0.0 0.0 0.290787 -0.357401 -0.192604 0.644587 0.785599 0.612030 -0.160958 -0.475174 -1.147021 -0.029377 -0.359997 -0.324367 -1.699179 1.343167 -1.314096 0.0 0.0 0.0 0.379192 0.164697 -0.448349 -0.034993 0.233825 0.558317 -0.008569 -0.120939 -0.241040 -0.874504 0.755559 0.342115 0.0 0.0 0.0 
0.587678 0.436479 0.050950 0.000198 -0.462987 0.417079 -0.061361 -0.826851 -0.359193 0.0 0.0 0.0 0.231745 -0.717564 0.097203 -0.133280 1.987098 -0.791672 0.970071 -1.798907 1.969877 -0.780358 5.979488 -5.789408 0.0 0.0 0.0 1.576112 -1.728295 -0.885199 -9.752459 -29.593756 10.438566 4.341774 -8.743006 -1.745150 0.717712 -5.516731 -0.983464 0.0 0.0 0.0 0.353138 -0.432254 -0.208053 0.664019 0.964293 0.627195 -0.142253 -0.342384 -1.204550 -0.023920 -0.306507 -0.241981 -1.439273 0.894118 -1.615070 0.0 0.0 0.0 0.383593 0.345022 -0.510177 -0.022668 0.371436 0.635386 -0.008185 -0.122484 -0.407609 -1.079471 0.834794 0.666263 0.0 0.0 0.0 
0.889352 0.489575 0.052166 -0.003612 -0.971963 0.538606 0.065781 0.480138 -0.669197 0.0 0.0 0.0 0.350659 -1.095865 0.147011 -0.126846 2.928210 -0.981799 0.952948 -1.658614 2.061406 -1.089795 6.838694 -5.274116 0.0 0.0 0.0 1.837189 -1.966709 -1.040129 -10.982324 -34.892147 10.794735 6.233278 -12.855934 -1.524333 2.320212 -6.310583 9.844543 0.0 0.0 0.0 0.351824 -0.439243 -0.312607 0.598659 1.290920 0.556560 -0.117974 -0.213589 -1.175852 -0.019129 -0.231499 -0.225750 -1.512423 0.813669 -1.962132 0.0 0.0 0.0 0.257614 0.641991 -0.472378 0.038086 0.605769 0.473356 -0.014121 -0.192856 -0.295745 -1.220801 1.049712 0.486456 0.0 0.0 0.0 
1.137692 0.549248 0.184822 0.002701 -1.265963 0.916634 0.103699 0.314893 -2.153029 0.0 0.0 0.0 0.656754 -1.296630 0.341516 -0.314789 3.254525 -1.635608 0.888245 -1.174260 2.362094 -0.723791 5.739727 -5.770746 0.0 0.0 0.0 1.810042 -2.280231 -0.950525 -12.411929 -40.775101 11.668069 7.071551 -13.785046 -6.212751 5.107526 -9.493613 21.470922 0.0 0.0 0.0 0.384492 -0.485284 -0.402245 0.574668 1.404426 0.530764 -0.113884 -0.063149 -1.489277 -0.015823 -0.226521 -0.115831 -1.786923 1.145493 -1.949553 0.0 0.0 0.0 0.343825 0.869980 -0.634151 0.063449 0.661671 0.356451 -0.014563 -0.202633 -0.439545 -0.567463 0.270880 0.788336 0.0 0.0 0.0 
1.240778 0.587550 0.255203 0.005600 -1.328985 1.046299 -0.037573 -0.941626 -1.737418 0.0 0.0 0.0 0.689719 -1.323815 0.362033 -0.348419 3.034337 -1.684709 0.494410 -0.036451 2.083136 -0.295406 3.319091 -4.613340 0.0 0.0 0.0 1.702238 -2.466947 -0.824783 -14.508048 -48.211002 9.317708 7.688592 -15.366259 -5.335899 1.428930 -1.954263 11.423260 0.0 0.0 0.0 0.377748 -0.468558 -0.296217 0.554728 1.162892 0.516464 -0.088295 0.168347 -1.710673 -0.013691 -0.203808 -0.084962 -1.978283 1.420396 -1.847055 0.0 0.0 0.0 0.419607 0.808483 -0.694053 0.100023 0.737735 0.183874 -0.012969 -0.182605 -0.430001 -0.503228 0.251724 0.670658 0.0 0.0 0.0 
1.428887 0.672519 0.432825 0.014626 -1.387062 1.395512 -0.050096 -1.184387 -2.266145 0.0 0.0 0.0 1.000134 -1.471015 0.564449 -0.552760 3.066400 -2.318344 0.497485 0.205518 2.396001 -0.298235 3.543586 -4.972385 0.0 0.0 0.0 1.738284 -3.288649 -0.672872 -16.191011 -53.815563 10.007153 6.962284 -12.332820 -11.442545 6.682795 -14.874147 20.156580 0.0 0.0 0.0 0.457076 -0.554359 -0.200688 0.613347 1.212909 0.572533 -0.147235 0.047615 -2.255704 0.000320 -0.018995 0.053876 -2.104683 1.663308 -1.646186 0.0 0.0 0.0 0.596872 0.653829 -0.830813 0.166295 0.958979 -0.022929 -0.015476 -0.215720 -0.504609 -0.809663 0.502804 0.818278 0.0 0.0 0.0 
1.583111 0.737789 0.559425 0.020930 -1.697950 1.654453 -0.051489 -1.142710 -2.013664 0.0 0.0 0.0 1.462294 -2.125523 0.832230 -0.763162 3.857403 -3.185257 0.385976 1.051335 2.993222 -0.135154 3.181945 -5.432337 0.0 0.0 0.0 1.530611 -3.550834 -0.452021 -18.527042 -57.240402 4.543612 8.069131 -15.904089 -7.702436 3.310726 -7.052553 15.304516 0.0 0.0 0.0 0.433922 -0.537786 -0.329710 0.568322 1.379826 0.525104 -0.124087 0.187232 -2.289502 -0.015404 -0.199631 -0.156562 -2.178061 2.032969 -1.031290 0.0 0.0 0.0 0.577202 0.794295 -0.854430 0.212803 1.140545 -0.132969 -0.021907 -0.294753 -0.504376 -0.810289 0.590511 0.595965 0.0 0.0 0.0 
1.705781 0.793508 0.601053 0.023006 -1.637005 1.720538 -0.193328 -2.450607 -1.404273 0.0 0.0 0.0 1.324168 -1.676567 0.771991 -0.885423 2.754191 -3.247594 0.288939 1.839502 3.620812 -0.148514 3.449340 -5.786170 0.0 0.0 0.0 1.316213 -4.200376 -0.140414 -18.753727 -57.925137 4.870596 10.029214 -20.558458 -7.663992 4.206645 -8.737513 17.729395 0.0 0.0 0.0 0.326361 -0.380729 0.038173 0.445462 0.958989 0.414280 -0.144509 0.181368 -2.575058 -0.001424 0.057336 -0.185211 -1.835915 1.771359 -0.738536 0.0 0.0 0.0 0.716417 0.394336 -0.874003 0.292184 1.230595 -0.580424 -0.010907 -0.159676 -0.508090 -0.664013 0.488925 0.477699 0.0 0.0 0.0 
1.706596 0.842586 0.549912 0.019504 -1.699554 1.606786 -0.228441 -2.761329 -0.857249 0.0 0.0 0.0 0.708821 -1.500187 0.360667 -0.614520 2.209184 -2.285085 0.289165 2.076812 3.954036 0.128285 3.985001 -8.389348 0.0 0.0 0.0 1.306676 -4.296368 -0.111628 -20.326393 -59.712326 1.895742 11.657660 -24.040785 -3.339014 0.376229 2.683642 13.797246 0.0 0.0 0.0 0.154072 -0.172789 0.108810 0.539390 0.599492 0.513397 -0.103554 0.412108 -2.601716 -0.000874 0.091941 -0.243460 -1.535472 1.684714 -0.178888 0.0 0.0 0.0 0.846281 0.199494 -0.948252 0.289225 1.330159 -0.438915 0.005228 0.023469 -0.792738 -0.675437 0.005809 1.758004 0.0 0.0 0.0 
1.742213 0.866517 0.522089 0.016688 -1.869810 1.531654 -0.226811 -2.709198 -0.501706 0.0 0.0 0.0 0.596825 -1.786813 0.259461 -0.613659 2.256429 -2.294491 0.132611 2.732729 4.166333 -0.249509 4.753108 -7.149292 0.0 0.0 0.0 1.136277 -4.787856 0.130711 -22.609848 -62.399082 -0.945504 10.391163 -21.413603 -4.472176 1.451097 -0.525983 15.795274 0.0 0.0 0.0 0.009729 0.001139 0.169981 0.565257 0.449823 0.541753 -0.083421 0.521206 -2.603105 0.021946 0.334920 0.144176 -1.103996 1.280240 0.014653 0.0 0.0 0.0 0.823969 -0.089108 -0.832941 0.381468 1.774049 -0.541851 -0.012203 -0.184582 -0.801874 -0.582227 0.118112 1.223266 0.0 0.0 0.0 
1.806054 0.958431 0.479555 0.016297 -1.958029 1.528671 -0.207361 -2.488933 -0.469760 0.0 0.0 0.0 0.109254 -1.739900 -0.074548 -0.568374 1.768150 -2.037599 0.049247 3.216064 4.486995 -0.354576 5.621441 -7.736167 0.0 0.0 0.0 0.986678 -5.104105 0.317703 -25.269899 -65.527168 -2.969269 9.436626 -19.200560 -7.117718 7.594073 -20.846914 16.256269 0.0 0.0 0.0 -0.162910 0.219976 0.405066 0.364962 -0.244226 0.360878 -0.000464 0.985852 -2.656100 0.044565 0.670728 0.363300 -0.551205 0.176092 -0.942035 0.0 0.0 0.0 0.857766 -0.483704 -0.741873 0.499193 2.093662 -0.953190 -0.021538 -0.293869 -0.698204 -1.013475 0.500501 1.346370 0.0 0.0 0.0 
1.845390 0.972760 0.473642 0.015366 -2.120048 1.517325 -0.211097 -2.588611 -0.983111 0.0 0.0 0.0 0.051881 -1.767209 -0.116652 -0.522772 1.891979 -1.932144 -0.004971 3.326624 4.391821 -0.403979 5.963082 -7.906662 0.0 0.0 0.0 0.685340 -4.977155 0.523223 -27.292778 -67.689125 -4.251546 10.098083 -20.720448 -7.608465 5.371986 -16.047205 12.924216 0.0 0.0 0.0 -0.311799 0.392441 0.385759 0.442667 -0.279121 0.437374 0.006225 1.026184 -2.669583 0.043043 0.657967 0.320159 -0.462843 -0.009931 -1.107334 0.0 0.0 0.0 0.881230 -0.562310 -0.741159 0.518408 2.197235 -0.958439 -0.031664 -0.415460 -0.640135 -2.234755 1.360077 2.231680 0.0 0.0 0.0 
1.858991 0.992095 0.469279 0.015399 -2.123515 1.518690 -0.229119 -2.770248 -0.875049 0.0 0.0 0.0 0.080352 -1.785777 -0.098490 -0.568470 2.062045 -2.110282 -0.046983 3.437005 4.355057 -0.451029 5.559308 -7.090788 0.0 0.0 0.0 0.636886 -5.488298 0.674793 -26.701477 -66.398537 -5.097511 10.778489 -22.268991 -6.022008 10.191120 -28.196789 17.299702 0.0 0.0 0.0 -0.325658 0.407408 0.367578 0.499213 -0.191052 0.490698 -0.020214 0.882304 -2.664125 0.046949 0.791013 0.150284 0.129082 -0.169484 -0.039577 0.0 0.0 0.0 0.908248 -0.618428 -0.751390 0.514820 2.224304 -0.903161 -0.037740 -0.489207 -0.575924 -2.811114 1.458153 3.373381 0.0 0.0 0.0 
1.893748 1.029015 0.469780 0.014179 -2.222657 1.493260 -0.211825 -2.574806 -0.785314 0.0 0.0 0.0 0.145493 -2.106069 -0.080425 -0.573161 2.548046 -2.246692 -0.055040 3.291517 4.095649 -0.425622 5.484500 -7.135209 0.0 0.0 0.0 0.644856 -5.812887 0.741482 -26.209694 -66.354904 -3.935800 12.493918 -26.015579 -5.981334 5.449531 -11.904377 18.988188 0.0 0.0 0.0 -0.358149 0.444917 0.361097 0.436567 -0.182820 0.429437 0.014203 0.999861 -2.456517 0.033680 0.641785 -0.108206 -1.042045 0.601190 -1.252193 0.0 0.0 0.0 0.885552 -0.612723 -0.729438 0.490816 2.057840 -0.939874 0.010881 0.076391 -1.046393 -0.830544 0.852896 -0.016553 0.0 0.0 0.0 
1.907748 1.093939 0.468040 0.012825 -2.203117 1.451592 -0.229351 -2.774400 -0.893315 0.0 0.0 0.0 0.062517 -1.809306 -0.112863 -0.554026 2.048940 -2.063861 -0.284128 3.593583 3.427203 -0.465983 5.183442 -6.472569 0.0 0.0 0.0 0.926101 -6.885853 0.768774 -23.892330 -64.876633 -0.355049 13.066271 -27.214159 -5.768911 4.189981 -7.681533 19.702099 0.0 0.0 0.0 -0.292443 0.374518 0.455217 0.335244 -0.359484 0.334271 0.055350 1.194578 -2.366556 0.033035 0.724217 -0.386523 0.775740 -0.228717 1.325145 0.0 0.0 0.0 0.841470 -0.666984 -0.665735 0.514708 2.162722 -0.974535 0.006198 0.035352 -0.786834 -0.187679 -0.154084 0.903703 0.0 0.0 0.0 
1.951739 1.111558 0.440407 0.009728 -2.257677 1.368739 -0.212468 -2.570008 -0.679624 0.0 0.0 0.0 0.118362 -1.997323 -0.090073 -0.589912 2.379621 -2.254370 -0.491519 3.486431 2.243812 -0.662689 5.881469 -6.319989 0.0 0.0 0.0 1.532843 -7.603511 0.469358 -22.190205 -63.825947 2.819054 13.139999 -27.396727 -5.955867 4.452958 -8.541673 19.566814 0.0 0.0 0.0 -0.097636 0.152344 0.525174 0.270645 -0.184953 0.267685 0.068853 1.243927 -2.290079 0.053746 0.972136 -0.031253 0.529309 -1.037076 -0.822155 0.0 0.0 0.0 0.800127 -0.546731 -0.661191 0.546918 2.336426 -0.982986 0.011647 0.110452 -0.620161 -1.022548 0.505413 1.356952 0.0 0.0 0.0 
1.940626 1.170081 0.389719 0.006987 -2.233722 1.285977 -0.223196 -2.663208 -0.446798 0.0 0.0 0.0 -0.027638 -2.078877 -0.198431 -0.550000 2.390524 -2.136903 -0.467949 3.504218 2.386253 -0.601906 5.818814 -6.579964 0.0 0.0 0.0 1.586672 -7.444194 0.390588 -22.665668 -63.848904 1.441404 12.961967 -26.932325 -5.302292 4.920711 -9.899231 19.669695 0.0 0.0 0.0 -0.101646 0.156916 0.523811 0.322448 -0.234113 0.319212 0.061985 1.194291 -2.252502 0.064999 1.110574 0.189922 -0.260867 -0.335873 -1.281111 0.0 0.0 0.0 0.835457 -0.584371 -0.686081 0.534089 2.368540 -0.861984 0.004589 0.024542 -0.624478 -1.227343 0.626384 1.568562 0.0 0.0 0.0 
1.938890 1.239610 0.396752 0.007757 -2.245090 1.310020 -0.226678 -2.702515 -0.450423 0.0 0.0 0.0 -0.034256 -2.363299 -0.227259 -0.544077 2.620938 -2.177233 -0.497079 3.601465 2.383662 -0.673688 5.995856 -6.416277 0.0 0.0 0.0 1.546450 -7.142199 0.350866 -23.101877 -65.154167 2.291070 12.351835 -25.793335 -6.807749 5.302322 -11.167645 19.467180 0.0 0.0 0.0 -0.113794 0.165646 0.447301 0.364470 -0.272890 0.360989 0.075777 1.274014 -2.265473 0.065545 1.063385 0.381945 2.070341 -1.744469 1.258186 0.0 0.0 0.0 0.830818 -0.700071 -0.643890 0.551482 2.502869 -0.820707 0.000057 -0.029724 -0.608732 -0.778051 0.456691 0.854950 0.0 0.0 0.0 
2.030474 1.234159 0.369620 0.002961 -2.480147 1.213197 -0.176651 -2.112415 -0.258401 0.0 0.0 0.0 -0.052797 -2.234716 -0.229214 -0.533442 2.627972 -2.146796 -0.521305 3.711389 2.424236 -0.713864 6.069972 -6.291489 0.0 0.0 0.0 1.635381 -7.227849 0.302423 -22.639614 -64.928520 3.235327 12.089608 -25.179146 -6.410713 5.627502 -13.311996 17.669027 0.0 0.0 0.0 -0.161403 0.227548 0.538566 0.382403 -0.196538 0.376903 0.096135 1.378319 -2.242364 0.062458 1.035088 0.284355 2.208902 -1.687397 1.665545 0.0 0.0 0.0 0.833947 -0.567535 -0.689923 0.555475 2.556825 -0.784985 0.001961 -0.006336 -0.603923 -0.723289 0.825772 -0.224917 0.0 0.0 0.0 
2.026541 1.227123 0.355649 0.002847 -2.470709 1.208458 -0.183384 -2.148124 -0.001026 0.0 0.0 0.0 -0.158207 -1.999649 -0.282370 -0.523354 2.600085 -2.109193 -0.500532 3.428589 2.115737 -0.924293 5.832631 -4.762455 0.0 0.0 0.0 1.523320 -6.684167 0.262211 -23.754112 -65.913406 1.699850 10.485188 -21.621386 -8.677041 7.651283 -18.031233 19.788170 0.0 0.0 0.0 -0.183544 0.253108 0.535394 0.402107 -0.150678 0.395169 0.078312 1.282850 -2.249515 0.057501 1.040472 -0.036180 2.216073 -1.582580 1.879249 0.0 0.0 0.0 0.853883 -0.604604 -0.698867 0.551157 2.531501 -0.785914 0.018722 0.183938 -0.798485 -1.014879 1.103074 -0.170221 0.0 0.0 0.0 
2.030189 1.225549 0.356007 0.002569 -2.484011 1.203159 -0.179978 -2.101418 0.039643 0.0 0.0 0.0 -0.137975 -1.751252 -0.246951 -0.554642 2.329900 -2.135657 -0.518354 3.503611 2.135829 -0.911604 5.889740 -4.917922 0.0 0.0 0.0 1.363246 -6.312775 0.300158 -24.113373 -65.455406 0.005546 10.129441 -20.798773 -7.335117 8.919558 -21.163618 20.551355 0.0 0.0 0.0 -0.196878 0.268794 0.537717 0.380456 -0.118310 0.373388 0.037629 1.055947 -2.237866 0.066390 1.211520 -0.084452 1.076606 -1.453220 -0.381243 0.0 0.0 0.0 0.858169 -0.596211 -0.706065 0.549430 2.533926 -0.771988 0.017795 0.175972 -0.752893 -0.507210 0.804469 -0.732581 0.0 0.0 0.0 
2.032126 1.235163 0.362921 0.001822 -2.480954 1.182250 -0.175200 -2.003654 0.271781 0.0 0.0 0.0 -0.179800 -1.565149 -0.259879 -0.546182 2.126512 -2.059577 -0.512068 3.535386 2.213004 -0.807487 6.364721 -6.172286 0.0 0.0 0.0 1.362595 -6.326888 0.303903 -23.597145 -64.661163 0.107894 10.308314 -21.223831 -5.939566 6.802418 -16.134920 18.887856 0.0 0.0 0.0 -0.192351 0.263876 0.542814 0.442030 -0.156274 0.434215 0.037598 1.069130 -2.278588 0.069970 1.279117 -0.101690 0.913286 -1.488832 -0.815944 0.0 0.0 0.0 0.949786 -0.541389 -0.819765 0.506330 2.465403 -0.570497 0.011329 0.098434 -0.755158 -0.964975 1.156210 -0.429982 0.0 0.0 0.0 
2.005301 1.236981 0.481319 0.009173 -2.453609 1.379287 -0.146789 -1.809806 -0.454098 0.0 0.0 0.0 0.066997 -1.412197 -0.075872 -0.669177 1.922799 -2.375903 -0.559555 3.687883 2.198757 -0.883325 6.237309 -5.573676 0.0 0.0 0.0 1.077834 -6.389817 0.538154 -23.398964 -64.236137 -0.048848 9.863882 -20.234755 -5.803770 5.815171 -13.552404 18.194410 0.0 0.0 0.0 -0.184552 0.250982 0.487822 0.530135 -0.217807 0.521406 0.030667 1.111796 -2.526440 0.076290 1.364244 0.008333 0.378706 -1.039933 -1.172574 0.0 0.0 0.0 1.083435 -0.461005 -0.985821 0.473382 2.372186 -0.461475 0.015510 0.152698 -0.690432 1.282200 -0.836063 -1.277995 0.0 0.0 0.0 
1.985247 1.216233 0.524092 0.013362 -2.395450 1.488315 -0.106200 -1.423360 -0.750489 0.0 0.0 0.0 0.194716 -1.314576 0.020771 -0.716527 1.857348 -2.500178 -0.636158 3.735296 1.884587 -0.782463 5.727707 -5.417600 0.0 0.0 0.0 0.966099 -6.347104 0.614580 -22.560410 -62.895325 0.117378 10.123697 -20.843052 -4.186101 5.404136 -12.873101 17.253592 0.0 0.0 0.0 -0.153194 0.211151 0.440933 0.565118 -0.191800 0.554983 0.017735 1.075646 -2.631036 0.061177 1.209390 -0.426500 -0.288069 0.761666 0.880266 0.0 0.0 0.0 1.119697 -0.453152 -1.026400 0.474741 2.376007 -0.466023 0.007574 0.057453 -0.683453 -0.181154 0.397559 -0.552040 0.0 0.0 0.0 
1.898222 1.169705 0.605226 0.019901 -2.236478 1.660497 -0.053718 -1.147881 -1.939487 0.0 0.0 0.0 0.348354 -1.390417 0.120563 -0.794020 2.033308 -2.776714 -0.515637 3.506746 2.153820 -0.686544 5.348996 -5.418229 0.0 0.0 0.0 0.780091 -6.291083 0.745250 -20.543192 -60.640411 2.820946 10.405486 -21.446400 -3.728560 1.668278 -2.738147 11.780269 0.0 0.0 0.0 -0.113501 0.160480 0.379307 0.518652 -0.179064 0.509406 -0.002435 0.988946 -2.698140 0.065955 1.243380 -0.237880 0.047072 0.358393 0.835592 0.0 0.0 0.0 1.100445 -0.502516 -0.990316 0.507902 2.416862 -0.635855 -0.014807 -0.206264 -0.461370 -1.267699 1.701187 -0.996446 0.0 0.0 0.0 
1.889768 1.139966 0.618362 0.020566 -2.175587 1.676070 0.041907 -0.419391 -2.656844 0.0 0.0 0.0 0.427242 -1.210289 0.190228 -0.844095 1.955999 -2.905576 -0.529505 3.793507 2.504464 -0.448547 3.649364 -4.186179 0.0 0.0 0.0 0.928233 -6.268330 0.625832 -18.880938 -58.498505 5.397322 9.412093 -19.271585 -4.916766 4.379291 -11.868773 13.600833 0.0 0.0 0.0 -0.014014 0.045894 0.401151 0.464229 -0.108000 0.454864 -0.007753 0.954082 -2.678778 0.064618 1.254513 -0.374606 -0.713234 1.032024 0.434127 0.0 0.0 0.0 1.063193 -0.408823 -0.981354 0.510570 2.387929 -0.686277 -0.027544 -0.362825 -0.397607 -1.312074 1.657283 -0.777774 0.0 0.0 0.0 
1.835554 1.051778 0.639653 0.021460 -1.970553 1.690397 0.069391 -0.300111 -3.134727 0.0 0.0 0.0 0.673823 -1.201201 0.361213 -0.988674 2.262846 -3.421336 -0.312884 3.352715 2.928579 -0.512853 3.538710 -3.585985 0.0 0.0 0.0 1.097915 -6.404984 0.526134 -17.889345 -56.974010 6.995099 8.649948 -17.479321 -5.974436 4.694700 -13.022059 13.592507 0.0 0.0 0.0 0.161934 -0.156448 0.441465 0.414900 0.067198 0.403133 -0.041358 0.790451 -2.729208 0.062890 1.187303 -0.225696 -1.006070 0.939807 -0.463523 0.0 0.0 0.0 1.077575 -0.196147 -1.064636 0.452518 2.115659 -0.618143 -0.024893 -0.328200 -0.288957 -1.004825 1.314613 -0.720041 0.0 0.0 0.0 
1.692083 0.987566 0.639033 0.020544 -1.595409 1.632951 0.017625 -0.775467 -3.208179 0.0 0.0 0.0 0.998270 -1.375157 0.570945 -1.138599 2.539235 -3.951467 -0.181842 3.175426 3.307768 -0.398313 3.125687 -3.604310 0.0 0.0 0.0 1.182923 -6.254900 0.426183 -15.485708 -49.962189 5.209063 10.067500 -20.829927 1.816682 1.779737 -2.882358 12.454046 0.0 0.0 0.0 0.397204 -0.431905 0.430575 0.407740 0.330441 0.390680 -0.105867 0.424736 -2.672624 0.063209 1.171907 -0.146183 -0.913139 0.866917 -0.390983 0.0 0.0 0.0 1.026371 -0.077423 -1.048868 0.425167 1.959433 -0.617993 -0.035396 -0.460139 -0.026681 -0.530601 0.453526 0.221815 0.0 0.0 0.0 
1.557665 0.952083 0.527287 0.013006 -1.300811 1.319152 -0.058066 -1.191914 -1.946697 0.0 0.0 0.0 0.723857 -1.178813 0.397597 -1.032234 2.119084 -3.511374 -0.138694 3.084430 3.383444 -0.510644 3.297739 -3.177424 0.0 0.0 0.0 1.406795 -6.307402 0.265274 -15.359722 -49.788807 5.798758 5.991310 -12.386983 -1.321849 5.752886 -12.599796 19.361910 0.0 0.0 0.0 0.493749 -0.530046 0.605482 0.414243 0.263294 0.398418 -0.108008 0.376607 -2.569519 0.051550 0.919055 0.013651 -1.674869 1.419127 -1.092424 0.0 0.0 0.0 0.973190 -0.253119 -0.936899 0.410552 1.900784 -0.588777 -0.035454 -0.460919 -0.052394 -0.691464 0.623412 0.205443 0.0 0.0 0.0 
1.496604 0.906020 0.456834 0.010352 -1.155380 1.183083 -0.028037 -0.743697 -1.344001 0.0 0.0 0.0 0.645608 -1.031182 0.355874 -1.026578 1.942655 -3.445215 0.032963 2.747123 3.714595 -0.487140 3.727067 -4.071861 0.0 0.0 0.0 1.581033 -6.006714 0.061445 -13.461526 -44.869633 10.884819 7.588819 -15.228506 -4.763657 2.029442 -2.771022 14.998126 0.0 0.0 0.0 0.572224 -0.618117 0.644153 0.394755 0.363611 0.377329 -0.126906 0.234279 -2.459021 0.051849 0.903259 0.080775 -1.682063 1.104594 -1.774778 0.0 0.0 0.0 0.931974 -0.259395 -0.891671 0.375892 1.739203 -0.545240 -0.023039 -0.303089 -0.190798 -2.054702 1.817480 0.681507 0.0 0.0 0.0 
1.481807 0.931859 0.348473 0.004431 -1.130381 0.938563 0.001902 -0.288777 -0.874597 0.0 0.0 0.0 0.550751 -1.497227 0.251587 -0.829875 2.815082 -3.095900 0.123872 2.281567 3.476705 -0.546457 3.711821 -3.669720 0.0 0.0 0.0 1.998781 -5.238561 -0.438810 -12.355730 -40.628235 10.289215 6.042465 -12.092045 -3.154670 4.113037 -7.885980 18.806694 0.0 0.0 0.0 0.732045 -0.813389 0.538205 0.507892 0.750215 0.479527 -0.146890 0.055550 -2.271679 0.049483 0.853546 0.101624 -0.865318 0.679979 -0.663308 0.0 0.0 0.0 0.830815 -0.150034 -0.820646 0.338354 1.804966 -0.214268 -0.024463 -0.323566 -0.337524 -1.713097 1.767277 -0.039812 0.0 0.0 0.0 
1.387593 0.937825 0.269365 0.000766 -1.020481 0.746069 -0.021801 -0.396758 -0.410103 0.0 0.0 0.0 0.249249 -1.390785 0.052005 -0.651438 2.666865 -2.514390 0.136864 2.205673 3.430415 -0.596236 3.759996 -3.437248 0.0 0.0 0.0 2.394074 -5.129567 -0.771941 -11.481555 -36.459064 12.909729 5.666846 -11.197292 -3.412145 3.763020 -8.473223 15.543059 0.0 0.0 0.0 0.778647 -0.863934 0.580631 0.592531 0.738147 0.562286 -0.144752 0.056447 -2.243012 0.046795 0.798776 0.119053 -0.808727 0.691313 -0.503880 0.0 0.0 0.0 0.898709 -0.187721 -0.879746 0.305115 1.797653 0.002022 -0.017977 -0.241149 -0.287822 -1.730235 1.467218 0.731829 0.0 0.0 0.0 
1.264986 0.872582 0.213766 0.000107 -1.041001 0.727434 -0.008922 -0.273387 -0.472688 0.0 0.0 0.0 0.231563 -1.191450 0.056695 -0.494786 2.805308 -2.074330 0.065055 1.670480 2.367397 -0.501587 3.043806 -2.778916 0.0 0.0 0.0 2.432080 -4.446387 -0.957692 -11.087018 -34.337029 13.488656 4.077037 -7.236739 -4.507878 2.884403 -8.194538 10.548495 0.0 0.0 0.0 0.802164 -0.909789 0.374985 0.690362 0.962312 0.652915 -0.153243 0.009374 -2.241876 0.037399 0.531375 0.371561 -1.250703 2.326251 1.921937 0.0 0.0 0.0 0.881990 -0.159030 -0.871400 0.305391 1.963382 0.188423 -0.027063 -0.354997 -0.248023 -1.368859 1.085569 0.770781 0.0 0.0 0.0 
1.145944 0.793645 0.247622 0.002000 -0.973254 0.778003 -0.012772 -0.458945 -0.914612 0.0 0.0 0.0 0.318925 -0.838698 0.146920 -0.564182 2.471828 -2.200186 0.117670 1.449297 2.313752 -0.649946 3.109088 -1.928889 0.0 0.0 0.0 2.297137 -4.288399 -0.887816 -10.004730 -28.223143 14.109955 3.908167 -6.854809 -4.472532 3.187394 -10.492090 9.065256 0.0 0.0 0.0 0.778432 -0.879303 0.405609 0.757309 0.969158 0.718027 -0.172723 -0.033237 -2.410148 0.031932 0.399989 0.437193 -1.891943 2.747506 1.275432 0.0 0.0 0.0 1.024527 -0.193094 -1.009959 0.298934 1.974458 0.244123 -0.032832 -0.427812 -0.221900 -1.156582 0.888577 0.726982 0.0 0.0 0.0 
1.043454 0.777465 0.205612 0.001495 -0.866592 0.708685 -0.018880 -0.446640 -0.664118 0.0 0.0 0.0 0.280484 -0.746906 0.128254 -0.549526 2.343063 -2.123564 0.100810 1.382704 2.150013 -0.687178 2.837583 -1.169470 0.0 0.0 0.0 2.310961 -3.561149 -1.062323 -9.585201 -26.105375 13.838017 2.873923 -4.146854 -5.108078 1.073765 -8.446949 -1.409178 0.0 0.0 0.0 0.813624 -0.921959 0.388624 1.069311 0.974147 1.022067 -0.206360 -0.071756 -2.789267 0.028759 0.371890 0.360094 -2.192009 3.243088 1.648309 0.0 0.0 0.0 1.289625 -0.164111 -1.297516 0.229050 1.884117 0.613130 -0.036409 -0.473398 0.189636 -1.122012 0.918759 0.563415 0.0 0.0 0.0 
0.950211 0.757366 0.228262 0.003247 -0.828810 0.769527 -0.024560 -0.573349 -0.874926 0.0 0.0 0.0 0.275387 -0.451408 0.149972 -0.490525 1.855715 -1.827360 -0.075572 1.633571 1.675267 -0.490966 2.398020 -1.626492 0.0 0.0 0.0 1.636827 -2.356752 -0.797195 -8.323899 -21.855822 11.329812 3.287133 -5.960210 -3.033484 3.300264 -16.871950 3.149683 0.0 0.0 0.0 0.660086 -0.749486 0.308398 1.242315 0.971380 1.190790 -0.248659 -0.235091 -2.953642 0.036448 0.462632 0.495963 -1.802253 2.585259 1.135365 0.0 0.0 0.0 1.491514 -0.313394 -1.461915 0.192899 1.839530 0.808065 -0.037097 -0.482560 0.198260 -0.956146 0.801823 0.434574 0.0 0.0 0.0 
0.840203 0.706917 0.249052 0.005046 -0.773868 0.826877 -0.006062 -0.393303 -0.934334 0.0 0.0 0.0 0.285787 -0.306876 0.169482 -0.500978 1.858290 -1.859097 -0.050012 1.402908 1.492795 -0.058413 1.011845 -1.859682 0.0 0.0 0.0 1.643879 -2.099483 -0.858596 -7.824487 -19.652765 10.974252 2.026690 -2.186345 -4.933743 3.417356 -12.754557 7.555657 0.0 0.0 0.0 0.672326 -0.768792 0.251428 1.268177 1.130965 1.212578 -0.272763 -0.327894 -3.045043 0.028501 0.293696 0.528768 -1.818349 2.982525 1.992520 0.0 0.0 0.0 1.468413 -0.280801 -1.448069 0.186796 1.792759 0.797913 -0.035789 -0.465166 0.200488 -0.919299 0.694978 0.610445 0.0 0.0 0.0 
0.716475 0.588024 0.257969 0.005662 -0.654875 0.801914 -0.041469 -0.706632 -0.705999 0.0 0.0 0.0 0.257743 -0.024908 0.174451 -0.431864 1.628259 -1.599307 0.062901 0.708965 1.124142 -0.225152 1.800191 -2.283603 0.0 0.0 0.0 1.438166 -1.969234 -0.724311 -6.252693 -14.821253 8.527100 2.109404 -3.621794 -2.232538 2.524122 -8.370723 8.001577 0.0 0.0 0.0 0.608436 -0.696213 0.225108 1.248039 1.244501 1.190503 -0.306684 -0.552400 -2.930345 0.020613 0.158580 0.488490 -2.101336 3.404502 2.251588 0.0 0.0 0.0 1.399503 -0.373914 -1.345752 0.183199 1.643132 0.656090 -0.026059 -0.331947 0.438190 -0.593856 0.898302 -0.743254 0.0 0.0 0.0 
0.637788 0.555199 0.237370 0.005737 -0.607046 0.782683 0.033561 0.155495 -0.592699 0.0 0.0 0.0 0.179816 -0.168302 0.108677 -0.374317 1.982117 -1.510840 0.249910 -0.059794 1.006976 -0.857703 3.944134 -2.120254 0.0 0.0 0.0 1.590760 -1.755676 -0.890887 -5.913131 -11.598852 9.524063 2.751553 -4.312428 -4.056143 1.139236 -4.614851 3.573120 0.0 0.0 0.0 0.629060 -0.723305 0.191423 1.276545 1.234028 1.218517 -0.294293 -0.486007 -2.931666 0.005582 -0.108251 0.440126 -2.739679 4.169456 2.423620 0.0 0.0 0.0 1.382546 -0.335070 -1.340394 0.169784 1.600075 0.699701 -0.023604 -0.299662 0.373331 -0.799569 1.286874 -1.178747 0.0 0.0 0.0 
0.584498 0.523388 0.253296 0.005628 -0.654416 0.800102 0.054976 0.313785 -0.791501 0.0 0.0 0.0 0.201693 -0.157756 0.124591 -0.411226 1.940377 -1.611207 0.194377 0.151717 1.020561 -1.002111 3.869999 -1.091289 0.0 0.0 0.0 1.486297 -1.551520 -0.852127 -5.352957 -9.827894 8.802834 2.084901 -2.638081 -4.283497 0.713554 -5.548731 -1.051688 0.0 0.0 0.0 0.601973 -0.696296 0.136235 1.334864 1.258070 1.274852 -0.291699 -0.465873 -2.947853 0.010001 -0.007285 0.407678 -2.512510 3.826374 2.192000 0.0 0.0 0.0 1.372347 -0.311482 -1.337240 0.172025 1.644891 0.734492 -0.024711 -0.315706 0.317561 -0.635488 1.122208 -1.195184 0.0 0.0 0.0 
0.481474 0.470996 0.360727 0.009799 -0.565900 0.965896 0.032463 -0.134342 -1.384925 0.0 0.0 0.0 0.318871 -0.212516 0.200260 -0.491855 1.802755 -1.818608 0.197544 0.194542 1.085864 -0.768052 2.588732 -0.141577 0.0 0.0 0.0 0.763926 -0.857529 -0.427568 -3.431098 -5.467641 5.703492 2.837823 -6.443580 0.985191 -0.567775 2.736552 -2.663335 0.0 0.0 0.0 0.434754 -0.513816 -0.030111 1.222341 1.038217 1.169884 -0.277144 -0.479824 -2.715034 0.016668 0.162236 0.316540 -1.963736 2.911296 1.465838 0.0 0.0 0.0 1.259951 -0.450301 -1.174573 0.186966 1.534495 0.507603 -0.023250 -0.295135 0.359909 -0.413123 1.052401 -1.601470 0.0 0.0 0.0 
0.372985 0.414905 0.332928 0.008354 -0.505516 0.865682 -0.003881 -0.430835 -1.129769 0.0 0.0 0.0 0.052162 -0.009189 0.034945 -0.591671 1.237269 -1.977959 0.308721 0.786865 2.307976 -0.696751 2.731157 -0.898905 0.0 0.0 0.0 0.244174 -0.233334 -0.145625 -3.096489 -5.646271 4.662284 1.290562 -2.226655 -1.258670 0.005046 -2.416839 -3.627897 0.0 0.0 0.0 0.222190 -0.262941 -0.021093 1.168031 0.747688 1.123146 -0.250708 -0.429375 -2.482491 0.018376 0.105661 0.508478 -0.940758 2.355681 2.740545 0.0 0.0 0.0 1.268417 -0.726577 -1.094411 0.196390 1.551918 0.462601 -0.025724 -0.327282 0.443042 -0.593246 1.174574 -1.435195 0.0 0.0 0.0 
0.307833 0.391662 0.390720 0.008492 -0.537016 0.887362 0.019207 -0.340228 -1.612617 0.0 0.0 0.0 0.149881 -0.123708 0.091999 -0.644829 1.444177 -2.184418 0.534404 0.209188 2.559658 -1.200941 4.843513 -1.600038 0.0 0.0 0.0 -0.204959 0.196458 0.122422 -2.040256 -3.482827 3.097117 1.093866 -2.629857 0.587132 -0.163240 -1.600817 -4.374714 0.0 0.0 0.0 0.090968 -0.113017 -0.079765 1.286689 0.628776 1.241380 -0.245745 -0.378124 -2.543917 0.007140 -0.035676 0.354244 -1.435299 2.935528 2.836185 0.0 0.0 0.0 1.316211 -0.793982 -1.122824 0.178846 1.538665 0.568219 -0.028200 -0.361620 0.408163 -0.558672 1.148755 -1.461083 0.0 0.0 0.0 
0.233765 0.324547 0.444508 0.010130 -0.471623 0.942243 -0.005430 -0.643755 -1.816757 0.0 0.0 0.0 0.033142 -0.014270 0.021469 -0.570916 0.751279 -1.802850 0.145259 1.168884 2.072149 -0.456991 2.579587 -2.208258 0.0 0.0 0.0 -0.595208 0.593789 0.351625 -1.387871 -1.567869 2.533071 1.034007 -2.257226 0.037928 0.766401 -7.350012 -2.476574 0.0 0.0 0.0 -0.055304 0.058663 -0.087326 1.209797 0.376153 1.171770 -0.248182 -0.427462 -2.452809 0.020659 0.255347 0.275711 -0.474932 2.164634 3.434218 0.0 0.0 0.0 1.312282 -0.821551 -1.109774 0.153348 1.325458 0.501181 -0.021583 -0.266455 0.613408 0.309449 0.694592 -2.624945 0.0 0.0 0.0 
0.206873 0.328872 0.491357 0.011311 -0.483843 1.009108 0.005652 -0.619953 -2.131954 0.0 0.0 0.0 0.161247 -0.165656 0.096169 -0.606528 0.756135 -1.907348 0.346204 0.967498 2.706893 -0.543765 4.627075 -5.175656 0.0 0.0 0.0 -0.563790 0.475862 0.350396 -0.673999 0.639057 2.009305 1.777900 -4.349683 1.265302 -0.606653 0.956220 -6.505758 0.0 0.0 0.0 -0.028025 0.023806 -0.124535 1.318729 0.343146 1.278703 -0.240425 -0.320588 -2.617285 0.020578 0.231328 0.326978 -0.771721 2.342479 3.118372 0.0 0.0 0.0 1.393974 -0.736114 -1.223260 0.128127 1.304495 0.653036 -0.022365 -0.278852 0.550371 0.560257 0.508388 -2.832235 0.0 0.0 0.0 
0.081383 0.295308 0.511813 0.012747 -0.295385 1.005745 -0.053130 -1.141950 -1.938641 0.0 0.0 0.0 0.001569 -0.084126 -0.006263 -0.543086 0.292097 -1.617531 0.304914 1.077931 2.667503 -0.146461 3.810603 -6.375601 0.0 0.0 0.0 -0.709154 0.542983 0.452140 -0.268734 1.384489 1.445170 1.832048 -4.348506 0.976956 -0.672443 1.908488 -6.086425 0.0 0.0 0.0 -0.082058 0.088682 -0.107831 1.215045 0.055597 1.183665 -0.219728 -0.262579 -2.478715 0.009717 0.102937 0.161624 -1.161240 2.610210 2.773035 0.0 0.0 0.0 1.369125 -0.876392 -1.151742 0.139614 1.234876 0.492459 -0.023076 -0.283881 0.765639 -0.179596 0.930533 -1.911690 0.0 0.0 0.0 
0.064526 0.289273 0.516796 0.012083 -0.296539 0.968538 -0.039062 -0.964887 -1.772280 0.0 0.0 0.0 0.047471 -0.395294 -0.001800 -0.577206 0.774883 -1.826597 0.441511 0.977877 3.142712 -0.068362 3.803898 -6.864131 0.0 0.0 0.0 -0.850934 0.835710 0.506099 -0.174196 1.587115 1.331542 1.217726 -2.705027 0.156705 -0.037505 -1.719123 -3.182674 0.0 0.0 0.0 -0.139487 0.149282 -0.206682 1.246528 0.065295 1.214167 -0.229750 -0.376394 -2.328513 0.016642 0.246488 0.123665 -1.156155 2.481703 2.498124 0.0 0.0 0.0 1.323545 -0.818102 -1.122723 0.089024 1.083202 0.672871 -0.010534 -0.118947 0.451804 0.302746 0.697190 -2.613410 0.0 0.0 0.0 
