HIERARCHY
ROOT Spine1
{
	OFFSET 0.000000 0.000000 0.000000
	CHANNELS 6 Xposition Yposition Zposition Yrotation Zrotation Xrotation
	JOINT ShoulderCenter
	{
		OFFSET -0.618215 18.271749 -0.044608
		CHANNELS 3 Yrotation Zrotation Xrotation
		JOINT Head
		{
			OFFSET 0.780213 17.924028 -2.960563
			CHANNELS 3 Yrotation Zrotation Xrotation
			End Site
			{
				OFFSET 0.000000 0.000000 0.000000
			}
		}
	}
	JOINT ShoulderCenterRight
	{
		OFFSET -0.618215 18.271749 -0.044608
		CHANNELS 3 Yrotation Zrotation Xrotation
		JOINT RightShoulder
		{
			OFFSET 18.957802 -12.571615 1.742935
			CHANNELS 3 Yrotation Zrotation Xrotation
			JOINT RightElbow
			{
				OFFSET 9.592249 -26.713556 3.267360
				CHANNELS 3 Yrotation Zrotation Xrotation
				JOINT RightWrist
				{
					OFFSET 6.377637 -22.349566 -3.931570
					CHANNELS 3 Yrotation Zrotation Xrotation
					JOINT RightHand
					{
						OFFSET 0.366336 -4.997246 -1.670384
						CHANNELS 3 Yrotation Zrotation Xrotation
						End Site
						{
							OFFSET 0.000000 0.000000 0.000000
						}
					}
				}
			}
		}
	}
	JOINT ShoulderCenterLeft
	{
		OFFSET -0.618215 18.271749 -0.044608
		CHANNELS 3 Yrotation Zrotation Xrotation
		JOINT LeftShoulder
		{
			OFFSET -17.904209 -13.642335 -3.446245
			CHANNELS 3 Yrotation Zrotation Xrotation
			JOINT LeftElbow
			{
				OFFSET -8.364469 -24.754250 -1.719737
				CHANNELS 3 Yrotation Zrotation Xrotation
				JOINT LeftWrist
				{
					OFFSET -1.382601 -22.248871 -8.410597
					CHANNELS 3 Yrotation Zrotation Xrotation
					JOINT LeftHand
					{
						OFFSET 0.987452 -3.613607 0.213432
						CHANNELS 3 Yrotation Zrotation Xrotation
						End Site
						{
							OFFSET 0.000000 0.000000 0.000000
						}
					}
				}
			}
		}
	}
	JOINT Spine
	{
		OFFSET 0.618214 -18.271749 0.044608
		CHANNELS 3 Yrotation Zrotation Xrotation
		JOINT HipCenterRight
		{
			OFFSET 1.028509 -6.352623 -5.496335
			CHANNELS 3 Yrotation Zrotation Xrotation
			JOINT RightHip
			{
				OFFSET 8.641552 -8.291084 0.126696
				CHANNELS 3 Yrotation Zrotation Xrotation
				JOINT RightKnee
				{
					OFFSET 1.945812 -49.036755 9.188271
					CHANNELS 3 Yrotation Zrotation Xrotation
					JOINT RightAnkle
					{
						OFFSET -0.782783 -35.962685 1.777959
						CHANNELS 3 Yrotation Zrotation Xrotation
						JOINT RightFoot
						{
							OFFSET 2.597723 -5.698556 -5.949855
							CHANNELS 3 Yrotation Zrotation Xrotation
							End Site
							{
								OFFSET 0.000000 0.000000 0.000000
							}
						}
					}
				}
			}
		}
		JOINT HipCenterLeft
		{
			OFFSET 1.028509 -6.352623 -5.496335
			CHANNELS 3 Yrotation Zrotation Xrotation
			JOINT LeftHip
			{
				OFFSET -7.820205 -8.282742 -2.834868
				CHANNELS 3 Yrotation Zrotation Xrotation
				JOINT LeftKnee
				{
					OFFSET -4.238897 -47.915482 9.590077
					CHANNELS 3 Yrotation Zrotation Xrotation
					JOINT LeftAnkle
					{
						OFFSET 1.890875 -35.341911 2.754498
						CHANNELS 3 Yrotation Zrotation Xrotation
						JOINT LeftFoot
						{
							OFFSET -2.728528 -7.142753 -4.019785
							CHANNELS 3 Yrotation Zrotation Xrotation
							End Site
							{
								OFFSET 0.000000 0.000000 0.000000
							}
						}
					}
				}
			}
		}
	}
}
MOTION
Frames: 83
Frame Time: 0.033333
0.000000 0.000000 0.000000 0.000000 0.000000 0.000000 0.000000 0.000000 0.000000 0.0 0.0 0.0 0.000000 0.000000 0.000000 0.000000 0.000000 0.000000 0.000000 0.000000 0.000000 0.000000 0.000000 0.000000 0.0 0.0 0.0 0.000000 0.000000 0.000000 0.000000 0.000000 0.000000 0.000000 0.000000 0.000000 0.000000 0.000000 0.000000 0.0 0.0 0.0 0.000000 0.000000 0.000000 0.000000 0.000000 0.000000 0.000000 0.000000 0.000000 0.000000 0.000000 0.000000 0.000000 0.000000 0.000000 0.0 0.0 0.0 0.000000 0.000000 0.000000 0.000000 0.000000 0.000000 0.000000 0.000000 0.000000 0.000000 0.000000 0.000000 0.0 0.0 0.0 
-0.003325 -0.015649 -0.023127 -0.000722 0.022553 -0.023131 -0.014919 -0.053431 0.141566 0.0 0.0 0.0 0.062226 0.001061 0.041169 -0.033304 0.056430 -0.112095 0.046525 0.111195 0.232273 -0.197575 0.256097 -1.587783 0.0 0.0 0.0 0.040623 -0.047830 -0.021738 -0.097475 0.070984 0.273390 -0.060079 0.292520 -0.778053 0.258815 -0.267368 0.997479 0.0 0.0 0.0 0.027677 -0.030368 0.008642 -0.020176 0.031030 -0.019813 -0.000209 -0.003426 0.010906 -0.003230 -0.052855 0.028951 -0.441013 0.280334 -0.328947 0.0 0.0 0.0 0.000005 0.000023 -0.000014 -0.000002 -0.000019 -0.000020 0.000002 0.000027 -0.000004 0.058537 -0.318205 0.318276 0.0 0.0 0.0 
0.038287 -0.012821 -0.035906 -0.001588 -0.079119 -0.040422 0.031721 0.243840 0.187125 0.0 0.0 0.0 0.062035 -0.016863 0.042695 -0.008364 0.235113 -0.103951 0.111123 0.367815 0.622425 -1.968793 5.558834 -5.381910 0.0 0.0 0.0 0.061867 -0.063312 -0.034938 -0.103974 0.209888 0.263267 -0.103730 0.459651 -1.052739 0.732665 -1.193219 2.841820 0.0 0.0 0.0 0.005009 -0.002228 0.019027 -0.003207 0.088695 -0.004378 0.000000 -0.000004 0.000027 -0.004562 -0.084647 0.017906 -0.073047 0.244384 0.402123 0.0 0.0 0.0 0.020920 0.057340 -0.042935 0.002820 0.025956 0.026771 -0.000345 -0.014033 0.013965 0.065461 -0.288937 0.256382 0.0 0.0 0.0 
0.037772 -0.029984 -0.058842 -0.001471 -0.087972 -0.036303 0.042837 0.313101 0.191568 0.0 0.0 0.0 0.113558 -0.036157 0.078655 -0.030661 0.489185 -0.254894 0.075183 0.938856 0.866134 -2.355490 6.935651 -4.145220 0.0 0.0 0.0 0.069984 -0.063515 -0.041083 -0.128841 0.368359 0.303025 0.030345 0.118762 -1.192783 0.658394 -0.321374 2.458191 0.0 0.0 0.0 0.021043 -0.022487 0.009787 0.021281 0.120411 0.018649 0.001826 0.012893 -0.014917 -0.005290 -0.111455 -0.010608 -0.299247 0.325408 0.090827 0.0 0.0 0.0 0.071151 0.057634 -0.096258 0.006543 0.076044 0.097335 -0.007340 -0.096847 0.003826 0.080835 -0.253609 0.163315 0.0 0.0 0.0 
0.064427 -0.029033 -0.052357 -0.001188 -0.146254 -0.023664 0.067227 0.432073 0.087121 0.0 0.0 0.0 0.209437 -0.138859 0.151809 -0.080194 1.132774 -0.625468 0.165249 2.546520 2.324181 -2.190550 6.364621 -4.614272 0.0 0.0 0.0 0.058123 -0.025165 -0.039441 -0.133602 0.547485 0.279446 0.092924 -0.041625 -1.255584 0.437603 0.706730 1.480529 0.0 0.0 0.0 0.032699 -0.046816 -0.048020 0.089535 0.160304 0.083542 0.018163 0.112649 -0.076174 -0.012666 -0.257612 -0.003645 -0.099205 0.458959 0.843051 0.0 0.0 0.0 0.104418 0.095574 -0.145248 0.010524 0.141526 0.198405 -0.011726 -0.147641 -0.004017 0.040400 -0.102303 0.045122 0.0 0.0 0.0 
0.065582 -0.022942 -0.068569 -0.001841 -0.136103 -0.043088 0.057042 0.390248 0.157565 0.0 0.0 0.0 0.237255 -0.229887 0.178740 -0.100579 1.620496 -0.864473 -0.163804 5.854322 3.714212 -2.447483 7.308767 4.328639 0.0 0.0 0.0 0.089723 -0.014502 -0.065579 -0.173008 0.642979 0.374448 0.156562 -0.181965 -1.461643 0.619373 0.456001 2.199948 0.0 0.0 0.0 0.048596 -0.066001 -0.052224 0.127796 0.182821 0.119914 0.008888 0.074922 -0.132021 -0.009743 -0.197626 -0.001406 0.364039 0.209827 1.274302 0.0 0.0 0.0 0.131309 0.090042 -0.171748 0.004591 0.141235 0.263927 -0.008332 -0.125363 0.026343 0.157722 0.203002 -0.710372 0.0 0.0 0.0 
0.071691 -0.022802 -0.070381 -0.002015 -0.145832 -0.047259 0.062527 0.429889 0.178792 0.0 0.0 0.0 0.240601 -0.242215 0.182109 -0.090819 2.434546 -1.147971 -0.646807 11.327532 7.391084 0.872692 -2.612605 0.007343 0.0 0.0 0.0 0.077684 -0.005315 -0.058175 -0.174224 0.668861 0.372553 0.133696 -0.101881 -1.564960 0.623705 0.762617 2.168612 0.0 0.0 0.0 0.040916 -0.058003 -0.056943 0.140236 0.192142 0.131711 0.006633 0.064670 -0.140257 -0.006733 -0.137005 -0.001951 1.321298 -0.586353 1.505627 0.0 0.0 0.0 0.156831 0.107822 -0.205238 -0.002239 0.128976 0.313134 -0.010299 -0.147508 0.021834 0.117823 0.228658 -0.643152 0.0 0.0 0.0 
0.088521 -0.027627 -0.073695 -0.002156 -0.155165 -0.050513 0.074092 0.503163 0.187473 0.0 0.0 0.0 0.279285 -0.265276 0.209964 0.108315 4.307837 -1.307832 -0.643889 13.122131 9.987515 -4.655058 12.250059 10.697884 0.0 0.0 0.0 0.059861 0.018426 -0.049167 -0.170909 0.830463 0.329128 0.212194 -0.335997 -1.455066 0.404129 1.209367 1.262946 0.0 0.0 0.0 0.047726 -0.069129 -0.074174 0.132721 0.230377 0.123935 0.008424 0.068924 -0.114956 -0.011905 -0.238716 0.005220 -0.221909 0.207318 -0.011648 0.0 0.0 0.0 0.150607 0.136552 -0.209031 -0.007594 0.114970 0.342129 -0.010757 -0.159859 0.030993 0.293934 0.081954 -0.892096 0.0 0.0 0.0 
0.089435 -0.034711 -0.081182 -0.002963 -0.131958 -0.075493 0.063276 0.455688 0.251711 0.0 0.0 0.0 0.301583 -0.287395 0.226847 0.424038 7.748265 -1.840355 -0.984666 16.125191 13.375789 -4.294634 12.377075 2.290090 0.0 0.0 0.0 0.083958 -0.007858 -0.062467 -0.244556 1.081889 0.489717 0.347581 -0.675559 -1.670913 0.266157 2.283969 0.512621 0.0 0.0 0.0 0.055934 -0.079531 -0.078951 0.120746 0.252174 0.112124 0.002360 0.028754 -0.076790 -0.010924 -0.210258 0.026519 -1.003944 0.566770 -0.927940 0.0 0.0 0.0 0.154635 0.171948 -0.226096 -0.021701 0.066965 0.394384 -0.013278 -0.182270 0.016823 0.216564 0.141745 -0.775654 0.0 0.0 0.0 
0.100683 -0.037456 -0.075865 -0.002718 -0.123251 -0.069237 0.065053 0.461740 0.235100 0.0 0.0 0.0 0.305509 -0.315286 0.232055 0.598201 9.321217 -2.028961 -1.723588 19.598791 16.637035 -12.466105 29.705889 9.236099 0.0 0.0 0.0 0.075928 -0.018653 -0.054265 -0.274122 1.204344 0.549153 0.374471 -0.719793 -1.871191 0.397650 2.383392 1.009279 0.0 0.0 0.0 0.051138 -0.076037 -0.089872 0.122517 0.268756 0.113578 -0.002195 0.006549 -0.086365 -0.007755 -0.186762 -0.073440 -0.634409 0.603263 -0.006791 0.0 0.0 0.0 0.156481 0.205169 -0.240055 -0.036189 0.003718 0.417629 -0.015642 -0.204041 0.004685 0.145213 0.277964 -0.786462 0.0 0.0 0.0 
0.097154 -0.035700 -0.073195 -0.002284 -0.182564 -0.051900 0.100196 0.673543 0.222619 0.0 0.0 0.0 -0.013825 -0.089952 -0.000909 0.991271 11.051387 -1.527218 -4.390234 27.251104 21.759911 -6.095076 20.532303 -7.296321 0.0 0.0 0.0 -0.015386 0.132695 -0.013787 -0.238716 1.162605 0.455961 0.338723 -0.569789 -2.198089 1.160559 1.694698 4.092573 0.0 0.0 0.0 -0.089527 0.083450 -0.107885 0.250940 0.190720 0.237936 -0.012966 -0.014359 -0.257998 -0.004098 -0.130609 -0.114389 -0.081565 0.609115 1.232986 0.0 0.0 0.0 0.260758 0.124586 -0.321520 -0.044267 -0.000320 0.500111 -0.018333 -0.254383 0.026754 0.093704 0.555138 -1.051512 0.0 0.0 0.0 
0.091600 -0.030690 -0.069237 -0.002038 -0.210651 -0.042708 0.113231 0.765044 0.260149 0.0 0.0 0.0 -0.226236 -0.106694 -0.140315 1.548400 13.849976 -0.937980 -5.167251 29.017891 22.648918 -9.995179 29.100952 -0.519903 0.0 0.0 0.0 -0.022923 0.178037 -0.016746 -0.290212 1.293867 0.576546 0.429099 -0.797436 -2.370255 1.169985 3.051731 3.986784 0.0 0.0 0.0 -0.176403 0.181748 -0.120187 0.261591 0.113784 0.249300 -0.013079 -0.013528 -0.264789 -0.006413 -0.128158 0.003744 0.504900 0.126185 1.385351 0.0 0.0 0.0 0.309505 0.048644 -0.345759 -0.033513 0.066425 0.526022 -0.026691 -0.357276 0.020312 0.091845 0.514420 -0.988245 0.0 0.0 0.0 
0.102939 -0.016803 -0.056720 -0.000321 -0.260099 0.008683 0.143229 0.911304 0.140210 0.0 0.0 0.0 -0.492975 0.208920 -0.345500 2.442285 17.277925 0.879789 -9.009834 36.535515 25.574474 -6.450736 25.719936 -13.712571 0.0 0.0 0.0 -0.064425 0.231864 0.004582 -0.296006 1.420395 0.566549 0.481728 -0.945795 -2.369528 1.190734 3.619017 4.008574 0.0 0.0 0.0 -0.273962 0.295193 -0.117284 0.271033 0.027668 0.259639 -0.013893 -0.004757 -0.327131 -0.024406 -0.221011 0.679771 -1.530280 -0.018090 -3.503710 0.0 0.0 0.0 0.337725 -0.004588 -0.356419 -0.022733 0.087849 0.452023 -0.031331 -0.388510 -0.018567 0.065263 0.256016 -0.545431 0.0 0.0 0.0 
0.104690 -0.009441 -0.053072 -0.000053 -0.257455 0.015958 0.150618 0.964980 0.167134 0.0 0.0 0.0 -0.452238 0.170977 -0.315139 3.293495 22.300350 1.884865 -10.227583 38.919197 24.680386 -9.364160 34.862724 -10.629982 0.0 0.0 0.0 -0.081445 0.272572 0.009767 -0.312107 1.444904 0.607499 0.504931 -1.009902 -2.378141 1.047624 4.133800 3.350521 0.0 0.0 0.0 -0.271494 0.291413 -0.122366 0.242116 0.033586 0.231806 0.003265 0.083621 -0.318488 -0.030054 -0.396273 0.571751 -0.782964 0.151511 -1.395352 0.0 0.0 0.0 0.291716 0.043501 -0.325020 -0.027236 0.048358 0.415531 -0.032758 -0.353830 -0.091615 0.148953 -0.063448 -0.297371 0.0 0.0 0.0 
0.095680 -0.022897 -0.057745 -0.000253 -0.232287 0.008747 0.144160 0.935673 0.199215 0.0 0.0 0.0 -0.439230 0.173190 -0.306728 3.920022 26.380774 2.543772 -13.204533 43.484627 27.237431 -7.211373 29.814236 -14.489304 0.0 0.0 0.0 -0.089350 0.269773 0.016333 -0.329309 1.474711 0.650431 0.485688 -0.972435 -2.263169 0.605885 4.359953 1.455762 0.0 0.0 0.0 -0.264581 0.284865 -0.114394 0.187040 0.014438 0.179245 0.004829 0.078526 -0.253532 -0.031025 -0.417597 0.572982 -3.427554 1.635559 -4.137339 0.0 0.0 0.0 0.207814 0.119533 -0.263535 -0.030939 -0.019577 0.306210 -0.033182 -0.392074 -0.046192 0.019642 0.035953 -0.104334 0.0 0.0 0.0 
0.096684 -0.019941 -0.056076 0.000079 -0.242417 0.018667 0.159546 1.041213 0.234177 0.0 0.0 0.0 -0.419538 0.140658 -0.290768 4.801581 32.508835 3.444996 -13.394752 44.155777 25.963438 -7.408512 28.027096 -11.464870 0.0 0.0 0.0 -0.156392 0.372099 0.047919 -0.303167 1.428288 0.585398 0.521492 -1.078547 -2.224053 0.666301 5.035661 1.575343 0.0 0.0 0.0 -0.278027 0.300379 -0.114640 0.163348 -0.004284 0.156789 0.007997 0.093207 -0.243667 -0.030434 -0.395687 0.593940 -3.245327 1.417999 -4.219551 0.0 0.0 0.0 0.126228 0.123603 -0.178504 -0.015648 -0.007601 0.159851 -0.031361 -0.398845 -0.004937 0.052689 -0.023098 -0.104014 0.0 0.0 0.0 
0.095438 -0.010896 -0.053024 0.000373 -0.244826 0.026996 0.185013 1.214202 0.284276 0.0 0.0 0.0 -0.448012 0.123444 -0.308070 5.177468 35.170635 4.074920 -19.652397 50.897495 33.242256 -5.863982 28.066231 -19.484825 0.0 0.0 0.0 -0.169886 0.423575 0.048394 -0.299559 1.450124 0.570483 0.530492 -1.126079 -2.065868 0.487516 5.042922 0.801862 0.0 0.0 0.0 -0.290794 0.313894 -0.121565 0.174174 -0.006028 0.167203 0.003111 0.073167 -0.271497 -0.029923 -0.400773 0.553617 -2.558314 1.254123 -2.932230 0.0 0.0 0.0 0.137294 0.106976 -0.184222 -0.010482 0.042627 0.214074 -0.033224 -0.368611 -0.079325 0.240958 -0.283679 -0.214310 0.0 0.0 0.0 
0.114963 0.004146 -0.000477 0.005703 -0.292400 0.176375 0.241011 1.439869 -0.058525 0.0 0.0 0.0 -0.322480 0.073820 -0.220465 5.693146 39.124008 4.058334 -20.913830 52.040825 34.463673 -5.428966 29.234756 -22.620996 0.0 0.0 0.0 -0.295897 0.548243 0.120850 -0.242549 1.410841 0.415397 0.557060 -1.186836 -2.162766 0.430010 4.936423 0.579311 0.0 0.0 0.0 -0.313566 0.323609 -0.213345 0.172649 0.053649 0.164858 -0.005718 0.040307 -0.337346 -0.029885 -0.429045 0.481450 -2.959103 1.721852 -2.757798 0.0 0.0 0.0 0.159121 0.150099 -0.222955 -0.004782 0.059091 0.186677 -0.034069 -0.359191 -0.107306 0.278571 -0.592315 0.147347 0.0 0.0 0.0 
0.138918 0.024191 0.018525 0.007923 -0.304416 0.237502 0.266363 1.579636 -0.096955 0.0 0.0 0.0 -0.253940 0.041623 -0.172138 6.100942 42.143578 4.227838 -26.907791 56.095001 41.311283 -8.540792 32.221405 -11.142048 0.0 0.0 0.0 -0.271346 0.550454 0.101687 -0.258209 1.511845 0.439350 0.599422 -1.310971 -2.121934 0.338243 5.028865 0.161327 0.0 0.0 0.0 -0.288258 0.296259 -0.202443 0.098046 0.053191 0.093287 -0.000034 0.071371 -0.343259 -0.029136 -0.427073 0.444848 -2.819637 1.726423 -2.404273 0.0 0.0 0.0 0.095649 0.194353 -0.171666 0.008277 0.049651 0.018680 -0.028900 -0.316046 -0.075912 0.295448 -0.874716 0.530123 0.0 0.0 0.0 
0.155797 0.042036 0.036097 0.009160 -0.301705 0.271417 0.280094 1.630868 -0.186967 0.0 0.0 0.0 -0.153532 0.176013 -0.117865 6.321485 43.887650 4.631516 -31.125898 57.287933 48.326370 -11.144141 37.064808 -6.564648 0.0 0.0 0.0 -0.288154 0.527340 0.118910 -0.236897 1.656635 0.348808 0.655733 -1.490511 -1.952709 0.221177 5.289921 -0.415412 0.0 0.0 0.0 -0.254250 0.262157 -0.173342 0.049738 0.049340 0.046996 0.000347 0.078262 -0.367138 -0.029648 -0.411972 0.510907 -2.768396 1.266491 -3.413376 0.0 0.0 0.0 0.092740 0.265332 -0.194204 0.005603 0.021692 -0.014221 -0.031881 -0.349602 -0.081986 0.296568 -0.839718 0.473842 0.0 0.0 0.0 
0.166821 0.069332 0.074005 0.011286 -0.291950 0.329829 0.302169 1.731473 -0.276830 0.0 0.0 0.0 -0.070880 0.198136 -0.065168 6.366411 44.252384 4.713555 -39.151348 58.982281 60.207413 -9.268251 29.207687 -4.052434 0.0 0.0 0.0 -0.300254 0.512774 0.130913 -0.246400 1.742223 0.358440 0.676065 -1.542500 -1.988398 0.139861 5.376795 -0.794477 0.0 0.0 0.0 -0.227880 0.232413 -0.168947 0.043347 0.071756 0.040534 -0.009899 0.035348 -0.419461 -0.043870 -0.461475 1.187938 -4.913204 1.182916 -9.108791 0.0 0.0 0.0 0.091564 0.343712 -0.221214 -0.001797 -0.020105 -0.025234 -0.034764 -0.383024 -0.086484 0.280081 -0.517894 0.031543 0.0 0.0 0.0 
0.170070 0.090593 0.087643 0.011323 -0.288723 0.330899 0.332264 1.894939 -0.321791 0.0 0.0 0.0 -0.296649 0.658783 -0.256498 6.558579 47.178577 6.894698 -38.903740 57.735229 62.897842 -12.025795 37.225239 -3.774536 0.0 0.0 0.0 -0.215258 0.458463 0.076373 -0.318153 1.902084 0.529424 0.696226 -1.571565 -2.200350 0.099955 5.825251 -1.105493 0.0 0.0 0.0 -0.252049 0.272699 -0.101577 0.026924 0.002883 0.025790 -0.001048 0.087857 -0.449957 -0.046272 -0.550643 1.124069 -3.505226 0.085183 -8.059634 0.0 0.0 0.0 0.122843 0.399459 -0.274436 -0.004000 -0.039861 -0.045139 -0.047493 -0.555781 -0.071735 0.175782 -0.335696 0.035267 0.0 0.0 0.0 
0.184986 0.117794 0.085497 0.010639 -0.272503 0.312201 0.338756 1.958101 -0.254507 0.0 0.0 0.0 -0.385097 0.844839 -0.331726 6.504402 48.323681 8.536900 -47.668777 56.889145 79.571999 -8.604233 32.250008 -10.907587 0.0 0.0 0.0 -0.120675 0.397241 0.015861 -0.382596 1.963604 0.699132 0.661160 -1.438363 -2.465158 -0.050064 5.987151 -1.824785 0.0 0.0 0.0 -0.238366 0.262744 -0.069386 0.008247 0.000456 0.007906 -0.005887 0.058467 -0.429853 -0.043349 -0.535532 0.987868 -3.552124 0.467968 -7.281699 0.0 0.0 0.0 0.144675 0.452545 -0.316674 -0.014244 -0.078858 -0.017549 -0.051562 -0.612466 -0.065248 0.140320 -0.280058 0.045986 0.0 0.0 0.0 
0.185249 0.119394 0.107813 0.012757 -0.240907 0.371373 0.354999 1.973206 -0.478497 0.0 0.0 0.0 -0.254825 0.925602 -0.253329 6.493572 48.725155 8.952375 -48.841370 55.411236 85.141800 -9.842169 33.160645 -6.916038 0.0 0.0 0.0 -0.173448 0.396263 0.056322 -0.337427 1.949527 0.574217 0.667764 -1.447637 -2.535763 0.039042 6.112134 -1.468533 0.0 0.0 0.0 -0.209701 0.227025 -0.083431 0.048926 0.078290 0.045790 -0.020407 0.001430 -0.520762 -0.041887 -0.589119 0.768117 -3.050309 0.331248 -6.346671 0.0 0.0 0.0 0.158055 0.470840 -0.337436 -0.014745 -0.094472 -0.047524 -0.051461 -0.626308 -0.045123 0.151071 -0.288360 0.029983 0.0 0.0 0.0 
0.189793 0.127244 0.116062 0.013205 -0.221315 0.384335 0.362644 2.001070 -0.526114 0.0 0.0 0.0 -0.143216 0.880553 -0.175704 6.472883 49.325554 9.548805 -46.293533 51.442680 92.561829 -11.386762 34.892853 -3.194680 0.0 0.0 0.0 -0.132755 0.390828 0.026305 -0.358705 2.053426 0.612866 0.729405 -1.622214 -2.533585 -0.268225 6.739064 -3.087080 0.0 0.0 0.0 -0.156803 0.166487 -0.079864 0.020595 0.122252 0.017964 -0.021899 -0.008325 -0.511183 -0.042013 -0.576347 0.808349 -2.308098 -0.343555 -6.093249 0.0 0.0 0.0 0.132835 0.517123 -0.327323 -0.013433 -0.096761 -0.067743 -0.052867 -0.625787 -0.069642 0.228012 -0.419220 0.021829 0.0 0.0 0.0 
0.193431 0.126064 0.116801 0.013217 -0.215086 0.384850 0.362464 2.006669 -0.507765 0.0 0.0 0.0 -0.056610 0.812220 -0.112336 6.430223 49.241611 9.831371 -44.962170 49.155899 97.542274 -11.240750 33.799957 -2.321906 0.0 0.0 0.0 -0.153015 0.482470 0.024285 -0.324647 1.871263 0.554204 0.645359 -1.341199 -2.853321 0.275041 5.449752 -0.224634 0.0 0.0 0.0 -0.132848 0.138538 -0.081143 0.022663 0.142311 0.019653 -0.023158 -0.011153 -0.529135 -0.035277 -0.497459 0.613394 -0.477992 -1.270474 -3.904695 0.0 0.0 0.0 0.130402 0.517080 -0.324730 0.013525 0.025518 -0.094893 -0.071847 -0.991708 0.087039 -0.033497 0.257814 -0.290223 0.0 0.0 0.0 
0.200019 0.131699 0.120091 0.012916 -0.188121 0.377042 0.361465 2.013540 -0.472649 0.0 0.0 0.0 0.030823 0.831065 -0.056464 6.310652 48.194721 10.152261 -42.230099 46.408234 102.562660 -10.116342 28.132856 1.735953 0.0 0.0 0.0 -0.109354 0.458205 -0.004422 -0.342416 1.889422 0.600816 0.650422 -1.359593 -2.824332 0.295599 5.272766 -0.087058 0.0 0.0 0.0 -0.095851 0.100568 -0.055056 0.017306 0.189551 0.013818 -0.029315 -0.038610 -0.551107 -0.042052 -0.578293 0.805736 -0.895069 -1.358150 -5.040843 0.0 0.0 0.0 0.137069 0.546098 -0.342215 0.010956 0.017475 -0.084152 -0.080505 -1.061524 0.034877 0.012477 -0.028371 0.009146 0.0 0.0 0.0 
0.218285 0.138476 0.121880 0.012760 -0.150886 0.373511 0.372975 2.084140 -0.465657 0.0 0.0 0.0 0.301465 0.535788 0.149745 6.210602 47.847305 10.840290 -41.192413 45.334831 104.784805 -9.315350 28.876776 -3.321328 0.0 0.0 0.0 -0.003047 0.445561 -0.083182 -0.400775 1.864202 0.771568 0.632960 -1.285391 -3.001081 0.419566 4.886188 0.546516 0.0 0.0 0.0 0.013067 -0.024466 -0.049940 -0.037194 0.284215 -0.039854 -0.031105 -0.058276 -0.501631 -0.041738 -0.570520 0.806677 -0.779124 -1.488261 -5.059519 0.0 0.0 0.0 0.083986 0.651166 -0.323622 0.004311 -0.021164 -0.096807 -0.081373 -1.072125 0.034151 -0.001007 0.035121 -0.049069 0.0 0.0 0.0 
0.223887 0.142008 0.129199 0.013243 -0.135082 0.387667 0.379512 2.106287 -0.510356 0.0 0.0 0.0 0.429936 0.266578 0.260090 6.152846 47.830261 11.367650 -37.219055 43.402451 106.102158 -9.549930 30.144735 -4.161008 0.0 0.0 0.0 -0.013795 0.469551 -0.079563 -0.358275 1.851316 0.653737 0.634659 -1.310583 -2.853894 0.571380 4.454914 1.290406 0.0 0.0 0.0 0.032435 -0.049394 -0.063349 -0.037743 0.296877 -0.040568 -0.026091 -0.034091 -0.492338 -0.044444 -0.786771 0.372319 -3.843770 2.258791 -3.618655 0.0 0.0 0.0 0.081359 0.635807 -0.315337 0.008477 -0.004633 -0.106331 -0.080955 -1.061521 0.027702 0.041662 -0.133755 0.088359 0.0 0.0 0.0 
0.231468 0.143003 0.123930 0.012791 -0.103408 0.375520 0.360693 2.051348 -0.356910 0.0 0.0 0.0 0.605541 -0.045658 0.406088 6.111688 45.658096 10.310870 -37.607677 42.913143 108.592438 -8.746758 26.752159 -2.616060 0.0 0.0 0.0 0.035925 0.437912 -0.111483 -0.363857 1.867414 0.666202 0.634649 -1.328027 -2.726529 0.558655 4.110166 1.308806 0.0 0.0 0.0 0.088524 -0.113585 -0.059526 -0.071992 0.353112 -0.074247 -0.033399 -0.080737 -0.451816 -0.043777 -0.755474 0.423598 -4.746081 2.618477 -5.038396 0.0 0.0 0.0 0.052862 0.657689 -0.292978 0.004440 -0.015397 -0.085146 -0.084195 -1.036520 -0.055081 -0.114400 0.075416 0.187849 0.0 0.0 0.0 
0.243030 0.131950 0.128174 0.012404 -0.068677 0.365096 0.355153 2.028554 -0.329272 0.0 0.0 0.0 0.804248 -0.601830 0.591208 6.174972 45.594505 9.455837 -37.454338 42.680489 109.281563 -8.919721 27.467920 -2.960273 0.0 0.0 0.0 0.035547 0.421094 -0.107974 -0.341390 1.829975 0.610282 0.615608 -1.285691 -2.640956 0.676900 3.690529 1.881470 0.0 0.0 0.0 0.115093 -0.152443 -0.102235 -0.026304 0.379940 -0.030818 -0.040889 -0.116454 -0.467822 -0.047931 -0.777476 0.634059 -6.642336 3.808414 -7.093233 0.0 0.0 0.0 0.072065 0.634004 -0.304841 -0.002367 -0.011047 0.001757 -0.083612 -1.022158 -0.063771 -0.094482 0.117959 0.073361 0.0 0.0 0.0 
0.248194 0.141963 0.107813 0.010973 -0.043124 0.323840 0.342120 1.999168 -0.197488 0.0 0.0 0.0 0.905235 -0.763822 0.674069 6.186812 45.297504 8.983513 -37.571712 42.678528 109.458923 -9.024940 27.597189 -2.649246 0.0 0.0 0.0 0.113533 0.413088 -0.166005 -0.370921 1.831914 0.693693 0.618759 -1.300032 -2.601606 0.786547 3.259814 2.404953 0.0 0.0 0.0 0.177914 -0.221545 -0.083017 -0.052253 0.438725 -0.056573 -0.033684 -0.088526 -0.422063 -0.055883 -0.929058 0.729123 -6.248386 3.440451 -6.974726 0.0 0.0 0.0 0.042443 0.663483 -0.284015 -0.000003 -0.000000 0.000027 -0.085368 -1.053815 -0.052183 -0.082713 0.252802 -0.154671 0.0 0.0 0.0 
0.259987 0.143579 0.106096 0.011364 -0.046899 0.335210 0.355141 2.050242 -0.270260 0.0 0.0 0.0 0.908958 -0.749231 0.675160 6.104101 46.156914 10.805478 -36.811623 42.925472 107.358849 -8.615416 27.972347 -5.302384 0.0 0.0 0.0 0.149900 0.364842 -0.184521 -0.385691 1.930506 0.714840 0.642596 -1.372740 -2.563370 0.747802 3.397651 2.224152 0.0 0.0 0.0 0.192678 -0.236168 -0.070077 -0.003006 0.479612 -0.009943 -0.047248 -0.137160 -0.526196 -0.052524 -0.855521 0.715656 -5.129188 2.482875 -6.418193 0.0 0.0 0.0 0.070264 0.668331 -0.315229 0.000006 0.000026 -0.000005 -0.086253 -1.066359 -0.050634 -0.141123 0.360702 -0.159917 0.0 0.0 0.0 
0.287124 0.152159 0.112700 0.010930 -0.008773 0.322949 0.359069 2.077221 -0.260801 0.0 0.0 0.0 0.947114 -0.461301 0.673012 6.019027 45.866173 11.610400 -37.272381 43.791431 104.673874 -8.779701 26.980572 -2.843439 0.0 0.0 0.0 0.165591 0.309722 -0.185907 -0.382843 1.954520 0.701734 0.637265 -1.366659 -2.496744 0.793114 3.231341 2.436264 0.0 0.0 0.0 0.231349 -0.276577 -0.047309 -0.053028 0.503239 -0.058267 -0.056398 -0.196568 -0.471693 -0.047354 -0.788609 0.562327 -4.087471 1.886455 -5.190469 0.0 0.0 0.0 0.050300 0.682573 -0.299174 0.008957 0.026284 -0.041677 -0.092154 -1.185308 0.002805 -0.214881 0.305364 0.112119 0.0 0.0 0.0 
0.300721 0.159529 0.098610 0.009336 -0.009843 0.275955 0.371846 2.207337 -0.118768 0.0 0.0 0.0 0.922705 -0.367435 0.647728 5.993303 46.410004 12.228875 -38.705696 45.702236 99.781052 -8.268181 30.403763 -10.263544 0.0 0.0 0.0 0.169538 0.364498 -0.199453 -0.371842 1.841531 0.694284 0.614659 -1.314670 -2.409683 0.776977 3.103396 2.391701 0.0 0.0 0.0 0.230576 -0.272924 -0.032951 -0.048131 0.493272 -0.053424 -0.055203 -0.198227 -0.435270 -0.049066 -0.780799 0.700252 -2.794678 0.697865 -4.849414 0.0 0.0 0.0 0.060940 0.678504 -0.308990 0.010951 0.039157 -0.035070 -0.089331 -1.254300 0.129888 0.026603 -0.018125 -0.042968 0.0 0.0 0.0 
0.303077 0.162327 0.098801 0.009556 -0.002653 0.282432 0.377996 2.229069 -0.158812 0.0 0.0 0.0 0.892563 -0.250831 0.616459 6.000983 46.852085 12.366360 -40.744064 48.006420 94.998337 -9.627165 33.250885 -7.873716 0.0 0.0 0.0 0.172544 0.368372 -0.202495 -0.370166 1.843962 0.689016 0.650778 -1.413235 -2.433916 0.894232 3.402629 2.821199 0.0 0.0 0.0 0.227930 -0.268130 -0.023931 0.041249 0.534549 0.031689 -0.076053 -0.276795 -0.573080 -0.052852 -0.760067 1.010285 -1.377236 -1.621445 -6.723491 0.0 0.0 0.0 0.100193 0.665534 -0.345945 0.002141 0.011179 0.001085 -0.089370 -1.208028 0.073857 0.003948 -0.067565 0.089345 0.0 0.0 0.0 
0.261206 0.166756 0.023556 0.004568 0.116113 0.130530 0.297357 1.924805 0.335435 0.0 0.0 0.0 0.695833 -0.089558 0.470232 6.008484 47.135471 12.420852 -43.033783 51.358795 87.964172 -8.289100 27.613375 -6.395138 0.0 0.0 0.0 0.333066 0.346682 -0.320961 -0.464707 1.757601 0.975884 0.658037 -1.443290 -2.361669 0.821141 3.467885 2.512233 0.0 0.0 0.0 0.272458 -0.304264 0.055958 -0.010823 0.417341 -0.016521 -0.060079 -0.223162 -0.437821 -0.056200 -0.838193 1.022435 -5.652786 0.206234 -13.446695 0.0 0.0 0.0 0.025961 0.605319 -0.245712 0.005854 0.004186 -0.056673 -0.088046 -1.219697 0.108536 0.033682 -0.184570 0.184657 0.0 0.0 0.0 
0.245380 0.164878 -0.008464 0.003709 0.142471 0.103124 0.262436 1.748602 0.443365 0.0 0.0 0.0 0.610654 0.092959 0.396315 6.034456 47.289688 12.231059 -41.787037 53.062515 80.876549 -6.634277 32.814068 -19.678656 0.0 0.0 0.0 0.401253 0.230709 -0.350653 -0.496889 1.912594 1.033549 0.687279 -1.529481 -2.331722 0.829274 3.369426 2.561220 0.0 0.0 0.0 0.278882 -0.299364 0.119959 -0.025021 0.387750 -0.029703 -0.063738 -0.231732 -0.486100 -0.057083 -0.869698 0.994515 -7.808210 1.662377 -16.192070 0.0 0.0 0.0 0.090880 0.632014 -0.324067 -0.007519 -0.051216 -0.031031 -0.087010 -1.298541 0.218017 -0.003759 0.259418 -0.370126 0.0 0.0 0.0 
0.263317 0.166970 -0.019407 0.003631 0.122948 0.101654 0.278293 1.862481 0.484643 0.0 0.0 0.0 0.568860 0.202270 0.358217 6.054101 47.231415 12.006297 -42.033978 56.024532 72.951050 -8.142929 28.096939 -7.847311 0.0 0.0 0.0 0.431711 0.216961 -0.371260 -0.509140 2.022525 1.044357 0.748798 -1.711660 -2.257877 0.705711 3.735140 1.992164 0.0 0.0 0.0 0.279578 -0.299706 0.122362 0.027424 0.428010 0.020006 -0.074352 -0.270847 -0.559899 -0.057896 -0.870700 1.049188 -4.734319 0.029799 -11.371206 0.0 0.0 0.0 0.130253 0.637572 -0.367791 -0.009865 -0.041438 0.017831 -0.071790 -1.134887 0.262013 0.591633 -0.730433 -0.480573 0.0 0.0 0.0 
0.285834 0.182104 -0.042272 0.002439 0.085086 0.067417 0.304137 1.988495 0.393180 0.0 0.0 0.0 0.431474 0.479233 0.241015 6.152892 45.284538 9.418458 -40.808357 58.473831 64.428185 -12.560947 32.368145 4.831612 0.0 0.0 0.0 0.435962 0.192346 -0.369740 -0.507652 2.066161 1.030715 0.727147 -1.665614 -2.141295 0.668211 3.619742 1.858739 0.0 0.0 0.0 0.242500 -0.252014 0.147905 0.044525 0.379702 0.037123 -0.065068 -0.219082 -0.576088 -0.061782 -0.944528 1.116694 -4.874815 0.126670 -11.520762 0.0 0.0 0.0 0.187393 0.641831 -0.429899 -0.022207 -0.066111 0.102147 -0.076447 -1.148216 0.204565 0.504812 -0.758877 -0.205025 0.0 0.0 0.0 
0.323631 0.180408 -0.068069 0.000985 0.015933 0.028095 0.333433 2.199941 0.469904 0.0 0.0 0.0 0.372109 0.745136 0.176648 6.226711 44.264244 6.950654 -40.650284 58.346588 64.472763 -8.616747 32.075264 -10.663409 0.0 0.0 0.0 0.331746 0.314045 -0.313655 -0.452319 1.838748 0.923189 0.686814 -1.541525 -2.228764 0.908583 3.359928 2.886139 0.0 0.0 0.0 0.199126 -0.199756 0.159563 0.086795 0.401756 0.077341 -0.072518 -0.257089 -0.579221 -0.060010 -0.920100 1.058182 -4.485074 -0.162527 -11.156009 0.0 0.0 0.0 0.233702 0.617620 -0.470336 -0.020316 -0.026962 0.169163 -0.077351 -1.165595 0.211128 0.503426 -0.487097 -0.608836 0.0 0.0 0.0 
0.394140 0.194767 -0.085640 0.001657 -0.065759 0.052839 0.397182 2.586414 0.445501 0.0 0.0 0.0 0.324371 0.838061 0.136377 6.257570 44.133251 6.216064 -38.159374 59.009281 58.323853 -6.477853 26.513344 -14.552696 0.0 0.0 0.0 0.274304 0.360714 -0.278764 -0.391758 1.823653 0.754572 0.672794 -1.536772 -1.962127 0.753153 3.421660 2.241919 0.0 0.0 0.0 0.167288 -0.163105 0.159228 0.042536 0.409890 0.034769 -0.065088 -0.224805 -0.550202 -0.059133 -0.940195 0.933687 -3.923725 -0.149149 -9.667038 0.0 0.0 0.0 0.214173 0.666619 -0.467178 -0.032781 -0.086117 0.177317 -0.081685 -1.141696 0.114236 0.319747 0.005420 -0.848405 0.0 0.0 0.0 
0.413810 0.195712 -0.100660 0.002931 -0.074729 0.090292 0.432475 2.690819 0.171697 0.0 0.0 0.0 0.363813 0.840744 0.162127 6.304475 44.128319 5.444020 -35.743176 59.787411 51.878407 -7.660026 31.893021 -14.545812 0.0 0.0 0.0 0.304303 0.314464 -0.292769 -0.434263 1.960640 0.845955 0.757899 -1.748454 -2.166867 0.974558 3.874998 3.082245 0.0 0.0 0.0 0.190647 -0.184524 0.188205 -0.011154 0.411647 -0.016754 -0.061008 -0.195897 -0.585819 -0.056882 -0.879226 0.952633 -3.367153 -0.828596 -9.791980 0.0 0.0 0.0 0.175984 0.664657 -0.425978 -0.008750 -0.040339 0.007673 -0.077969 -1.157054 0.191201 0.384497 -0.055252 -0.930710 0.0 0.0 0.0 
0.423954 0.199017 -0.117040 0.002924 -0.077351 0.090218 0.451085 2.724744 -0.020826 0.0 0.0 0.0 0.385727 0.941443 0.167027 6.318251 43.940365 4.807824 -33.955513 60.036785 47.785664 -8.602761 31.639864 -10.233979 0.0 0.0 0.0 0.258111 0.340263 -0.262452 -0.410714 1.987909 0.773566 0.811785 -1.929324 -1.912975 0.905317 4.277679 2.731847 0.0 0.0 0.0 0.187456 -0.177977 0.203288 -0.053462 0.371399 -0.056742 -0.050725 -0.149026 -0.555319 -0.054939 -0.845699 0.913395 -2.294518 -1.497633 -8.626781 0.0 0.0 0.0 0.151442 0.660991 -0.398642 -0.000221 -0.019560 -0.041831 -0.082467 -1.220457 0.196392 0.203274 0.525480 -1.295013 0.0 0.0 0.0 
0.452501 0.200206 -0.136447 0.002778 -0.084054 0.086318 0.475838 2.795438 -0.211679 0.0 0.0 0.0 0.693093 0.730740 0.389882 6.444627 44.299694 3.588745 -33.206390 60.501106 45.241409 -8.219423 32.955032 -13.225720 0.0 0.0 0.0 0.264629 0.292526 -0.258232 -0.426479 2.016316 0.812127 0.805772 -1.910988 -1.926759 0.982984 4.032104 3.094593 0.0 0.0 0.0 0.273931 -0.275126 0.216363 -0.062101 0.436576 -0.065988 -0.048166 -0.128365 -0.589922 -0.062095 -0.918497 1.214825 -3.211869 -1.181896 -10.185714 0.0 0.0 0.0 0.125829 0.733776 -0.397540 0.006644 0.000340 -0.074323 -0.080015 -1.219529 0.233517 0.160798 0.706668 -1.442651 0.0 0.0 0.0 
0.446241 0.194192 -0.194407 0.000529 -0.037843 0.018177 0.433436 2.575767 -0.125216 0.0 0.0 0.0 0.660563 0.772704 0.364374 6.402556 43.954407 3.424181 -32.855724 60.454617 44.635193 -8.407368 35.140362 -14.485870 0.0 0.0 0.0 0.393008 0.180629 -0.334664 -0.500528 2.115276 1.000029 0.814796 -1.937268 -1.916542 1.061704 3.929431 3.436792 0.0 0.0 0.0 0.312693 -0.311230 0.260823 -0.131389 0.396756 -0.131858 -0.042805 -0.115460 -0.519453 -0.062159 -0.907953 1.249185 -3.310843 -0.691659 -9.344267 0.0 0.0 0.0 0.056299 0.725456 -0.320876 0.017795 0.005809 -0.187836 -0.075565 -1.243888 0.331351 0.166560 0.701089 -1.449737 0.0 0.0 0.0 
0.393842 0.157195 -0.319481 -0.007243 0.137234 -0.232176 0.350005 2.151018 0.080234 0.0 0.0 0.0 0.392381 0.933560 0.172160 6.297723 43.426022 3.892594 -32.896389 60.492714 44.633789 -8.726039 35.891670 -13.949480 0.0 0.0 0.0 0.628108 -0.066978 -0.466037 -0.645668 2.174935 1.395778 0.776962 -1.845429 -1.806033 0.982240 3.434916 3.176183 0.0 0.0 0.0 0.367531 -0.347127 0.401746 -0.182350 0.250410 -0.178598 -0.033748 -0.101519 -0.362543 -0.062576 -0.939907 1.188916 -2.720394 -0.790114 -8.102339 0.0 0.0 0.0 -0.033333 0.632225 -0.192554 0.009561 -0.056795 -0.237847 -0.073659 -1.206263 0.317057 0.126959 0.548703 -1.128994 0.0 0.0 0.0 
0.397884 0.153947 -0.325775 -0.006842 0.154231 -0.222178 0.352213 2.082590 -0.136110 0.0 0.0 0.0 0.462533 0.893750 0.222177 6.285802 43.274281 3.696779 -33.756969 60.641914 46.031670 -9.223547 35.909649 -12.155124 0.0 0.0 0.0 0.581722 -0.053141 -0.433330 -0.645594 2.004903 1.433686 0.700291 -1.600017 -2.066720 1.057921 3.351604 3.496357 0.0 0.0 0.0 0.363813 -0.343835 0.396670 -0.175091 0.240067 -0.171484 -0.038785 -0.124329 -0.379405 -0.064093 -0.991803 1.149968 -4.168293 0.625286 -8.487988 0.0 0.0 0.0 -0.023672 0.624148 -0.199890 0.000412 -0.082712 -0.193360 -0.090000 -1.294983 0.167718 -0.313159 1.328363 -1.095965 0.0 0.0 0.0 
0.419248 0.150669 -0.337505 -0.006322 0.173207 -0.208657 0.348539 2.001329 -0.296051 0.0 0.0 0.0 0.550909 0.961991 0.273906 6.175318 42.508675 3.663236 -36.855804 60.148220 53.157520 -9.922702 37.829155 -11.448856 0.0 0.0 0.0 0.616510 -0.132912 -0.444314 -0.697203 2.099129 1.557987 0.728025 -1.656876 -2.230237 1.013313 2.836778 3.381992 0.0 0.0 0.0 0.397007 -0.376857 0.423088 -0.241749 0.253513 -0.235619 -0.047852 -0.182876 -0.328593 -0.059108 -0.892157 1.074080 -4.872663 0.843367 -9.822302 0.0 0.0 0.0 -0.050487 0.645699 -0.179217 0.008503 -0.077865 -0.274335 -0.090388 -1.401803 0.285931 -1.026031 2.544973 -0.971817 0.0 0.0 0.0 
0.441695 0.144967 -0.343513 -0.005089 0.180166 -0.171369 0.348294 1.840393 -0.741002 0.0 0.0 0.0 0.570561 1.001282 0.283089 6.008201 41.576504 4.701398 -41.074505 59.289379 62.857933 -10.739651 36.590107 -7.449133 0.0 0.0 0.0 0.534015 -0.110634 -0.385720 -0.677689 2.000301 1.525377 0.729919 -1.638154 -2.420017 0.973091 2.752192 3.232054 0.0 0.0 0.0 0.368540 -0.342332 0.432574 -0.276676 0.212597 -0.268528 -0.047150 -0.179256 -0.328267 -0.057955 -0.989033 0.690061 -3.962700 1.083014 -6.856293 0.0 0.0 0.0 -0.068781 0.611095 -0.147447 0.015357 -0.086307 -0.371898 -0.095305 -1.464064 0.282508 -0.851586 3.032975 -2.052523 0.0 0.0 0.0 
0.491599 0.141677 -0.348949 -0.003808 0.120391 -0.125099 0.380400 1.940984 -0.984168 0.0 0.0 0.0 0.614942 1.114308 0.301457 5.911842 41.044601 5.779761 -43.443348 58.430077 69.010902 -10.493635 34.828949 -6.387520 0.0 0.0 0.0 0.528581 -0.162005 -0.371560 -0.676572 2.088633 1.502211 0.730556 -1.635205 -2.457290 0.874415 2.514087 2.872144 0.0 0.0 0.0 0.363718 -0.333914 0.447504 -0.178752 0.267185 -0.175391 -0.061510 -0.210341 -0.531077 -0.063507 -1.077937 0.827126 -4.171627 1.394242 -6.634863 0.0 0.0 0.0 0.025007 0.621068 -0.250346 0.021634 -0.028399 -0.309529 -0.105862 -1.551326 0.223149 -0.816176 2.898464 -1.962972 0.0 0.0 0.0 
0.574479 0.157681 -0.352621 -0.002686 0.014377 -0.080716 0.436454 2.126462 -1.363759 0.0 0.0 0.0 0.645714 1.245222 0.309084 5.804089 40.852409 9.573334 -43.462383 54.509735 79.487717 -9.848049 37.241695 -11.172360 0.0 0.0 0.0 0.572678 -0.241300 -0.389709 -0.701308 2.303705 1.523258 0.742028 -1.659590 -2.520283 0.874729 2.319162 2.901222 0.0 0.0 0.0 0.365170 -0.329662 0.478188 -0.185001 0.298470 -0.181843 -0.052527 -0.143132 -0.626831 -0.065744 -1.123410 0.853584 -4.391126 1.712561 -6.416953 0.0 0.0 0.0 0.094619 0.704287 -0.353909 0.019125 -0.025180 -0.273719 -0.102971 -1.498979 0.206918 -0.585130 2.523317 -2.040202 0.0 0.0 0.0 
0.687628 0.126049 -0.423002 -0.006966 -0.108513 -0.192662 0.503007 2.588876 -1.134145 0.0 0.0 0.0 0.506071 1.421344 0.200367 5.754033 41.212780 12.460982 -42.361122 52.161804 84.483246 -8.347446 29.782133 -9.133448 0.0 0.0 0.0 0.708216 -0.296948 -0.482171 -0.787740 2.335597 1.758395 0.713735 -1.550760 -2.742692 1.127439 1.470730 3.987909 0.0 0.0 0.0 0.368504 -0.320960 0.543174 -0.214601 0.339274 -0.210829 -0.041711 -0.101623 -0.557897 -0.062364 -1.066985 0.772401 -4.798197 2.122977 -6.455828 0.0 0.0 0.0 0.090706 0.751916 -0.366798 0.036347 0.085322 -0.215878 -0.121880 -1.709130 0.164085 -0.668193 2.678937 -2.039979 0.0 0.0 0.0 
0.788447 0.112846 -0.452256 -0.008513 -0.219028 -0.223222 0.563306 2.991827 -0.988834 0.0 0.0 0.0 0.410284 1.578515 0.122448 5.655192 41.596222 16.156170 -36.862961 48.039104 88.296806 -9.326182 28.450964 -2.589226 0.0 0.0 0.0 0.778448 -0.341908 -0.526907 -0.846504 2.473624 1.890978 0.707048 -1.520844 -2.825655 1.060618 1.845968 3.689027 0.0 0.0 0.0 0.368785 -0.316993 0.565445 -0.262774 0.385535 -0.257708 -0.026404 -0.037287 -0.484853 -0.064775 -1.125799 0.763920 -5.255020 2.464215 -6.807806 0.0 0.0 0.0 0.058707 0.856077 -0.370095 0.029331 0.051838 -0.213068 -0.118261 -1.641292 0.141037 -0.403984 2.021015 -1.819449 0.0 0.0 0.0 
0.830714 0.116321 -0.433755 -0.005951 -0.179073 -0.155770 0.477150 2.484890 -1.018145 0.0 0.0 0.0 0.480916 1.606738 0.166051 5.584409 40.648563 19.813250 -30.627871 44.057186 91.225723 -10.394341 27.228256 4.820996 0.0 0.0 0.0 0.750031 -0.324119 -0.508729 -0.845821 2.416049 1.902436 0.737059 -1.589129 -2.958781 1.002854 1.544253 3.501000 0.0 0.0 0.0 0.369496 -0.316674 0.571334 -0.245349 0.384526 -0.240981 -0.050986 -0.142173 -0.593808 -0.062142 -1.046341 0.824729 -4.652338 1.751124 -7.008463 0.0 0.0 0.0 0.088237 0.850910 -0.399545 0.010070 -0.048811 -0.225293 -0.126076 -1.594431 -0.028058 -0.231860 1.187977 -1.107477 0.0 0.0 0.0 
0.896199 0.111359 -0.443077 -0.002785 -0.145088 -0.069266 0.433043 2.183989 -1.148830 0.0 0.0 0.0 0.669178 1.349309 0.314447 5.699162 37.939816 19.491289 -25.186033 40.180836 97.187004 -9.510866 29.289755 -3.053753 0.0 0.0 0.0 0.778337 -0.361847 -0.522904 -0.826561 2.308867 1.873420 0.701173 -1.481522 -2.995854 0.968960 1.439587 3.383474 0.0 0.0 0.0 0.427872 -0.381658 0.581064 -0.304342 0.390881 -0.297654 -0.061898 -0.177684 -0.692144 -0.058858 -0.975447 0.802845 -8.080187 4.449738 -9.596893 0.0 0.0 0.0 0.044109 0.879140 -0.362856 0.020343 -0.086010 -0.427984 -0.122368 -1.616062 0.051734 -0.145134 1.109642 -1.220229 0.0 0.0 0.0 
0.941376 0.066358 -0.426221 0.002147 -0.084572 0.068075 0.423125 2.023996 -1.441711 0.0 0.0 0.0 0.853306 0.946569 0.474715 5.723269 37.276745 19.391346 -19.159567 37.092247 99.084946 -8.993433 25.828728 0.426192 0.0 0.0 0.0 0.654663 -0.112019 -0.477511 -0.647083 1.952237 1.449769 0.730430 -1.600518 -2.724999 1.284353 1.020556 4.627903 0.0 0.0 0.0 0.404148 -0.373674 0.481859 -0.218663 0.406911 -0.215713 -0.096947 -0.309071 -0.917887 -0.060517 -0.978636 0.918330 -5.125901 2.229296 -7.063615 0.0 0.0 0.0 0.151260 0.609794 -0.380105 0.043781 0.006199 -0.480161 -0.115554 -1.538172 0.063474 -0.128266 1.046735 -1.175112 0.0 0.0 0.0 
1.008870 0.056523 -0.399446 0.006552 -0.100760 0.195835 0.417466 1.929760 -1.623579 0.0 0.0 0.0 1.362733 -0.008141 0.905495 5.691305 38.115387 19.380226 -9.329778 32.442242 99.770676 -10.106744 31.283030 -3.382908 0.0 0.0 0.0 0.654847 -0.120217 -0.476049 -0.612880 2.090090 1.322314 0.800841 -1.809982 -2.649035 1.380093 0.552875 5.023181 0.0 0.0 0.0 0.503690 -0.499865 0.420770 -0.243410 0.504805 -0.240877 -0.095951 -0.285553 -1.002925 -0.063559 -1.059941 0.892096 -4.373866 2.425577 -4.558824 0.0 0.0 0.0 0.119061 0.656220 -0.362606 0.067695 0.085911 -0.565338 -0.120594 -1.556623 0.009630 -0.188035 1.040564 -1.012555 0.0 0.0 0.0 
1.731440 -0.120813 -0.316095 0.023309 -1.534174 0.573132 1.375638 6.733964 -2.545726 0.0 0.0 0.0 1.375235 1.123237 0.801340 5.861737 35.794292 21.831646 -4.216436 29.962944 98.424355 -7.004074 20.976877 -1.311593 0.0 0.0 0.0 0.705695 -0.637895 -0.413248 -0.596555 3.791838 0.914741 0.624165 -1.294751 -2.751721 1.233253 -0.781950 4.584405 0.0 0.0 0.0 0.261796 -0.228497 0.386943 -0.182705 1.525094 -0.197745 -0.092932 -0.174198 -1.458043 -0.059595 -1.008872 0.750212 -5.852090 3.291835 -6.261284 0.0 0.0 0.0 0.365696 1.455714 -0.908513 0.113625 0.383854 -0.400282 -0.120570 -1.565014 0.019696 -0.146217 0.901541 -0.923523 0.0 0.0 0.0 
1.735090 -0.085247 -0.304699 0.025366 -1.374786 0.626922 1.268897 6.184196 -2.510001 0.0 0.0 0.0 1.528828 0.997427 0.915257 5.992345 34.625179 23.059013 1.181044 27.130709 97.194481 -8.325646 24.262400 -0.147440 0.0 0.0 0.0 0.719274 -0.320270 -0.486029 -0.549342 3.063757 0.935417 0.405981 -0.638771 -2.975486 1.655113 -2.127191 6.143431 0.0 0.0 0.0 0.347592 -0.333052 0.355936 -0.210007 1.571387 -0.224599 -0.109033 -0.246842 -1.494457 -0.070159 -1.217747 0.894417 -7.142627 4.158684 -7.578246 0.0 0.0 0.0 0.305472 1.479074 -0.852834 0.097820 0.272721 -0.475261 -0.132432 -1.630018 -0.080845 -0.187026 1.122330 -1.130351 0.0 0.0 0.0 
1.774154 -0.093308 -0.315809 0.026279 -1.215617 0.658290 1.194336 5.764786 -2.551937 0.0 0.0 0.0 1.709234 1.192710 1.014457 6.127875 33.138077 23.452967 6.328030 24.012787 94.618896 -9.109642 25.127747 2.515389 0.0 0.0 0.0 0.846730 -0.110261 -0.624490 -0.579253 2.427843 1.153728 0.236539 -0.109484 -3.229538 2.129961 -4.028563 7.760553 0.0 0.0 0.0 0.495645 -0.508805 0.327950 -0.266784 1.730977 -0.281383 -0.122696 -0.322382 -1.459198 -0.083807 -1.441621 1.367059 -7.910337 3.775548 -10.973845 0.0 0.0 0.0 0.228395 1.662722 -0.835751 0.045517 0.008865 -0.493579 -0.132957 -1.605780 -0.116795 -0.035391 0.807202 -1.075966 0.0 0.0 0.0 
1.797629 -0.119087 -0.316000 0.028478 -1.024467 0.724446 1.087292 5.165678 -2.611928 0.0 0.0 0.0 2.465141 -0.469970 1.686925 5.974649 34.685947 22.773653 11.008553 20.814472 92.354065 -8.960791 25.359421 1.198533 0.0 0.0 0.0 0.917628 0.090831 -0.718088 -0.580377 1.964804 1.258340 0.124573 0.241586 -3.381153 2.276436 -5.845792 8.199252 0.0 0.0 0.0 0.718476 -0.807693 0.117400 -0.334265 2.148925 -0.352273 -0.165692 -0.570515 -1.309152 -0.080563 -1.408532 1.154952 -6.067867 2.542217 -8.856486 0.0 0.0 0.0 0.133012 1.593062 -0.710094 0.060278 0.096586 -0.457987 -0.135388 -1.554875 -0.212829 -0.261018 0.832802 -0.529885 0.0 0.0 0.0 
1.861150 -0.166842 -0.389147 0.026542 -0.905704 0.689081 1.025294 4.999108 -2.267127 0.0 0.0 0.0 2.473650 -1.177425 1.765632 6.034060 34.269390 23.356035 16.047564 16.555784 88.605316 -3.785495 11.850454 -5.228692 0.0 0.0 0.0 1.094446 0.153434 -0.865642 -0.633826 1.889761 1.426358 0.151172 0.185216 -3.495632 2.460326 -5.642644 8.783344 0.0 0.0 0.0 0.825663 -0.958017 -0.011935 -0.339137 2.376263 -0.360348 -0.185236 -0.707187 -1.143278 -0.088545 -1.617279 1.123664 -4.699318 1.862782 -6.852463 0.0 0.0 0.0 0.197854 1.545114 -0.761954 0.027603 0.038433 -0.224105 -0.127209 -1.432760 -0.236350 -0.203904 0.604574 -0.350082 0.0 0.0 0.0 
1.879025 -0.211388 -0.446129 0.025279 -0.804367 0.666992 0.950526 4.733830 -1.970201 0.0 0.0 0.0 2.595026 -1.989902 1.930791 6.073847 34.248264 24.109020 22.361748 10.338766 84.462036 -9.776879 27.411728 1.425472 0.0 0.0 0.0 1.255221 0.210593 -0.999994 -0.670971 1.949337 1.517976 0.289425 -0.241076 -3.354523 2.235452 -5.674524 8.073997 0.0 0.0 0.0 0.922486 -1.100021 -0.155973 -0.242062 2.535889 -0.269793 -0.209554 -0.830409 -1.142621 -0.090195 -1.652245 1.159781 -5.042299 2.020806 -7.369987 0.0 0.0 0.0 0.246711 1.363873 -0.749796 0.036688 0.161255 -0.049126 -0.124590 -1.376596 -0.264863 -0.197043 0.622973 -0.394297 0.0 0.0 0.0 
1.886550 -0.194332 -0.498176 0.019628 -0.715702 0.533401 0.841123 4.373080 -1.445511 0.0 0.0 0.0 2.344400 -1.003318 1.661014 6.505869 29.710327 24.645924 27.993166 1.533758 76.877930 -3.934137 11.771696 -1.036707 0.0 0.0 0.0 1.465671 0.254580 -1.169965 -0.789467 2.050466 1.829296 0.409000 -0.581040 -3.394819 2.466273 -6.098577 8.785295 0.0 0.0 0.0 1.010097 -1.186873 -0.084000 -0.218334 2.544069 -0.247196 -0.212304 -0.860499 -1.075511 -0.091158 -1.689204 1.089472 -4.375690 2.042698 -5.544558 0.0 0.0 0.0 0.226962 1.522820 -0.784968 -0.018800 -0.055745 0.086897 -0.126251 -1.344271 -0.329996 -0.142700 0.150939 0.150583 0.0 0.0 0.0 
1.866829 -0.187579 -0.498152 0.019603 -0.624428 0.537936 0.783864 4.057978 -1.430099 0.0 0.0 0.0 2.185485 -0.300335 1.482733 6.959342 24.754965 24.890953 27.614902 0.466361 74.370201 -3.300322 10.297462 -6.497956 0.0 0.0 0.0 1.484752 0.356476 -1.204728 -0.718808 2.058493 1.628168 0.496233 -0.903904 -2.931643 1.773457 -6.054029 6.625327 0.0 0.0 0.0 1.014571 -1.190038 -0.074257 -0.148385 2.529546 -0.179993 -0.225247 -0.909133 -1.145492 -0.098254 -1.839182 1.283956 -5.365749 2.250590 -7.661029 0.0 0.0 0.0 0.246968 1.578512 -0.825815 -0.058540 -0.229021 0.146961 -0.130260 -1.346525 -0.388580 -0.225283 -0.120315 0.766638 0.0 0.0 0.0 
1.872380 -0.187650 -0.505733 0.019422 -0.588990 0.535327 0.741634 3.851845 -1.358465 0.0 0.0 0.0 1.920611 0.517768 1.222968 7.426256 21.374647 25.946037 30.906317 -7.611198 67.969559 -3.191824 9.951864 -7.040593 0.0 0.0 0.0 1.525192 0.404016 -1.245148 -0.715936 2.007639 1.631714 0.499765 -0.921987 -2.878029 1.745361 -5.931893 6.535367 0.0 0.0 0.0 0.968152 -1.128711 -0.038433 -0.034680 2.500803 -0.070667 -0.259069 -1.039868 -1.307628 -0.097701 -1.831160 1.241278 -5.913476 2.914209 -7.444459 0.0 0.0 0.0 0.341186 1.514544 -0.903251 -0.066846 -0.247454 0.200785 -0.138750 -1.442261 -0.399341 0.281410 -1.206060 1.076702 0.0 0.0 0.0 
1.873271 -0.188172 -0.527573 0.018479 -0.558446 0.512708 0.665574 3.572186 -1.007825 0.0 0.0 0.0 1.830009 0.769340 1.137326 7.840718 17.238297 26.158670 33.430138 -10.853690 67.916824 -2.653606 -6.544379 -38.089020 0.0 0.0 0.0 1.645781 0.396241 -1.336183 -0.742386 2.111806 1.682397 0.574528 -1.150976 -2.769498 1.795857 -6.172942 6.696985 0.0 0.0 0.0 0.992105 -1.147663 0.004114 0.173699 2.476671 0.129267 -0.281912 -1.078630 -1.612314 -0.097842 -1.828054 1.286446 -4.940592 2.528588 -5.791689 0.0 0.0 0.0 0.404247 1.523193 -0.973249 -0.083437 -0.268039 0.346265 -0.174958 -1.600644 -0.744593 0.365860 -1.275141 0.957356 0.0 0.0 0.0 
1.891144 -0.169402 -0.552464 0.018508 -0.516667 0.515670 0.646659 3.488535 -0.949524 0.0 0.0 0.0 1.762997 1.058411 1.063593 6.674909 20.746260 21.518135 33.897137 -20.361618 58.226009 -1.021213 -1.447584 -18.004274 0.0 0.0 0.0 1.710458 0.428251 -1.392193 -0.754169 2.020979 1.736568 0.554037 -1.090731 -2.782715 1.802518 -6.604389 6.723816 0.0 0.0 0.0 1.015378 -1.162652 0.061784 0.183924 2.331419 0.141299 -0.274870 -1.020924 -1.705970 -0.094941 -1.755535 1.266289 -4.228431 2.439094 -4.145066 0.0 0.0 0.0 0.493448 1.563437 -1.082177 -0.100982 -0.326141 0.417593 -0.178696 -1.617472 -0.778834 0.301874 -1.291746 1.154815 0.0 0.0 0.0 
1.886537 -0.136667 -0.560904 0.020273 -0.491212 0.563351 0.631643 3.370838 -1.022492 0.0 0.0 0.0 1.667143 1.225058 0.983427 5.599906 21.760241 15.588675 35.936707 -23.213852 58.563683 -3.008060 -8.783116 -40.454060 0.0 0.0 0.0 1.721850 0.509960 -1.417127 -0.703455 1.839453 1.635076 0.568297 -1.160586 -2.576385 1.606262 -6.266761 6.109921 0.0 0.0 0.0 1.007587 -1.140885 0.123160 0.382968 2.228884 0.333546 -0.292072 -1.003210 -2.129901 -0.096185 -1.748300 1.501659 -9.226261 5.695898 -9.561308 0.0 0.0 0.0 0.631261 1.595089 -1.239806 -0.103129 -0.341109 0.408275 -0.181614 -1.773241 -0.630224 1.042166 -1.804684 -0.055945 0.0 0.0 0.0 
1.877458 -0.107586 -0.581884 0.021841 -0.463151 0.606597 0.599230 3.156337 -1.090823 0.0 0.0 0.0 1.505022 1.511786 0.847661 3.914743 15.621123 8.256645 31.524364 -19.245853 55.611515 -1.654345 -4.559422 -28.782490 0.0 0.0 0.0 1.806198 0.531362 -1.486199 -0.664552 1.738667 1.547863 0.570010 -1.220287 -2.183109 1.639568 -6.269850 6.213373 0.0 0.0 0.0 1.011717 -1.112570 0.282844 0.334228 2.054914 0.289543 -0.279434 -0.896939 -2.323316 -0.095867 -1.727558 1.567326 -10.652801 6.497706 -11.938817 0.0 0.0 0.0 0.741433 1.665410 -1.381739 -0.118148 -0.436927 0.363047 -0.194103 -1.870747 -0.692608 0.796419 -1.613822 0.319052 0.0 0.0 0.0 
1.901950 -0.082797 -0.598288 0.022696 -0.476137 0.628125 0.588684 3.075957 -1.139844 0.0 0.0 0.0 1.450595 1.488591 0.814232 3.759763 13.625370 8.158386 28.573795 -21.963108 48.224102 -2.517670 -4.493639 -36.954655 0.0 0.0 0.0 1.888591 0.565338 -1.556294 -0.689795 1.702334 1.627955 0.593496 -1.286540 -2.179700 1.679213 -5.389835 6.315163 0.0 0.0 0.0 1.042121 -1.146162 0.290013 0.389633 2.040199 0.342853 -0.282452 -0.879117 -2.463535 -0.085870 -1.486479 1.410439 -9.073914 5.395093 -9.979437 0.0 0.0 0.0 0.773405 1.714764 -1.433109 -0.108347 -0.397519 0.339021 -0.195733 -1.989365 -0.575390 0.689071 -1.445455 0.349056 0.0 0.0 0.0 
1.916486 -0.064516 -0.609875 0.024878 -0.486035 0.684624 0.535883 2.714910 -1.293016 0.0 0.0 0.0 1.366526 1.496080 0.758225 3.729712 9.248341 9.058097 21.325693 -21.428482 36.041599 -1.003519 -4.438770 -22.528667 0.0 0.0 0.0 1.935984 0.616137 -1.602836 -0.718534 1.715178 1.706649 0.654944 -1.442378 -2.302879 1.857641 -4.899422 6.875864 0.0 0.0 0.0 1.053679 -1.151273 0.329619 0.401765 1.984824 0.355333 -0.280039 -0.829940 -2.629414 -0.086138 -1.498407 1.390257 -8.561986 4.948878 -9.659545 0.0 0.0 0.0 0.767561 1.665330 -1.409515 -0.074488 -0.299299 0.169937 -0.198293 -2.060940 -0.528316 0.518825 -1.416025 0.764279 0.0 0.0 0.0 
1.920256 -0.067985 -0.618172 0.026110 -0.472992 0.718319 0.434032 2.166389 -1.213371 0.0 0.0 0.0 1.347657 1.490950 0.746340 3.889208 5.885681 10.181318 15.828386 -19.112118 27.290113 -2.588198 -5.116377 -37.603001 0.0 0.0 0.0 1.944343 0.633975 -1.612810 -0.788243 2.071518 1.820939 0.980916 -2.333413 -2.529168 1.857888 -3.151852 6.856819 0.0 0.0 0.0 1.058293 -1.151732 0.353021 0.430134 1.919423 0.383526 -0.274019 -0.773379 -2.755118 -0.085938 -1.499248 1.363447 -7.978833 4.398597 -9.429270 0.0 0.0 0.0 0.737960 1.625438 -1.363983 -0.055528 -0.259095 0.042503 -0.201504 -2.097583 -0.530952 0.395299 -1.266895 0.865502 0.0 0.0 0.0 
1.932113 -0.072595 -0.644064 0.026567 -0.475088 0.730156 0.377602 1.791106 -1.373279 0.0 0.0 0.0 1.286072 1.508001 0.704164 3.971314 3.284054 10.791225 10.670122 -17.703373 17.431587 -1.464049 -4.715489 -27.117012 0.0 0.0 0.0 1.957439 0.659757 -1.628006 -0.797615 2.267033 1.801914 1.124085 -2.749829 -2.402715 1.690773 -2.268304 6.270691 0.0 0.0 0.0 1.058590 -1.154887 0.339479 0.439329 1.882013 0.392915 -0.261572 -0.710652 -2.773730 -0.089076 -1.561837 1.460773 -9.429597 5.025045 -12.264462 0.0 0.0 0.0 0.743911 1.602825 -1.362357 -0.042667 -0.207452 0.013159 -0.203311 -2.178435 -0.464033 0.545760 -0.957854 -0.013343 0.0 0.0 0.0 
2.016077 -0.068048 -0.727892 0.021727 -0.596122 0.593974 0.370059 1.885797 -0.971791 0.0 0.0 0.0 1.124259 1.468828 0.601754 4.262295 0.750921 11.918618 6.350629 -15.820094 8.756895 -1.365461 -2.514777 -23.845699 0.0 0.0 0.0 2.138693 0.630679 -1.761763 -0.945152 2.596495 2.137442 1.225258 -3.022826 -2.532474 1.775730 -1.825172 6.554024 0.0 0.0 0.0 1.078189 -1.171891 0.366350 0.456753 1.948135 0.408588 -0.249724 -0.668091 -2.712898 -0.093185 -1.637249 1.641196 -11.009757 6.622956 -12.824850 0.0 0.0 0.0 0.722820 1.653606 -1.357783 -0.030408 -0.111347 0.092861 -0.206325 -2.206103 -0.474307 0.500355 -0.968433 0.124720 0.0 0.0 0.0 
2.096134 -0.054422 -0.731850 0.023208 -0.699985 0.623906 0.414181 2.021744 -1.303629 0.0 0.0 0.0 1.178651 1.388620 0.645468 4.112624 0.375613 11.524751 4.570748 -15.196162 4.831340 -0.588641 -4.716599 -19.045986 0.0 0.0 0.0 2.109554 0.684763 -1.750093 -0.939037 2.681947 2.100278 1.321999 -3.291056 -2.589955 1.725742 -0.460062 6.343137 0.0 0.0 0.0 1.088760 -1.190726 0.334393 0.451322 2.002989 0.402535 -0.240564 -0.623285 -2.720170 -0.093048 -1.632877 1.643323 -10.869635 6.717753 -12.005153 0.0 0.0 0.0 0.717121 1.729030 -1.378230 -0.023379 -0.074863 0.095637 -0.205671 -2.221839 -0.447679 0.453566 -0.967848 0.249353 0.0 0.0 0.0 
2.156751 -0.060660 -0.752187 0.023564 -0.677459 0.634570 0.380789 1.880817 -1.163316 0.0 0.0 0.0 1.261406 1.252525 0.713455 3.862439 -0.558371 10.913709 1.380004 -14.828822 -2.853548 -1.378607 0.432716 -18.664711 0.0 0.0 0.0 2.075437 0.797399 -1.746203 -0.902994 2.360016 2.075604 1.289525 -3.192834 -2.666774 1.760574 -0.409687 6.468126 0.0 0.0 0.0 1.128220 -1.240233 0.315226 0.415920 1.968348 0.369150 -0.225290 -0.564082 -2.659825 -0.095299 -1.725153 1.495174 -10.145477 6.493201 -10.161681 0.0 0.0 0.0 0.688435 1.747802 -1.354307 -0.039201 -0.158209 0.086548 -0.199775 -2.096658 -0.507976 0.495061 -1.133174 0.391018 0.0 0.0 0.0 
2.294719 -0.084227 -0.854254 0.016077 -0.830838 0.440759 0.407220 2.199539 -0.698334 0.0 0.0 0.0 0.993204 1.282455 0.534004 3.895272 -1.010641 11.052496 -0.013975 -13.466056 -5.929983 -0.801311 0.061888 -11.049040 0.0 0.0 0.0 2.295739 0.675330 -1.891653 -1.120839 2.726202 2.594811 1.449110 -3.614173 -3.085036 1.868153 2.005938 6.824580 0.0 0.0 0.0 1.130443 -1.229419 0.379207 0.401771 2.042841 0.354441 -0.197815 -0.479540 -2.443549 -0.100030 -1.874350 1.364375 -8.225307 5.345734 -7.408400 0.0 0.0 0.0 0.646988 1.813633 -1.333325 -0.041466 -0.133421 0.169193 -0.191105 -1.987824 -0.511952 0.601615 -1.345451 0.430985 0.0 0.0 0.0 
2.400374 -0.079527 -0.904322 0.014273 -0.932976 0.394374 0.446882 2.231883 -1.234301 0.0 0.0 0.0 0.803567 1.479620 0.390057 3.755864 -1.894331 10.762723 -0.914197 -12.250581 -7.924287 -1.109289 1.131192 -12.087804 0.0 0.0 0.0 2.385480 0.583815 -1.942498 -1.190660 2.944264 2.734574 1.518770 -3.812851 -3.095687 1.821714 3.070234 6.619930 0.0 0.0 0.0 1.112616 -1.206614 0.390068 0.353494 2.010409 0.308688 -0.172574 -0.384633 -2.320274 -0.100414 -1.917381 1.117258 -7.939152 5.444979 -6.217279 0.0 0.0 0.0 0.618295 1.825901 -1.307118 -0.020690 -0.042918 0.137409 -0.197851 -2.098744 -0.478823 0.158722 -0.421287 0.208170 0.0 0.0 0.0 
2.600752 -0.092113 -1.028633 0.006892 -1.173928 0.221426 0.563525 3.023305 -0.914612 0.0 0.0 0.0 0.518133 1.530293 0.197810 3.587396 -2.140274 10.333400 -1.087001 -11.380311 -8.142408 -1.246809 1.530236 -12.979753 0.0 0.0 0.0 2.447901 0.582503 -1.990336 -1.180177 2.831333 2.733463 1.426287 -3.562518 -2.902163 1.901375 3.447922 6.937551 0.0 0.0 0.0 1.051345 -1.128743 0.425302 0.487144 2.130225 0.434881 -0.174365 -0.391240 -2.329781 -0.102311 -1.992793 0.863862 -7.144019 5.217571 -4.498459 0.0 0.0 0.0 0.748940 1.766802 -1.425347 -0.012740 0.117254 0.404723 -0.202218 -2.097324 -0.541196 -0.037884 -0.011126 0.115532 0.0 0.0 0.0 
2.892613 -0.099057 -1.264071 -0.011135 -1.464911 -0.162237 0.678874 4.140655 0.052950 0.0 0.0 0.0 -0.095422 1.525670 -0.204068 3.765559 -2.014662 10.801766 -1.620408 -10.623014 -9.391424 -1.178999 0.868718 -14.183676 0.0 0.0 0.0 2.751146 0.487927 -2.205073 -1.415387 3.077470 3.320698 1.480449 -3.701108 -3.124253 1.856760 5.162140 6.721107 0.0 0.0 0.0 0.987581 -1.037926 0.510083 0.479157 2.118179 0.427415 -0.128312 -0.229910 -2.034369 -0.104861 -2.050470 0.898356 -6.882801 5.276756 -3.552253 0.0 0.0 0.0 0.683856 1.866811 -1.391177 -0.032332 0.107618 0.602958 -0.191342 -2.039147 -0.456108 0.076553 -0.171393 0.052477 0.0 0.0 0.0 
2.936702 -0.108811 -1.300144 -0.009791 -1.383769 -0.139761 0.618023 3.633006 -0.244399 0.0 0.0 0.0 -0.091458 1.657029 -0.213715 3.500381 -2.182425 10.103294 -1.497817 -10.576399 -9.041684 -1.477666 1.926600 -15.839987 0.0 0.0 0.0 2.691467 0.509548 -2.163419 -1.346671 2.937999 3.167062 1.559034 -3.931380 -3.044847 1.851651 5.880581 6.682801 0.0 0.0 0.0 0.958767 -1.014823 0.461287 0.534088 2.019569 0.481579 -0.145575 -0.301454 -2.093922 -0.103687 -2.024038 0.880102 -6.913599 5.238252 -3.757823 0.0 0.0 0.0 0.774112 1.772100 -1.453995 -0.063310 -0.003370 0.709128 -0.186143 -1.952934 -0.482344 0.143097 -0.228043 -0.038627 0.0 0.0 0.0 
