HIERARCHY
ROOT Spine1
{
	OFFSET 0.000000 0.000000 0.000000
	CHANNELS 6 Xposition Yposition Zposition Yrotation Zrotation Xrotation
	JOINT ShoulderCenter
	{
		OFFSET -0.382985 19.694927 1.604128
		CHANNELS 3 Yrotation Zrotation Xrotation
		JOINT Head
		{
			OFFSET -0.742172 18.413002 -0.846028
			CHANNELS 3 Yrotation Zrotation Xrotation
			End Site
			{
				OFFSET 0.000000 0.000000 0.000000
			}
		}
	}
	JOINT ShoulderCenterRight
	{
		OFFSET -0.382985 19.694927 1.604128
		CHANNELS 3 Yrotation Zrotation Xrotation
		JOINT RightShoulder
		{
			OFFSET 13.663475 -13.320640 -6.723595
			CHANNELS 3 Yrotation Zrotation Xrotation
			JOINT RightElbow
			{
				OFFSET 7.798332 -26.542521 -3.816056
				CHANNELS 3 Yrotation Zrotation Xrotation
				JOINT RightWrist
				{
					OFFSET 1.630443 -24.113125 -8.361959
					CHANNELS 3 Yrotation Zrotation Xrotation
					JOINT RightHand
					{
						OFFSET -0.133938 -5.783526 -1.366234
						CHANNELS 3 Yrotation Zrotation Xrotation
						End Site
						{
							OFFSET 0.000000 0.000000 0.000000
						}
					}
				}
			}
		}
	}
	JOINT ShoulderCenterLeft
	{
		OFFSET -0.382985 19.694927 1.604128
		CHANNELS 3 Yrotation Zrotation Xrotation
		JOINT LeftShoulder
		{
			OFFSET -14.901158 -13.609931 -1.687574
			CHANNELS 3 Yrotation Zrotation Xrotation
			JOINT LeftElbow
			{
				OFFSET -4.661493 -25.417900 -0.019002
				CHANNELS 3 Yrotation Zrotation Xrotation
				JOINT LeftWrist
				{
					OFFSET -1.353632 -24.292782 -10.552073
					CHANNELS 3 Yrotation Zrotation Xrotation
					JOINT LeftHand
					{
						OFFSET -0.642659 -5.554591 -1.519442
						CHANNELS 3 Yrotation Zrotation Xrotation
						End Site
						{
							OFFSET 0.000000 0.000000 0.000000
						}
					}
				}
			}
		}
	}
	JOINT Spine
	{
		OFFSET 0.382987 -19.694927 -1.604128
		CHANNELS 3 Yrotation Zrotation Xrotation
		JOINT HipCenterRight
		{
			OFFSET -0.923887 -6.354907 -6.468034
			CHANNELS 3 Yrotation Zrotation Xrotation
			JOINT RightHip
			{
				OFFSET 6.402628 -5.941897 -2.722859
				CHANNELS 3 Yrotation Zrotation Xrotation
				JOINT RightKnee
				{
					OFFSET 0.052868 -48.048340 -0.992966
					CHANNELS 3 Yrotation Zrotation Xrotation
					JOINT RightAnkle
					{
						OFFSET -1.983744 -33.966171 -6.634712
						CHANNELS 3 Yrotation Zrotation Xrotation
						JOINT RightFoot
						{
							OFFSET 0.468995 -6.168133 -7.015777
							CHANNELS 3 Yrotation Zrotation Xrotation
							End Site
							{
								OFFSET 0.000000 0.000000 0.000000
							}
						}
					}
				}
			}
		}
		JOINT HipCenterLeft
		{
			OFFSET -0.923887 -6.354907 -6.468034
			CHANNELS 3 Yrotation Zrotation Xrotation
			JOINT LeftHip
			{
				OFFSET -6.419142 -6.705142 -0.438714
				CHANNELS 3 Yrotation Zrotation Xrotation
				JOINT LeftKnee
				{
					OFFSET 2.708771 -48.697094 -1.348639
					CHANNELS 3 Yrotation Zrotation Xrotation
					JOINT LeftAnkle
					{
						OFFSET 1.417242 -33.027573 -7.610440
						CHANNELS 3 Yrotation Zrotation Xrotation
						JOINT LeftFoot
						{
							OFFSET 0.624458 -5.989075 -7.000875
							CHANNELS 3 Yrotation Zrotation Xrotation
							End Site
							{
								OFFSET 0.000000 0.000000 0.000000
							}
						}
					}
				}
			}
		}
	}
}
MOTION
Frames: 83
Frame Time: 0.033333
0.000000 0.000000 0.000000 0.000000 0.000000 0.000000 0.000000 0.000000 0.000000 0.0 0.0 0.0 0.000000 0.000000 0.000000 0.000000 0.000000 0.000000 0.000000 0.000000 0.000000 0.000000 0.000000 0.000000 0.0 0.0 0.0 0.000000 0.000000 0.000000 0.000000 0.000000 0.000000 0.000000 0.000000 0.000000 0.000000 0.000000 0.000000 0.0 0.0 0.0 0.000000 0.000000 0.000000 0.000000 0.000000 0.000000 0.000000 0.000000 0.000000 0.000000 0.000000 0.000000 0.000000 0.000000 0.000000 0.0 0.0 0.0 0.000000 0.000000 0.000000 0.000000 0.000000 0.000000 0.000000 0.000000 0.000000 0.000000 0.000000 0.000000 0.0 0.0 0.0 
0.166507 0.009742 -0.340199 0.001007 -0.173695 -0.626858 0.095145 0.422006 2.069978 0.0 0.0 0.0 -0.643708 -0.186818 -0.721381 -0.613380 1.725010 -1.304516 -0.846013 2.947340 4.517040 1.314574 -4.578691 11.797719 0.0 0.0 0.0 0.311670 0.059248 -0.291486 -0.217385 -0.144976 1.193844 -0.050055 0.206401 -0.686055 0.432570 -3.329189 5.600665 0.0 0.0 0.0 -0.204161 0.168552 0.219640 -0.003312 -0.088262 -0.040583 0.001270 -0.030222 0.473022 -0.018926 0.123355 -0.086846 0.255873 -0.221012 0.056226 0.0 0.0 0.0 -0.201675 -0.045566 0.213757 0.018713 -0.202899 0.228152 -0.065518 0.271431 -0.073405 0.327242 -0.256316 0.252184 0.0 0.0 0.0 
0.219792 0.017729 -0.408912 0.001898 -0.214102 -0.729045 0.086100 0.395422 1.844392 0.0 0.0 0.0 -0.731285 -0.377979 -0.901271 -0.731396 2.114239 -1.542856 -1.229006 4.013851 5.760265 -2.009088 4.487956 14.221267 0.0 0.0 0.0 0.002516 0.184175 -0.023127 -0.284390 -0.381137 1.579854 0.062746 -0.005871 -1.085891 0.311111 -2.608337 4.372897 0.0 0.0 0.0 -0.380398 0.340655 0.223046 -0.026831 -0.232520 -0.123619 0.002432 -0.061441 0.709834 0.033574 -0.103318 -0.233113 -0.520663 0.485559 0.477102 0.0 0.0 0.0 -0.229585 -0.173657 0.251699 0.030850 -0.408454 0.330149 -0.132283 0.539208 -0.211050 0.585615 -0.457889 0.443092 0.0 0.0 0.0 
0.193936 0.006813 -0.410867 0.009166 -0.308682 -0.721361 0.070273 0.358755 1.447648 0.0 0.0 0.0 -1.045568 -0.257715 -1.151138 -1.157579 3.002173 -2.693419 -7.578370 16.927906 15.267566 -1.608583 3.289167 14.999971 0.0 0.0 0.0 -1.099548 0.509549 0.946587 -0.007428 -0.969176 0.046536 -0.042953 0.162896 -0.485135 0.226140 -2.033381 3.392895 0.0 0.0 0.0 -0.996006 0.932859 0.293915 0.058238 -0.795062 -0.281796 0.003391 -0.088754 0.830222 0.044686 -0.144978 -0.286776 0.205565 -0.144648 0.517532 0.0 0.0 0.0 -0.279254 -0.536989 0.328642 0.019707 -0.578341 0.060913 -0.061682 0.219708 -0.270370 0.708726 -0.522943 0.842459 0.0 0.0 0.0 
0.191951 0.010499 -0.405383 0.010562 -0.322878 -0.706550 0.066384 0.377014 1.326029 0.0 0.0 0.0 -1.053503 -0.336113 -1.197535 -1.741000 4.480170 -4.262024 -7.765139 16.398935 19.558605 -4.108879 9.673549 15.627678 0.0 0.0 0.0 -0.909054 -0.444915 0.879469 -0.136918 0.192799 0.739228 0.048468 0.047858 -1.237669 -0.360475 -0.823418 5.348638 0.0 0.0 0.0 -1.030126 0.966641 0.291749 -0.020354 -0.823124 -0.366676 -0.002772 0.132101 0.788303 0.111961 -0.653588 0.299840 0.300532 -0.297774 -0.466873 0.0 0.0 0.0 -0.323348 -0.636334 0.381589 0.011870 -0.510925 -0.037890 -0.058779 0.225211 -0.168492 0.790580 -0.573400 1.028908 0.0 0.0 0.0 
0.302002 -0.024861 -0.347066 0.019547 -0.391856 -0.540573 0.059369 0.792312 0.687674 0.0 0.0 0.0 -0.826601 -0.549360 -1.078928 -2.047826 5.646461 -4.981593 -10.355830 20.428175 21.264347 -4.522729 10.206244 17.251238 0.0 0.0 0.0 -1.425356 -0.681332 1.376068 -0.068904 0.369264 0.367965 -0.087016 0.321176 -0.891679 -0.007358 -0.592363 1.532241 0.0 0.0 0.0 -1.234947 1.171993 0.263736 -0.280834 -0.907945 -0.644905 0.003402 -0.080697 0.960859 0.089420 -0.504472 0.169807 1.626871 -1.451234 -0.211817 0.0 0.0 0.0 -0.476009 -0.832107 0.554681 -0.012699 -0.494601 -0.440457 -0.014662 0.033559 -0.162705 1.081733 -0.814098 1.069504 0.0 0.0 0.0 
0.333548 -0.001112 -0.387788 0.021406 -0.435676 -0.605169 0.074481 0.985589 0.920833 0.0 0.0 0.0 -0.804206 -1.042752 -1.297411 -2.523443 7.705406 -6.104636 -13.146956 23.120743 27.146067 -4.860196 13.253863 11.551314 0.0 0.0 0.0 -1.299917 -0.935420 1.290564 -0.145349 0.707747 0.764789 -0.092079 0.342092 -0.956716 -0.770953 -0.218829 7.174365 0.0 0.0 0.0 -1.260435 1.198720 0.253228 -0.344566 -0.915115 -0.707357 0.003120 -0.065054 1.064272 0.118822 -0.682634 0.278714 1.220064 -1.083841 -0.121255 0.0 0.0 0.0 -0.583022 -0.906983 0.671690 -0.016489 -0.392889 -0.463560 0.002500 -0.025879 -0.080267 1.635673 -1.325895 0.662476 0.0 0.0 0.0 
0.357753 -0.008783 -0.502181 0.022771 -0.544722 -0.891737 0.108011 1.258966 1.711627 0.0 0.0 0.0 -1.775511 -0.712154 -2.095629 -2.431792 8.924073 -5.124330 -15.805622 25.847675 30.415102 -5.676787 16.507538 9.833851 0.0 0.0 0.0 -1.276695 -0.830644 1.257621 -0.199294 0.326392 1.069289 -0.307566 0.837053 -0.870901 -0.550980 -0.485473 6.055099 0.0 0.0 0.0 -1.688775 1.588975 0.430054 -0.425190 -1.126293 -0.871182 0.010414 -0.259747 1.497718 0.162263 -0.777520 -0.201014 1.623009 -1.419909 0.091140 0.0 0.0 0.0 -0.461248 -1.328576 0.574048 -0.002706 -0.388643 -0.228240 -0.023942 0.062381 -0.226063 1.708281 -1.411408 0.452689 0.0 0.0 0.0 
0.331804 0.050285 -0.668883 0.015298 -0.558124 -1.239662 0.141779 1.159603 2.934593 0.0 0.0 0.0 -2.373683 -0.635228 -2.652439 -2.524710 11.071688 -4.418954 -20.215822 29.466772 36.139957 -2.594590 8.074035 6.943109 0.0 0.0 0.0 -0.866987 -0.892456 0.891759 -0.387427 0.299643 2.082387 -0.394331 1.076841 -1.099189 -1.440035 0.681375 10.005555 0.0 0.0 0.0 -1.786143 1.667058 0.530227 -0.352701 -1.245285 -0.853257 0.011639 -0.279360 1.656912 0.130405 -0.627981 -0.146038 1.644042 -1.419665 0.294629 0.0 0.0 0.0 -0.499289 -1.374795 0.617055 0.009884 -0.402812 -0.021470 -0.018546 0.024382 -0.303023 0.674448 -0.558359 0.190524 0.0 0.0 0.0 
0.289762 0.043216 -0.637436 0.013219 -0.498033 -1.148827 0.128588 0.907146 2.685609 0.0 0.0 0.0 -2.400650 -0.607916 -2.665864 -2.763616 13.252545 -4.338151 -21.379362 30.470634 37.165405 -5.164261 13.783441 12.303222 0.0 0.0 0.0 -1.012229 -1.207077 1.059691 -0.364787 0.699250 1.924230 -0.394141 1.073687 -1.081932 -1.369006 0.538441 9.861308 0.0 0.0 0.0 -1.847258 1.733584 0.491194 -0.344373 -1.395468 -0.908147 0.011201 -0.267428 1.651284 0.142546 -0.684034 -0.170154 1.548699 -1.327916 0.385325 0.0 0.0 0.0 -0.491455 -1.528550 0.619721 -0.000187 -0.437694 -0.207058 -0.043667 0.213526 0.135227 0.946998 -0.822807 -0.116436 0.0 0.0 0.0 
0.214893 0.080416 -0.656056 0.007250 -0.418916 -1.162824 0.126459 0.635672 2.800548 0.0 0.0 0.0 -3.177479 -0.180089 -3.230456 -3.229129 18.854769 -2.722781 -24.667051 31.861362 42.924129 -5.739505 19.930853 4.797219 0.0 0.0 0.0 -0.608929 -1.820385 0.763278 -0.523622 1.821117 2.627808 -0.241950 0.688786 -0.912346 -1.064976 0.491166 7.588634 0.0 0.0 0.0 -2.038681 1.889977 0.666651 -0.272460 -1.801949 -1.009777 0.008281 -0.195563 1.509657 0.106632 -0.504393 -0.150124 0.126386 -0.055151 0.818551 0.0 0.0 0.0 -0.258310 -1.471693 0.372021 0.008508 -0.662446 -0.160168 -0.014546 0.081139 0.098421 0.102463 -0.039835 0.529070 0.0 0.0 0.0 
0.106311 0.061998 -0.652242 -0.003671 -0.257874 -1.137370 0.149091 0.494656 3.515037 0.0 0.0 0.0 -3.578052 0.482281 -3.300393 -3.532632 21.385530 -2.256115 -23.146048 30.510712 42.155270 -7.175817 23.350292 6.639742 0.0 0.0 0.0 -0.495201 -2.298597 0.715463 -0.593789 2.406081 2.906850 -0.185047 0.595063 -1.190870 -1.002659 0.482151 7.114975 0.0 0.0 0.0 -2.059291 1.886093 0.802715 -0.242480 -2.053514 -1.085661 0.001947 -0.012664 1.391517 0.145716 -0.692083 -0.201018 -5.450315 4.706790 4.203753 0.0 0.0 0.0 -0.084200 -1.426576 0.186828 0.017319 -0.914977 -0.125976 -0.067814 0.326728 0.187392 0.098191 -0.069782 0.157037 0.0 0.0 0.0 
0.061944 0.106281 -0.647664 -0.002991 -0.248571 -1.075099 0.145339 0.446653 3.432007 0.0 0.0 0.0 -3.673067 0.600039 -3.336370 -3.685789 22.697025 -1.843328 -26.734623 31.910112 48.006268 -5.340972 20.767727 1.872558 0.0 0.0 0.0 -0.525677 -2.209660 0.732785 -0.595381 2.244349 2.934767 -0.227520 0.726501 -1.398029 -0.947207 0.301301 7.164558 0.0 0.0 0.0 -2.101967 1.925026 0.817544 -0.191456 -2.097607 -1.056114 0.003397 -0.065579 1.219938 0.125638 -0.621731 -0.078690 -4.154944 3.653185 3.444044 0.0 0.0 0.0 0.014491 -1.460626 0.086026 0.020136 -0.816923 -0.039524 -0.021731 0.065514 -0.156856 0.056133 -0.002088 0.512055 0.0 0.0 0.0 
-0.220498 0.115621 -0.704312 -0.049434 0.355505 -1.255432 0.162472 -0.711379 4.200478 0.0 0.0 0.0 -4.108001 1.348104 -3.392705 -3.686156 23.933773 0.441759 -27.130024 32.220448 48.208244 -10.153613 35.164513 4.643034 0.0 0.0 0.0 -0.389265 -2.075195 0.593107 -0.646543 1.700910 3.262983 -0.174540 0.602619 -1.414068 -1.050610 0.443817 7.604365 0.0 0.0 0.0 -1.920127 1.734689 0.894401 -0.101325 -2.400883 -1.096393 0.004683 -0.103737 1.265264 0.135267 -0.753660 0.232601 -2.621612 2.375886 2.897652 0.0 0.0 0.0 0.106476 -1.721718 0.008188 0.037392 -0.984293 0.158039 -0.050199 0.211952 -0.033086 0.564391 -0.481192 0.018867 0.0 0.0 0.0 
-0.297913 0.098681 -0.674701 -0.051026 0.392029 -1.194100 0.162285 0.103687 4.002626 0.0 0.0 0.0 -4.067037 1.566548 -3.239036 -3.856740 25.479895 1.955589 -31.285650 33.965622 53.369827 -6.766443 22.308067 6.258734 0.0 0.0 0.0 -0.399940 -2.267536 0.625254 -0.649186 2.026878 3.230483 -0.111121 0.465824 -1.514580 -1.141716 0.783469 7.400893 0.0 0.0 0.0 -1.920374 1.735494 0.891153 -0.019296 -2.397198 -1.018197 0.004913 -0.124242 1.073302 0.109680 -0.630801 0.257491 -2.658806 2.400695 2.647360 0.0 0.0 0.0 0.250728 -1.701056 -0.144167 0.043498 -0.889995 0.297586 -0.000262 -0.049180 -0.267536 -0.677313 0.579581 0.005827 0.0 0.0 0.0 
-0.353865 0.070247 -0.576377 -0.055636 0.502916 -0.976742 0.122679 0.061080 3.016813 0.0 0.0 0.0 -3.454511 1.350035 -2.735278 -4.288332 27.826077 2.531026 -34.701340 33.952511 60.088020 -5.616950 23.197144 0.384362 0.0 0.0 0.0 -0.483602 -2.394004 0.716072 -0.610362 2.159654 3.019687 -0.067709 0.371828 -1.583590 -1.123616 0.664197 7.580602 0.0 0.0 0.0 -1.714958 1.556161 0.772183 0.248835 -2.435499 -0.783495 0.000529 0.008995 0.699695 0.066857 -0.434733 0.331691 -3.496094 3.102216 2.766629 0.0 0.0 0.0 0.590431 -1.546497 -0.510446 0.062765 -0.729629 0.686678 0.056552 -0.368898 -0.615109 -2.028310 1.784710 0.899477 0.0 0.0 0.0 
-0.569421 0.211802 -0.363040 -0.073558 0.815953 -0.577548 0.055421 -0.353105 1.652154 0.0 0.0 0.0 -3.013824 1.115048 -2.414646 -4.759723 30.239292 3.793700 -34.511784 33.179737 61.487293 -9.508070 25.719742 12.493608 0.0 0.0 0.0 -0.971836 -1.674746 1.076426 -0.441207 1.377002 2.257230 0.061711 0.056527 -1.540898 -1.119061 0.525120 7.925707 0.0 0.0 0.0 -1.634713 1.526100 0.488567 0.345427 -2.551739 -0.740828 0.003721 -0.118375 0.597203 0.074794 -0.419343 0.130620 -2.164829 1.997035 2.949199 0.0 0.0 0.0 0.706210 -1.671247 -0.622901 0.072200 -0.812405 0.792723 0.003960 -0.140784 -0.645116 -0.847636 0.682033 -0.556048 0.0 0.0 0.0 
-0.641523 0.196394 -0.250125 -0.085645 1.011395 -0.307903 0.123802 1.048347 2.429425 0.0 0.0 0.0 -2.530571 1.123653 -1.928932 -5.566816 33.537479 7.824849 -35.849518 30.030529 71.356514 -8.096155 28.046293 4.815955 0.0 0.0 0.0 -1.134252 -1.686903 1.225415 -0.297776 1.495540 1.513651 0.113184 -0.129132 -1.053870 -1.085326 1.526160 5.083936 0.0 0.0 0.0 -1.449193 1.368756 0.344290 0.391006 -2.492029 -0.673990 0.006458 -0.253687 0.366678 0.091207 -0.499214 0.117450 -1.839258 1.756312 3.780845 0.0 0.0 0.0 0.794845 -1.587055 -0.721561 0.078428 -0.904359 0.840708 -0.014595 -0.102760 -0.874265 -0.687119 0.565133 -0.283374 0.0 0.0 0.0 
-0.676495 0.189859 -0.218487 -0.092571 1.102352 -0.283380 0.134897 1.446819 2.473613 0.0 0.0 0.0 -2.157923 1.132052 -1.554913 -6.042355 35.066628 9.449442 -34.493137 28.755711 72.210068 -6.865564 22.899847 5.928122 0.0 0.0 0.0 -1.206998 -1.295025 1.246811 -0.169638 1.055380 0.878126 0.066028 -0.090813 -0.486089 -0.930696 0.337732 6.930092 0.0 0.0 0.0 -1.293157 1.219441 0.322465 0.374862 -2.321727 -0.619498 0.005536 -0.235744 0.210294 0.118356 -0.715461 0.412672 -2.473692 2.270367 3.547472 0.0 0.0 0.0 0.784983 -1.382744 -0.725464 0.080778 -1.083683 0.780412 -0.051250 0.119952 -0.565283 -0.778901 0.630566 -0.455453 0.0 0.0 0.0 
-0.738108 0.208265 -0.068164 -0.103283 1.269105 0.013381 0.104390 1.954707 0.624689 0.0 0.0 0.0 -1.446173 0.829128 -1.004791 -7.057194 37.866859 12.050496 -32.827274 25.603306 77.809830 -9.106675 26.434227 10.152147 0.0 0.0 0.0 -1.028383 -1.373935 1.093403 -0.219229 1.399294 1.117894 0.235459 -0.402561 -1.179926 -1.151902 0.315251 8.778781 0.0 0.0 0.0 -0.941397 0.903583 0.141128 0.262880 -2.062493 -0.617593 0.004938 -0.215941 0.159308 0.139160 -0.776896 0.246176 -1.728662 1.598055 2.021290 0.0 0.0 0.0 0.704549 -1.092346 -0.661431 0.070831 -1.227869 0.555563 -0.086369 0.317581 -0.329769 0.386946 -0.350228 -0.200662 0.0 0.0 0.0 
-0.761697 0.210014 -0.025439 -0.115097 1.418830 0.071379 0.107631 2.083231 0.535418 0.0 0.0 0.0 -1.223338 0.831807 -0.784138 -7.612075 38.789192 15.170860 -30.194479 23.832636 78.247276 -15.589861 29.325413 26.922518 0.0 0.0 0.0 -0.508343 -2.064553 0.700138 -0.350539 2.545382 1.702419 0.532685 -1.072385 -1.501485 -2.040451 2.337849 9.947547 0.0 0.0 0.0 -0.679769 0.645046 0.151527 0.236753 -1.836867 -0.549067 0.006873 -0.330847 0.008945 0.123875 -0.700483 0.249587 -5.278008 4.595725 2.151421 0.0 0.0 0.0 0.632047 -0.759329 -0.608565 0.070472 -1.450359 0.444407 -0.123331 0.502510 -0.196342 -0.717421 0.602201 -0.142794 0.0 0.0 0.0 
-0.774652 0.191444 0.006604 -0.138196 1.704899 0.160369 0.131601 2.624841 0.625775 0.0 0.0 0.0 -0.652242 0.449448 -0.414904 -7.739287 39.013023 15.694254 -29.327335 21.895424 82.872734 -10.385149 20.040245 25.219479 0.0 0.0 0.0 0.706756 -2.929718 -0.302866 -0.804172 3.846539 3.714539 0.681351 -1.358770 -2.196178 -1.800393 1.981074 9.174043 0.0 0.0 0.0 -0.002839 -0.004325 0.049811 -0.012063 -1.285502 -0.552311 0.010174 -0.495494 -0.012144 0.097146 -0.585769 0.325718 -4.454285 3.902589 1.926475 0.0 0.0 0.0 0.413646 -0.270141 -0.413759 0.062891 -1.601486 0.266961 -0.162918 0.682846 -0.150954 0.031677 -0.093400 -0.735243 0.0 0.0 0.0 
-0.850955 0.159737 0.064659 -0.147999 1.826864 0.251825 0.129422 2.581623 0.601848 0.0 0.0 0.0 -0.342277 0.698231 0.012079 -7.531267 38.505100 15.523417 -30.581245 20.162056 90.963860 -4.552127 17.700306 1.891192 0.0 0.0 0.0 0.362915 -2.693173 -0.018275 -0.595069 3.504800 2.783623 0.725402 -1.479678 -2.049933 -1.003139 0.154370 8.033442 0.0 0.0 0.0 0.033124 -0.040601 0.056661 -0.008037 -1.305495 -0.556889 0.011094 -0.556628 -0.068609 0.093071 -0.542155 0.240237 -2.440826 2.177420 1.197450 0.0 0.0 0.0 0.417542 -0.252601 -0.419030 0.053005 -1.517423 0.159959 0.020036 -0.184919 -0.506517 -1.386041 1.197078 0.185308 0.0 0.0 0.0 
-0.906020 0.170460 0.076032 -0.156871 1.932211 0.231156 0.181046 3.999477 -0.573307 0.0 0.0 0.0 -0.188729 0.952617 0.288931 -7.629480 38.377087 17.513182 -28.537062 19.505857 89.788902 -4.162337 7.933198 22.402306 0.0 0.0 0.0 0.673311 -2.528306 -0.320405 -0.615127 3.453581 2.883795 0.713243 -1.540954 -1.095054 -0.943177 0.051344 7.835859 0.0 0.0 0.0 0.275166 -0.278349 0.058613 -0.126147 -1.061127 -0.564923 0.012783 -0.625435 -0.021733 0.093391 -0.562415 0.309248 -2.441447 2.182125 1.343919 0.0 0.0 0.0 0.271916 0.069163 -0.288787 0.050234 -1.654248 0.063610 0.028308 -0.247866 -0.638253 0.435535 -0.410403 -0.392192 0.0 0.0 0.0 
-1.040950 0.218767 0.142074 -0.184134 2.258056 0.314807 0.168169 3.539961 0.562838 0.0 0.0 0.0 0.235094 0.935383 0.692377 -7.554258 38.292130 16.954187 -23.747458 16.697741 91.935394 -8.985868 20.850548 17.851168 0.0 0.0 0.0 1.159203 -2.397264 -0.778766 -0.813195 3.406421 3.822905 0.853367 -1.813221 -1.771532 -1.038202 0.814849 6.507432 0.0 0.0 0.0 0.715908 -0.698987 -0.028919 -0.129684 -0.781377 -0.450900 0.013705 -0.713582 -0.142159 0.084508 -0.572510 0.513434 -2.259289 2.012900 0.920943 0.0 0.0 0.0 0.177839 0.483365 -0.218608 0.057604 -1.751921 0.128730 0.092706 -0.593022 -0.909887 0.379171 -0.362157 -0.395744 0.0 0.0 0.0 
-1.196578 0.278488 0.292373 -0.217582 2.649187 0.436617 0.121732 2.614295 0.084848 0.0 0.0 0.0 0.207361 1.643452 1.021303 -7.013887 36.850174 17.450880 -19.904465 14.575002 93.878937 -4.155560 8.130357 21.536549 0.0 0.0 0.0 3.817177 -4.984561 -2.881470 -2.247605 7.807110 9.002811 1.871956 -4.157042 -5.011888 -2.982962 4.893793 9.994843 0.0 0.0 0.0 1.698250 -1.657743 -0.064149 -0.584318 -0.087957 -0.580970 0.016452 -0.810428 -0.036295 0.069699 -0.508920 0.552109 -2.129575 1.882619 0.373526 0.0 0.0 0.0 -0.349677 1.533694 0.261402 0.026231 -2.129562 -0.440942 0.071592 -0.393323 -0.409373 0.126482 -0.154303 -0.503936 0.0 0.0 0.0 
-1.386073 0.293431 0.385642 -0.236629 2.865357 0.538348 0.074657 1.772074 -0.274774 0.0 0.0 0.0 0.258962 1.960372 1.231930 -6.927534 36.602737 17.670454 -15.343391 12.641287 93.354050 -8.491785 18.089924 20.924017 0.0 0.0 0.0 3.469177 -4.502167 -2.625820 -2.022235 7.256980 8.252956 1.744851 -3.841119 -4.660958 -2.367059 3.264451 9.865600 0.0 0.0 0.0 1.682073 -1.644210 -0.043845 -0.549369 -0.133326 -0.567719 0.018677 -0.975590 -0.154392 0.069420 -0.507809 0.553165 -0.817472 0.719558 0.022029 0.0 0.0 0.0 -0.324103 1.602227 0.230159 0.017763 -2.275525 -0.599349 0.143652 -0.642282 -0.088401 -0.218212 0.149466 -0.431478 0.0 0.0 0.0 
-1.443523 0.368688 0.449443 -0.229573 2.785622 0.503675 0.133303 2.725000 0.482448 0.0 0.0 0.0 0.273710 2.399896 1.470457 -6.538239 35.555836 18.281483 -8.317144 9.618753 91.867699 -8.288760 15.816695 25.093639 0.0 0.0 0.0 3.315092 -4.137803 -2.531494 -1.819826 7.171712 7.448775 1.874061 -4.216893 -3.207461 -2.175707 3.542197 7.986856 0.0 0.0 0.0 1.700555 -1.667904 0.005479 -0.527689 -0.030045 -0.503496 0.017967 -0.948421 -0.174069 0.072204 -0.511013 0.513424 -0.703468 0.700340 1.484535 0.0 0.0 0.0 -0.328533 1.765734 0.223899 0.010872 -1.804685 -0.547823 0.351213 -1.614157 -0.356015 -0.397895 0.334946 -0.064160 0.0 0.0 0.0 
-1.576316 0.382212 0.487113 -0.247972 3.000089 0.496737 0.137772 2.879096 0.351704 0.0 0.0 0.0 0.061652 2.896412 1.521133 -6.051465 34.294468 18.844814 -4.982409 8.135496 90.155411 -5.390752 10.426431 23.076063 0.0 0.0 0.0 3.287010 -3.985962 -2.525058 -1.618711 7.003769 6.663541 1.930878 -4.387695 -1.993362 -2.359487 3.558944 9.130595 0.0 0.0 0.0 1.736055 -1.714145 0.107632 -0.382911 -0.128094 -0.410417 0.018155 -1.076047 -0.389028 0.038754 -0.366041 0.593958 -0.714251 0.707113 1.439557 0.0 0.0 0.0 -0.047055 1.781500 -0.070732 0.033860 -2.135913 -0.340150 0.235675 -1.036599 -0.059120 -0.216787 0.158759 -0.309686 0.0 0.0 0.0 
-1.649871 0.427839 0.556326 -0.243120 2.950333 0.408073 0.145052 3.064282 0.301205 0.0 0.0 0.0 0.005424 3.154821 1.600810 -5.834662 33.708969 19.752289 -5.103090 8.210597 89.546928 -5.033550 9.794475 22.579538 0.0 0.0 0.0 3.369630 -3.950049 -2.605066 -1.677332 7.087352 6.885180 1.910552 -4.339597 -1.963841 -2.061402 3.021031 8.429764 0.0 0.0 0.0 1.758061 -1.745758 0.197927 -0.106087 -0.050605 -0.120019 0.012397 -0.939096 -0.753936 -0.193894 0.565002 1.312859 3.398256 -3.098513 -0.869268 0.0 0.0 0.0 0.352119 2.000872 -0.501672 0.082929 -2.102822 0.334743 0.217857 -1.059972 -0.500162 -0.280499 0.236651 -0.038332 0.0 0.0 0.0 
-1.746400 0.437051 0.591922 -0.249960 3.028258 0.436335 0.131736 2.932859 -0.217447 0.0 0.0 0.0 0.065482 3.199600 1.682106 -5.814849 33.675262 19.429987 -5.335453 8.312348 89.886604 -5.418159 10.383219 23.423519 0.0 0.0 0.0 3.319486 -3.714792 -2.588913 -1.567382 6.727044 6.514422 1.881287 -4.283024 -1.451311 -2.013762 2.924659 8.337483 0.0 0.0 0.0 1.774333 -1.760749 0.190138 -0.113102 -0.054177 -0.128055 0.013663 -1.027962 -0.752572 -0.206688 0.604119 1.385993 2.677454 -2.395058 -0.343207 0.0 0.0 0.0 0.311330 2.053684 -0.462578 0.078832 -2.055390 0.298735 0.264492 -1.270512 -0.516288 -0.095998 0.072436 -0.110255 0.0 0.0 0.0 
-1.776251 0.437263 0.617385 -0.250987 3.035294 0.495229 0.128905 2.956044 -0.489981 0.0 0.0 0.0 0.203005 3.145762 1.786845 -5.873383 33.822468 19.373035 -6.004641 8.653597 89.363075 -6.183837 12.141344 23.062784 0.0 0.0 0.0 2.630583 -2.815770 -2.071097 -1.132337 5.690639 4.880899 2.001487 -4.589762 -0.309653 -1.493882 3.286739 4.050901 0.0 0.0 0.0 1.641591 -1.627932 0.160479 -0.030913 -0.141865 -0.088966 0.015774 -1.183607 -0.759879 -0.177067 0.568227 1.038605 3.138874 -2.759487 0.046455 0.0 0.0 0.0 0.370754 1.963210 -0.518643 0.079440 -2.113614 0.283156 0.235509 -1.105736 -0.361885 0.390234 -0.333936 0.000011 0.0 0.0 0.0 
-1.774110 0.442833 0.616813 -0.259982 3.139442 0.500595 0.113251 2.429103 0.080086 0.0 0.0 0.0 0.451446 2.866614 1.881827 -6.068798 34.320187 19.112789 -17.610250 14.414115 88.540642 -11.456952 24.480650 21.284725 0.0 0.0 0.0 4.665125 -4.837256 -3.675471 -2.244538 8.699436 8.730162 2.367968 -5.440217 -3.669070 -2.528699 4.573546 7.960557 0.0 0.0 0.0 2.377882 -2.333235 0.037686 -0.451666 0.462204 -0.221984 0.017922 -1.067499 -0.397306 -0.270824 1.120355 0.759430 4.854793 -4.284373 -0.024128 0.0 0.0 0.0 -0.076920 2.664207 -0.097606 0.059956 -2.090390 0.028671 0.242784 -1.141911 -0.379414 0.111857 -0.057179 0.425133 0.0 0.0 0.0 
-1.824084 0.390473 0.629687 -0.252441 3.055740 0.454340 0.109951 2.193899 0.428594 0.0 0.0 0.0 0.437118 3.027794 1.951309 -6.023588 34.194988 19.330509 -23.291080 17.411472 87.724442 -6.997952 15.039031 20.160055 0.0 0.0 0.0 3.376018 -3.165750 -2.709369 -1.492196 6.023722 6.358087 2.205230 -5.037746 -3.095480 -3.471884 5.950216 10.567168 0.0 0.0 0.0 2.004880 -1.972696 0.071998 -0.266989 0.322271 -0.110371 0.018598 -1.150776 -0.465094 -0.213484 0.886286 0.608350 4.645553 -4.184203 -0.632084 0.0 0.0 0.0 0.039370 2.313717 -0.195942 0.066081 -2.015466 0.140955 0.241151 -1.125837 -0.341566 0.449815 -0.359603 0.264376 0.0 0.0 0.0 
-1.829359 0.338939 0.615811 -0.251057 3.037232 0.481939 0.097920 1.807441 0.604355 0.0 0.0 0.0 0.812580 2.431089 2.005736 -6.463347 35.459217 17.360828 -29.527975 21.059814 86.076904 -6.817641 18.330374 12.458696 0.0 0.0 0.0 3.404751 -2.871241 -2.772304 -1.479441 5.445345 6.437445 2.093617 -4.760505 -3.213778 -2.765942 4.534363 9.479287 0.0 0.0 0.0 2.145893 -2.092218 -0.099456 -0.065146 0.575602 0.185569 0.013494 -1.025977 -0.766608 -0.198743 0.615977 1.224010 5.242233 -4.857075 -1.554291 0.0 0.0 0.0 0.090600 2.362266 -0.252550 0.087467 -2.215288 0.349458 0.088763 -0.383481 0.008855 0.169607 -0.117430 0.302327 0.0 0.0 0.0 
-1.797655 0.288230 0.587010 -0.239062 2.898031 0.474018 0.095744 1.794306 0.537766 0.0 0.0 0.0 1.087526 1.905135 2.002671 -6.744179 36.248192 16.793856 -32.662354 24.003576 82.191872 -8.748009 23.367868 12.883838 0.0 0.0 0.0 2.574907 -2.086082 -2.109223 -1.049668 3.876380 4.845686 2.114428 -4.828232 -2.021850 -3.241082 6.869457 7.528175 0.0 0.0 0.0 1.912405 -1.850417 -0.218906 -0.007950 0.601570 0.249721 0.017711 -1.290578 -0.724564 -0.252906 0.911086 1.123782 5.176997 -4.753040 -1.257360 0.0 0.0 0.0 0.163750 1.861287 -0.295933 0.085796 -1.856314 0.479620 0.088233 -0.397253 -0.070705 1.789516 -1.744379 -1.791071 0.0 0.0 0.0 
-1.805529 0.238007 0.566554 -0.230873 2.802011 0.482548 0.063599 1.348284 0.056682 0.0 0.0 0.0 1.154960 1.741414 1.984822 -6.798658 36.465878 16.212132 -34.070152 27.417755 74.981117 -12.033957 33.438671 11.530004 0.0 0.0 0.0 1.898434 -1.390523 -1.573862 -0.728264 2.564153 3.543187 1.868810 -4.262702 -1.107842 -2.911592 6.076595 7.196569 0.0 0.0 0.0 1.715131 -1.658830 -0.200318 0.584355 0.387975 0.706005 0.008458 -1.093989 -1.328761 -0.171271 0.449128 1.334780 2.892452 -2.631680 -0.749602 0.0 0.0 0.0 0.540363 1.852254 -0.688370 0.121122 -2.095900 0.854582 0.004812 -0.017218 0.019610 1.968840 -1.914677 -1.884729 0.0 0.0 0.0 
-1.700935 0.210929 0.537610 -0.202910 2.476692 0.461988 0.088157 1.946065 -0.057030 0.0 0.0 0.0 1.145666 1.736351 1.973346 -6.416941 35.876537 12.566812 -38.535671 33.624989 67.484192 -9.038149 29.008720 7.006490 0.0 0.0 0.0 1.319167 -1.372874 -1.046404 -0.533772 2.355822 2.617854 1.686821 -3.836757 -1.048264 -3.264723 5.084657 11.224406 0.0 0.0 0.0 1.360583 -1.317902 -0.139174 0.634789 0.297904 0.714188 0.007222 -1.040551 -1.402702 -0.129183 0.252454 1.313290 2.411215 -2.154815 -0.304822 0.0 0.0 0.0 0.491237 1.766637 -0.631460 0.108362 -2.161412 0.652339 -0.012160 0.083845 0.169863 2.476651 -2.425485 -2.343128 0.0 0.0 0.0 
-1.503165 0.204110 0.466895 -0.162715 2.005881 0.402038 0.123345 2.533980 0.374131 0.0 0.0 0.0 1.213631 1.409177 1.874304 -6.049151 35.013268 10.139140 -40.834198 34.883507 68.417870 -5.741510 21.487684 2.825792 0.0 0.0 0.0 1.104307 -1.545194 -0.829861 -0.504500 2.584443 2.449963 1.445786 -3.261440 -1.217698 -2.784920 3.195362 12.727935 0.0 0.0 0.0 1.074463 -1.042093 -0.097842 0.632319 0.396524 0.753909 0.005668 -0.928607 -1.468960 -0.044520 -0.141241 1.259513 1.554599 -1.380356 -0.135306 0.0 0.0 0.0 0.524232 1.927816 -0.676495 0.113278 -2.143510 0.726533 0.000382 -0.036405 -0.185222 2.109823 -2.008503 -1.633601 0.0 0.0 0.0 
-1.513451 0.189593 0.434041 -0.156179 1.928283 0.376423 0.106973 1.937459 0.765158 0.0 0.0 0.0 1.028255 1.437341 1.710150 -5.542052 33.462906 7.537838 -42.482021 38.208324 64.214066 -3.738642 22.900282 -7.381657 0.0 0.0 0.0 0.648401 -1.301107 -0.442370 -0.350871 2.036104 1.742172 1.271750 -2.871916 -0.862782 -2.126094 1.357536 13.196218 0.0 0.0 0.0 0.826183 -0.802337 -0.066568 0.668041 0.252858 0.725713 0.006161 -0.947336 -1.431967 -0.029663 -0.200228 1.212710 1.542654 -1.383450 -0.285055 0.0 0.0 0.0 0.523958 1.728470 -0.663103 0.114758 -2.123159 0.755830 0.008806 -0.131344 -0.486877 1.963155 -1.863560 -1.507520 0.0 0.0 0.0 
-1.494817 0.166336 0.430894 -0.157683 1.946988 0.411665 0.045967 0.546562 0.586837 0.0 0.0 0.0 0.968062 1.244742 1.555734 -5.127060 31.898621 5.477065 -40.667740 37.936966 61.930389 -7.314765 24.567484 5.727836 0.0 0.0 0.0 0.641302 -1.394805 -0.424952 -0.383910 1.979132 1.911663 1.100761 -2.488600 -0.614118 -1.352607 -0.654187 13.457871 0.0 0.0 0.0 0.750603 -0.725302 -0.088377 0.573839 0.145390 0.593084 0.007530 -0.964946 -1.303271 -0.028017 -0.200678 1.185385 1.667592 -1.484578 -0.183191 0.0 0.0 0.0 0.324359 1.586087 -0.445354 0.090924 -2.167034 0.415745 0.014211 -0.127711 -0.345393 0.304542 -0.352470 -0.972180 0.0 0.0 0.0 
-1.497647 0.166383 0.416684 -0.148741 1.843084 0.440909 0.028420 -0.183038 0.879173 0.0 0.0 0.0 0.199780 1.412893 0.897605 -4.780292 30.471441 5.621678 -42.222939 37.631496 64.949699 -5.738426 23.540751 0.535696 0.0 0.0 0.0 0.382344 -1.131974 -0.219296 -0.296976 1.515905 1.508176 1.172984 -2.699223 0.043147 -0.902023 -1.710182 13.235080 0.0 0.0 0.0 0.313774 -0.301483 -0.048614 0.649307 -0.285016 0.480725 0.007339 -0.890526 -1.246916 -0.007716 -0.254801 1.022975 1.602773 -1.351815 0.642532 0.0 0.0 0.0 0.216799 1.168522 -0.305321 0.063409 -2.172603 0.044224 0.079784 -0.387925 -0.206496 -0.349916 0.065620 -2.728010 0.0 0.0 0.0 
-1.483296 0.173160 0.426674 -0.143384 1.781156 0.458898 -0.001819 -0.662606 0.621057 0.0 0.0 0.0 -0.197220 1.312793 0.461566 -4.593745 29.705275 5.729060 -42.568954 37.678158 65.381340 -4.732218 23.241945 -3.392113 0.0 0.0 0.0 0.309514 -1.094357 -0.157216 -0.325694 1.441877 1.660102 1.174630 -2.659871 -0.626434 -0.988447 -1.662418 13.853816 0.0 0.0 0.0 0.095150 -0.091023 -0.017366 0.553444 -0.423012 0.333939 0.009007 -0.921508 -1.097698 0.054909 -0.494511 0.772285 -1.610510 1.507835 2.263331 0.0 0.0 0.0 0.207001 0.947106 -0.280280 0.058571 -2.131878 -0.005601 0.071968 -0.377236 -0.322513 -0.506957 0.240438 -2.327505 0.0 0.0 0.0 
-1.481861 0.148115 0.412846 -0.141619 1.761970 0.490122 -0.039990 -1.296488 0.378866 0.0 0.0 0.0 -0.217746 1.029024 0.298950 -4.207799 27.700958 3.746936 -45.383480 37.900455 69.035957 -3.925927 24.927973 -8.056033 0.0 0.0 0.0 0.036110 -0.909444 0.070820 -0.226453 0.999288 1.176689 1.337379 -3.077193 0.064133 -1.621823 0.496817 11.956171 0.0 0.0 0.0 -0.028371 0.031668 -0.026453 0.551485 -0.505486 0.297440 0.009579 -0.964720 -1.088026 0.042550 -0.375801 0.560646 -0.869526 0.900607 2.608850 0.0 0.0 0.0 0.281077 0.711623 -0.341822 0.051711 -1.943135 -0.028369 0.151134 -0.605632 0.239457 -0.501310 0.164155 -3.164876 0.0 0.0 0.0 
-1.361233 0.130868 0.505924 -0.117517 1.498407 0.725998 -0.054789 -0.790286 -0.391553 0.0 0.0 0.0 0.112992 0.643143 0.428141 -4.185896 27.408531 2.901998 -46.788063 38.507763 69.820267 -4.245713 24.269228 -6.277163 0.0 0.0 0.0 -0.484636 -0.911273 0.545693 -0.033385 1.050346 0.169588 1.312582 -3.036795 0.359095 -1.647691 0.051722 13.541643 0.0 0.0 0.0 -0.213276 0.226986 -0.118521 0.453929 -0.554629 0.186441 0.009010 -0.905335 -1.077432 0.067323 -0.411217 0.237949 -0.235860 0.370556 2.634753 0.0 0.0 0.0 0.197397 0.701042 -0.253721 0.028414 -1.991354 -0.365882 0.108705 -0.416237 0.273924 -0.205145 -0.074252 -2.838852 0.0 0.0 0.0 
-1.306194 0.101590 0.516820 -0.106950 1.381167 0.762004 -0.063459 -0.867886 -0.492640 0.0 0.0 0.0 0.244588 0.254033 0.363318 -4.319673 28.071453 2.976305 -46.382839 38.498779 69.283989 -4.547449 24.863295 -5.507198 0.0 0.0 0.0 -1.238886 -0.678717 1.206108 0.203474 0.448395 -1.088853 1.360720 -3.167580 0.766645 -1.864269 -0.264802 16.321140 0.0 0.0 0.0 -0.501141 0.507638 -0.098600 0.523464 -0.788249 0.152901 0.007127 -0.669034 -0.965232 0.189452 -1.058115 0.354985 -0.544545 0.605299 2.205744 0.0 0.0 0.0 0.272204 0.291024 -0.304155 0.020743 -1.950946 -0.457943 0.044205 -0.083994 0.568259 -0.013872 -0.256235 -2.945920 0.0 0.0 0.0 
-1.244482 0.090843 0.561976 -0.098466 1.295658 0.878668 -0.058015 -0.521411 -0.759070 0.0 0.0 0.0 0.358758 -0.009890 0.344361 -4.492606 29.062101 4.059140 -45.838570 38.814392 67.936737 -4.764771 23.983562 -3.905822 0.0 0.0 0.0 -1.471638 -0.679672 1.417983 0.287222 0.359878 -1.542034 1.259168 -2.943253 0.844393 -1.662183 -0.646429 16.014496 0.0 0.0 0.0 -0.599266 0.609999 -0.135416 0.302302 -0.838950 -0.073445 0.009331 -0.730637 -0.771410 0.171770 -0.956046 0.302712 -0.288828 0.352348 1.597896 0.0 0.0 0.0 0.012305 0.191755 -0.025934 -0.010412 -1.851207 -0.859491 0.087423 -0.304024 0.379915 0.173542 -0.407649 -2.763418 0.0 0.0 0.0 
-1.255453 0.087622 0.564837 -0.096148 1.269315 0.874667 -0.059677 -0.676159 -0.619111 0.0 0.0 0.0 0.164717 0.056391 0.188209 -4.550434 29.416832 4.804656 -44.969131 37.774445 68.695473 -5.879980 23.379587 1.290181 0.0 0.0 0.0 -1.593058 -0.623260 1.522105 0.295880 0.128509 -1.604314 1.182405 -2.757226 0.626603 -1.707645 -0.491294 15.842084 0.0 0.0 0.0 -0.724794 0.730014 -0.110904 0.211613 -0.970333 -0.212650 0.009936 -0.720450 -0.670285 0.171141 -0.953957 0.307022 -0.369921 0.443363 1.963185 0.0 0.0 0.0 0.000021 0.037307 -0.002571 -0.017090 -1.932455 -0.974362 0.040389 -0.052295 0.652248 1.397807 -1.695509 -4.363688 0.0 0.0 0.0 
-1.268435 0.102833 0.596404 -0.098968 1.306221 0.933804 -0.051613 -1.408955 0.248986 0.0 0.0 0.0 0.029729 0.135989 0.095966 -4.682498 30.174232 6.929374 -43.229687 33.427307 75.018600 -7.262076 25.265436 4.734728 0.0 0.0 0.0 -1.657900 -0.529867 1.570647 0.329439 -0.050910 -1.800231 1.099912 -2.593705 0.977497 -1.380538 -0.963215 14.772250 0.0 0.0 0.0 -0.770470 0.778744 -0.134424 0.156334 -1.041049 -0.293590 0.011190 -0.769795 -0.603268 0.172785 -0.943842 0.233915 -0.805315 0.840561 2.490467 0.0 0.0 0.0 0.009688 -0.085993 -0.004238 -0.016331 -1.884266 -0.950984 0.056468 -0.184883 0.310707 0.987588 -1.206995 -3.380512 0.0 0.0 0.0 
-1.268274 0.142416 0.652361 -0.103098 1.360985 1.038269 -0.084228 -1.684116 -0.125225 0.0 0.0 0.0 0.138169 -0.050768 0.109670 -5.533295 33.201717 12.448725 -41.109570 33.737003 71.275040 -7.436897 26.069281 4.517714 0.0 0.0 0.0 -1.771147 -0.278314 1.645675 0.371733 -0.445626 -2.067354 1.080458 -2.603578 1.798748 -1.027925 -1.229166 12.635679 0.0 0.0 0.0 -0.732584 0.753283 -0.210832 -0.052532 -1.023602 -0.480648 0.014804 -0.883718 -0.392352 0.177100 -0.947463 0.161746 -0.722183 0.770577 2.488451 0.0 0.0 0.0 -0.088059 -0.153668 0.102505 -0.023648 -1.761200 -1.020498 0.108127 -0.463030 0.030759 0.679111 -0.867516 -2.815422 0.0 0.0 0.0 
-1.256740 0.129318 0.660801 -0.103555 1.364993 1.025694 -0.080864 -1.722016 -0.032237 0.0 0.0 0.0 0.044399 -0.038135 0.024522 -5.662487 33.532291 13.789361 -39.153351 30.274426 76.094872 -7.328206 34.917896 -3.179744 0.0 0.0 0.0 -2.011365 0.202091 1.811254 0.443894 -1.344815 -2.574130 0.910517 -2.288186 2.616614 -0.837398 -1.418536 11.584869 0.0 0.0 0.0 -0.826395 0.852616 -0.252913 0.099777 -1.085414 -0.364727 0.015155 -0.917721 -0.418229 0.185005 -0.970021 0.092055 -0.599349 0.639146 1.982278 0.0 0.0 0.0 -0.035584 -0.334281 0.060093 -0.016275 -1.706930 -0.901371 0.138060 -0.606616 -0.034861 0.238050 -0.470570 -2.814557 0.0 0.0 0.0 
-1.275490 0.128227 0.795317 -0.109717 1.455839 1.334712 -0.155919 -1.938880 -1.168199 0.0 0.0 0.0 0.149899 0.116594 0.203430 -5.654101 33.457378 14.876092 -36.494038 28.179516 77.059196 -12.533366 27.216820 20.723907 0.0 0.0 0.0 -2.273323 0.310445 2.037770 0.525652 -1.560633 -3.080917 0.868006 -2.199068 2.654072 -1.030150 -1.111825 12.245517 0.0 0.0 0.0 -0.789973 0.838052 -0.389197 0.137075 -1.149889 -0.356938 0.015036 -1.006089 -0.582501 0.157000 -0.806979 0.013639 -2.499984 2.273089 2.842041 0.0 0.0 0.0 0.059007 -0.387665 -0.035067 -0.014073 -1.741768 -0.880008 0.164971 -0.776877 -0.279817 -1.540317 1.127633 -2.802716 0.0 0.0 0.0 
-1.209252 0.109118 0.846219 -0.103897 1.396466 1.373959 -0.151919 -1.688137 -1.350898 0.0 0.0 0.0 0.303513 0.019221 0.304956 -5.817505 33.870152 15.746927 -29.069017 22.935476 78.924149 -14.179136 31.786955 19.491846 0.0 0.0 0.0 -2.328820 0.424959 2.075787 0.529234 -1.638025 -3.113601 0.733509 -1.899586 2.539520 -1.384995 0.104625 11.276087 0.0 0.0 0.0 -0.755703 0.807811 -0.412930 0.248207 -1.047650 -0.210948 0.014063 -1.046448 -0.738961 0.136030 -0.704815 0.032562 -2.201471 2.021710 2.763580 0.0 0.0 0.0 0.164854 -0.297590 -0.151859 -0.004238 -1.760959 -0.746737 0.156887 -0.735568 -0.253129 -2.027126 1.568856 -2.724043 0.0 0.0 0.0 
-1.194136 0.115213 0.862694 -0.109857 1.459023 1.358227 -0.156590 -1.753960 -1.366590 0.0 0.0 0.0 0.255545 0.074054 0.285275 -5.873147 33.980545 16.456402 -23.829569 19.477871 80.135300 -10.055753 19.919321 24.094604 0.0 0.0 0.0 -1.954890 0.531902 1.723733 0.392555 -1.835065 -2.329947 0.663360 -1.713558 2.131901 -1.491178 0.157965 11.961702 0.0 0.0 0.0 -0.589724 0.646929 -0.436682 0.263742 -0.943267 -0.152901 0.014079 -1.103724 -0.813277 0.099873 -0.556375 0.165514 -1.745858 1.633310 2.559484 0.0 0.0 0.0 0.296565 -0.142036 -0.300146 0.014440 -1.808253 -0.498951 0.148725 -0.718293 -0.338573 -1.671640 1.275411 -2.350790 0.0 0.0 0.0 
-1.139228 0.152290 0.921559 -0.117635 1.545473 1.409352 -0.148186 -1.659387 -1.313080 0.0 0.0 0.0 0.404364 0.169687 0.476979 -5.871961 33.928680 17.304955 -7.014624 9.558673 81.245255 -7.379090 13.477947 26.419094 0.0 0.0 0.0 -1.233698 0.094867 1.114879 0.210454 -1.270953 -1.213390 0.477477 -1.227583 1.297483 -0.699027 -1.730957 11.416588 0.0 0.0 0.0 -0.224885 0.293182 -0.489757 0.178218 -0.762228 -0.156512 0.011598 -0.905652 -0.790402 0.142103 -0.766551 0.149339 -2.411400 2.198435 2.813859 0.0 0.0 0.0 0.173606 0.185741 -0.194009 0.012388 -2.024388 -0.595793 0.070656 -0.370314 -0.316848 -2.285161 1.846221 -1.901648 0.0 0.0 0.0 
-1.138553 0.162178 0.942850 -0.118346 1.549925 1.359291 -0.110804 -1.294696 -0.994416 0.0 0.0 0.0 0.041306 0.826536 0.449786 -5.352940 32.553596 17.609919 -1.284548 6.230134 79.228439 3.187736 -7.598542 27.291664 0.0 0.0 0.0 -1.233500 0.461791 1.074036 0.233525 -1.788728 -1.379821 0.426639 -1.145059 1.609302 -0.548111 -0.893795 7.243713 0.0 0.0 0.0 -0.261837 0.322671 -0.441604 0.435631 -0.924222 0.014611 0.008397 -0.777817 -0.973114 0.129758 -0.717392 0.200701 -2.313495 2.113916 2.718422 0.0 0.0 0.0 0.718058 0.252475 -0.767449 0.069938 -2.128557 0.148941 0.050629 -0.355738 -0.679497 -1.414911 1.079828 -1.881462 0.0 0.0 0.0 
-1.076651 0.154132 1.070714 -0.117308 1.547684 1.500597 -0.088436 -0.496181 -1.469577 0.0 0.0 0.0 0.426090 0.738728 0.779638 -5.155359 32.030758 17.166199 9.044785 -0.073103 79.001572 1.981479 -5.700862 20.344385 0.0 0.0 0.0 -0.673686 0.023292 0.612288 0.056647 -0.932540 -0.318764 0.509206 -1.194014 0.224795 -0.807068 -0.631229 8.717247 0.0 0.0 0.0 0.100362 -0.031934 -0.470520 0.413985 -0.625320 0.119731 0.005934 -0.668042 -1.135699 0.136275 -0.716318 0.071210 -3.695851 3.273309 3.254876 0.0 0.0 0.0 0.680988 0.691761 -0.758242 0.064218 -2.099071 0.083074 0.098879 -0.578635 -0.714966 -3.720714 3.123687 -1.514823 0.0 0.0 0.0 
-1.021889 0.150254 1.077914 -0.125735 1.635028 1.470189 -0.057499 -0.185861 -1.167086 0.0 0.0 0.0 0.488447 0.671544 0.806696 -4.976265 31.563488 18.173498 18.186462 -7.175555 73.590866 -7.184714 9.782768 38.117035 0.0 0.0 0.0 0.422259 -0.547300 -0.323216 -0.096857 0.635379 0.510644 1.181893 -2.560898 -2.349922 -3.471352 3.006598 17.569195 0.0 0.0 0.0 0.544541 -0.465220 -0.518152 0.188161 -0.225366 0.078951 0.007600 -0.738652 -1.015579 0.106472 -0.574699 0.109344 -3.549611 3.151977 3.216500 0.0 0.0 0.0 0.410143 1.101588 -0.502723 0.053595 -2.134033 -0.073490 0.097252 -0.577486 -0.743469 -3.478590 2.911631 -1.526350 0.0 0.0 0.0 
-1.027967 0.127923 1.090646 -0.133987 1.722865 1.480339 -0.035215 0.258288 -1.236688 0.0 0.0 0.0 0.637206 0.714626 0.972139 -4.684234 30.989069 24.127438 28.496317 -16.059120 69.910530 3.453923 -10.038289 14.828748 0.0 0.0 0.0 0.472680 -0.565674 -0.367152 -0.046262 0.719098 0.241355 1.169643 -2.600531 -1.343616 -3.189225 2.777622 16.416128 0.0 0.0 0.0 0.657530 -0.576948 -0.519175 0.218809 -0.170568 0.130564 0.007828 -0.802900 -1.080845 0.092715 -0.488496 0.050530 -2.794630 2.516132 2.728302 0.0 0.0 0.0 0.560662 1.238606 -0.669025 0.072000 -2.220903 0.140794 0.102078 -0.607625 -0.783021 -3.311213 2.761373 -1.623624 0.0 0.0 0.0 
-1.063249 0.079054 1.079488 -0.142796 1.813247 1.405147 0.005333 0.815235 -0.967946 0.0 0.0 0.0 0.624139 1.006147 1.104589 -4.531082 30.595978 22.819107 33.808434 -20.862467 68.653969 -1.057282 3.054056 6.461679 0.0 0.0 0.0 0.381277 -0.392243 -0.303575 0.079040 0.368261 -0.425285 1.127582 -2.584603 -0.115435 -3.175933 3.452682 14.541719 0.0 0.0 0.0 0.706816 -0.634072 -0.455866 0.303992 -0.139191 0.222791 0.005803 -0.749845 -1.267766 0.131955 -0.836690 0.619861 -2.115485 1.935586 2.327325 0.0 0.0 0.0 0.815172 1.352572 -0.942391 0.103223 -2.314986 0.517007 0.107208 -0.639945 -0.825832 -2.963749 2.480922 -1.092359 0.0 0.0 0.0 
-1.121564 0.100750 1.138234 -0.141127 1.791106 1.295389 0.045219 1.338332 -0.569691 0.0 0.0 0.0 0.560845 1.283391 1.182078 -4.242828 29.680676 19.001951 35.335396 -24.367683 64.439499 0.968346 -2.728131 93.583900 0.0 0.0 0.0 0.405060 -0.334759 -0.331884 0.087094 0.505727 -0.466132 0.570616 -1.350021 0.387531 -0.316282 -2.981110 12.457092 0.0 0.0 0.0 0.763725 -0.703908 -0.351863 0.708714 -0.103198 0.612345 0.002885 -0.726621 -1.630016 0.095404 -0.646250 0.586709 -2.172622 1.970848 1.928274 0.0 0.0 0.0 1.674526 1.504210 -1.850365 0.186513 -2.083118 1.746687 0.114668 -0.748859 -1.164684 -3.322637 2.828225 -0.181998 0.0 0.0 0.0 
-1.120043 0.079137 1.197863 -0.143048 1.811812 1.296452 0.081608 2.386934 -1.447841 0.0 0.0 0.0 0.936357 1.122861 1.464290 -4.579562 30.436651 16.492659 35.848358 -28.610716 57.919979 -0.980808 3.002129 5.291100 0.0 0.0 0.0 0.368319 -0.304746 -0.301754 0.126814 0.470658 -0.678720 1.193169 -2.613818 -1.977344 -3.992915 3.643170 19.005917 0.0 0.0 0.0 0.902757 -0.842098 -0.343864 0.796391 0.043416 0.755279 0.002191 -0.796882 -1.772431 0.064557 -0.544713 0.781872 -1.903160 1.729843 1.582959 0.0 0.0 0.0 1.648359 1.646890 -1.832311 0.184571 -2.030422 1.750985 0.106127 -0.665577 -0.964859 -2.662649 2.307025 0.695218 0.0 0.0 0.0 
-1.117346 0.078461 1.230025 -0.142959 1.809258 1.254406 0.110378 2.949670 -1.742463 0.0 0.0 0.0 1.150302 1.070418 1.644223 -3.698966 27.665325 14.457521 27.101244 -31.957197 36.996376 1.948755 -6.080076 14.897638 0.0 0.0 0.0 0.741485 -0.561760 -0.613176 0.047724 1.108507 -0.251921 1.224071 -2.737797 -1.215409 -3.071112 4.095385 12.319894 0.0 0.0 0.0 1.153775 -1.086729 -0.367022 0.910931 0.291099 0.965870 0.001605 -0.746888 -1.815142 0.059797 -0.439491 0.478523 -2.249403 2.039010 2.027468 0.0 0.0 0.0 1.719838 1.930296 -1.925422 0.197268 -1.953254 1.971160 0.108162 -0.676401 -0.972283 -2.414806 2.106701 0.854833 0.0 0.0 0.0 
-1.109484 0.030786 1.223826 -0.148706 1.868484 1.167209 0.158805 3.889828 -3.214508 0.0 0.0 0.0 1.846990 0.533045 2.047343 -3.265435 25.843218 12.125645 23.565022 -30.200302 32.342644 1.387604 -5.813735 0.376977 0.0 0.0 0.0 0.878117 -0.719049 -0.719838 0.066803 1.567982 -0.345764 1.406247 -3.160062 -1.366619 -3.060405 3.817046 12.920266 0.0 0.0 0.0 1.462510 -1.380081 -0.459594 0.822306 0.753661 1.081522 0.003436 -0.902291 -1.694602 0.058629 -0.397653 0.347550 -1.986707 1.816509 2.021605 0.0 0.0 0.0 1.501766 2.212202 -1.715777 0.192290 -2.133982 1.795136 0.062996 -0.340003 -0.333499 -2.552986 2.227739 0.956013 0.0 0.0 0.0 
-1.104623 0.039914 1.214480 -0.149595 1.877133 1.134877 0.165151 3.966587 -3.100880 0.0 0.0 0.0 1.847444 0.507217 2.035082 -2.423411 22.616177 11.122432 17.623957 -27.950251 21.809351 2.156024 -10.137935 -3.560703 0.0 0.0 0.0 0.932819 -0.580173 -0.785924 0.070476 1.515604 -0.365067 1.971535 -4.477362 -2.359943 -5.276759 7.684402 16.343096 0.0 0.0 0.0 1.494264 -1.412251 -0.452531 0.807151 0.843402 1.106028 0.004060 -0.990711 -1.684062 0.030121 -0.228130 0.256274 -1.555114 1.458134 2.190948 0.0 0.0 0.0 1.474981 2.256222 -1.690638 0.183902 -2.112222 1.694629 0.081234 -0.359086 -0.032438 -2.158756 1.892248 0.864660 0.0 0.0 0.0 
-1.075527 0.030059 1.211619 -0.157684 1.965495 1.133562 0.170557 4.039613 -3.091090 0.0 0.0 0.0 2.240356 0.147063 2.234920 -1.766330 19.584944 9.780045 14.350375 -26.609005 15.037764 0.476066 -1.977000 -1.789171 0.0 0.0 0.0 2.412970 -2.074106 -1.962539 -0.498564 3.442957 2.336227 2.074888 -4.705147 -3.754716 -5.077085 8.334152 14.077477 0.0 0.0 0.0 2.149843 -2.043237 -0.596486 0.403473 1.303998 0.932863 0.005940 -0.793872 -1.303520 -0.008691 -0.031232 0.254387 -0.524665 0.587908 2.195290 0.0 0.0 0.0 0.975122 2.860848 -1.207663 0.152544 -1.876624 1.397869 0.173581 -0.807969 -0.249392 -1.922114 1.690712 0.817539 0.0 0.0 0.0 
-1.132524 0.014740 1.178193 -0.166947 2.065217 1.027416 0.145427 3.664177 -2.804706 0.0 0.0 0.0 2.088711 0.286603 2.157982 -1.220061 17.086430 9.192707 10.275215 -27.354042 2.344141 -2.803951 7.334830 11.500922 0.0 0.0 0.0 2.150660 -1.586697 -1.781211 -0.288234 2.684078 1.389844 2.026204 -4.607413 -2.491926 -4.876880 8.064122 13.633765 0.0 0.0 0.0 2.074581 -1.974775 -0.542111 0.481057 1.240435 0.976823 0.007301 -0.972521 -1.334558 -0.062973 0.235625 0.279942 0.368274 -0.177341 2.050622 0.0 0.0 0.0 0.972838 2.752034 -1.198282 0.158462 -1.912487 1.459939 0.176872 -0.839778 -0.327750 -1.754805 1.554418 0.888377 0.0 0.0 0.0 
-1.122426 0.018641 1.159167 -0.163223 2.023141 0.976159 0.136309 3.539644 -2.838025 0.0 0.0 0.0 2.096236 0.285845 2.164813 -0.370831 12.595389 7.962786 7.141567 -20.570593 0.101450 -1.646052 4.463950 9.024974 0.0 0.0 0.0 2.151337 -1.443763 -1.798904 -0.289564 2.494721 1.407816 1.824445 -4.135371 -1.878707 -4.207928 7.139065 12.099705 0.0 0.0 0.0 2.088214 -1.991330 -0.513330 0.627467 1.204138 1.095936 0.004853 -0.830450 -1.474485 -0.074875 0.293230 0.288245 0.306777 -0.122446 2.090003 0.0 0.0 0.0 1.012753 2.794032 -1.242642 0.165652 -1.961064 1.531848 0.129739 -0.603714 -0.192911 -3.526116 3.057341 1.377046 0.0 0.0 0.0 
-1.108271 0.033572 1.153398 -0.162324 2.012602 0.946866 0.128910 3.437706 -2.853700 0.0 0.0 0.0 2.400748 -0.152398 2.242730 -0.413221 7.212576 2.747485 3.809755 -10.438998 1.200023 -0.249380 2.022010 -5.519064 0.0 0.0 0.0 2.130364 -1.299265 -1.796926 -0.260119 2.272774 1.276151 1.414602 -3.196346 -1.055955 -2.524058 3.378126 10.608440 0.0 0.0 0.0 2.194113 -2.087614 -0.590274 0.640062 1.303793 1.150594 0.005118 -0.796473 -1.408656 -0.087335 0.368644 0.248391 0.816987 -0.580639 1.758349 0.0 0.0 0.0 0.935313 2.892534 -1.168156 0.164542 -1.900405 1.550891 0.148845 -0.689213 -0.201776 -3.532038 3.064753 1.448283 0.0 0.0 0.0 
-1.075566 0.053900 1.156330 -0.154712 1.927983 0.950450 0.130720 3.409362 -2.490119 0.0 0.0 0.0 2.478238 -0.340135 2.225995 -0.472260 6.651621 2.097543 3.253032 -9.820750 -0.864234 -1.363208 4.828237 3.277651 0.0 0.0 0.0 2.223944 -1.381333 -1.872802 -0.308335 2.451723 1.502455 1.622916 -3.682395 -1.150239 -3.185611 4.835949 11.310516 0.0 0.0 0.0 2.201734 -2.092191 -0.618113 0.619706 1.312185 1.135500 0.004639 -0.670639 -1.325961 -0.030316 0.106892 0.158924 0.237762 -0.047515 2.330927 0.0 0.0 0.0 0.882840 2.908566 -1.114431 0.160440 -1.905633 1.491147 0.093873 -0.426967 -0.096038 -2.647935 2.307827 0.967180 0.0 0.0 0.0 
-1.062298 0.048235 1.122117 -0.150843 1.882052 0.861720 0.125956 3.314867 -2.344207 0.0 0.0 0.0 2.500341 -0.622432 2.111188 -0.650611 5.502279 0.613407 2.705155 -8.740071 -2.083134 -4.718394 11.169878 15.851429 0.0 0.0 0.0 2.529317 -1.722299 -2.111459 -0.451183 2.770986 2.172916 1.374857 -3.097853 -1.146413 -2.419816 3.367973 9.962150 0.0 0.0 0.0 2.289560 -2.182476 -0.584243 0.561204 1.349028 1.097621 0.003935 -0.525524 -1.217685 0.002010 -0.047566 0.125574 -0.118453 0.246969 2.234446 0.0 0.0 0.0 0.818036 2.862967 -1.043881 0.151056 -1.667789 1.495108 0.120090 -0.534200 -0.062355 -3.049419 2.630116 0.640526 0.0 0.0 0.0 
-1.070181 0.080076 1.034713 -0.134621 1.687479 0.620784 0.135266 3.340192 -1.659006 0.0 0.0 0.0 2.428242 -0.906999 1.905802 -0.898194 4.759242 -0.806799 2.469398 -6.610301 1.389233 -2.221285 6.059155 9.789778 0.0 0.0 0.0 1.722345 -0.912474 -1.469268 -0.166929 1.588345 0.842371 0.964054 -2.264391 0.640732 -0.940445 0.698439 6.041462 0.0 0.0 0.0 1.902406 -1.819191 -0.412575 0.808214 1.124941 1.228013 0.002401 -0.418394 -1.314255 0.037305 -0.247143 0.195344 -0.307412 0.393492 2.016131 0.0 0.0 0.0 0.999424 2.639329 -1.218771 0.166198 -1.568868 1.771461 0.138486 -0.642760 -0.196555 -2.317175 2.009526 0.570705 0.0 0.0 0.0 
-1.069421 0.086537 1.021504 -0.128976 1.620234 0.581943 0.119111 3.043074 -1.523582 0.0 0.0 0.0 2.295712 -0.921256 1.772017 -0.907454 4.593998 -0.934188 2.382463 -6.370073 1.383174 -0.916838 2.356588 7.890834 0.0 0.0 0.0 1.797373 -1.028419 -1.524268 -0.234690 1.758684 1.177531 0.882969 -2.093908 0.807803 -0.418549 -0.096357 3.838367 0.0 0.0 0.0 1.862941 -1.783066 -0.387887 0.732725 1.063397 1.132088 0.001360 -0.252709 -1.168268 0.082611 -0.468817 0.165853 -0.573711 0.611693 1.880944 0.0 0.0 0.0 0.893730 2.429508 -1.094888 0.147568 -1.304461 1.663456 0.165821 -0.774574 -0.252313 -1.489281 1.298741 0.393778 0.0 0.0 0.0 
-1.067773 0.083244 1.011300 -0.122515 1.542828 0.540608 0.075185 2.316131 -1.560550 0.0 0.0 0.0 2.105790 -1.107905 1.500543 -0.907385 4.422698 -1.027067 2.654923 -7.218263 1.155140 -3.088106 7.959673 12.169067 0.0 0.0 0.0 1.783135 -1.048585 -1.508861 -0.310095 1.821669 1.553576 0.807712 -1.903903 0.557583 -0.147965 -0.291517 2.005517 0.0 0.0 0.0 1.713788 -1.640492 -0.349950 0.787157 0.964955 1.139814 0.000997 -0.216944 -1.164537 0.111098 -0.624380 0.206582 -0.630280 0.649167 1.690135 0.0 0.0 0.0 0.944470 2.319631 -1.140730 0.148054 -1.243126 1.709614 0.178921 -0.832090 -0.252549 -1.936093 1.696804 0.721891 0.0 0.0 0.0 
